{
"type": "FeatureCollection",
"name": "natural_gas_pipelines_nv",
"crs": { "type": "name", "properties": { "name": "urn:ogc:def:crs:OGC:1.3:CRS84" } },
"features": [
{ "type": "Feature", "properties": { "TYPEPIPE": "Interstate", "Operator": "El Paso Natural Gas Co", "Status": "Operating", "Shape_Leng": 0.04927612186, "STATEFP": "32", "STATENS": "01779793", "AFFGEOID": "0400000US32", "GEOID": "32", "STUSPS": "NV", "NAME": "Nevada", "LSAD": "00", "ALAND": 284329506470, "AWATER": 2047206072 }, "geometry": { "type": "MultiLineString", "coordinates": [ [ [ -114.621586444427379, 35.104328388384609 ], [ -114.638577, 35.106535 ], [ -114.645382, 35.102993 ] ] ] } },
{ "type": "Feature", "properties": { "TYPEPIPE": "Interstate", "Operator": "El Paso Natural Gas Co", "Status": "Operating", "Shape_Leng": 0.01451713946, "STATEFP": "32", "STATENS": "01779793", "AFFGEOID": "0400000US32", "GEOID": "32", "STUSPS": "NV", "NAME": "Nevada", "LSAD": "00", "ALAND": 284329506470, "AWATER": 2047206072 }, "geometry": { "type": "MultiLineString", "coordinates": [ [ [ -114.645382, 35.102993 ], [ -114.658259, 35.09629 ] ] ] } },
{ "type": "Feature", "properties": { "TYPEPIPE": "Interstate", "Operator": "Kern River Gas Trans Co", "Status": "Operating", "Shape_Leng": 0.53194758491000005, "STATEFP": "32", "STATENS": "01779793", "AFFGEOID": "0400000US32", "GEOID": "32", "STUSPS": "NV", "NAME": "Nevada", "LSAD": "00", "ALAND": 284329506470, "AWATER": 2047206072 }, "geometry": { "type": "MultiLineString", "coordinates": [ [ [ -115.396098, 36.042409 ], [ -115.368779, 36.076491 ], [ -115.338975, 36.100549 ], [ -115.338975, 36.098544 ], [ -115.331524, 36.156685 ], [ -115.334008, 36.158689 ], [ -115.346426, 36.192771 ], [ -115.341459, 36.21282 ], [ -115.311655, 36.252916 ], [ -115.309172, 36.250912 ], [ -115.296754, 36.258931 ], [ -115.299237, 36.262941 ], [ -115.299237, 36.27096 ], [ -115.301721, 36.272965 ], [ -115.05659, 36.28364 ] ] ] } },
{ "type": "Feature", "properties": { "TYPEPIPE": "Interstate", "Operator": "Kern River Gas Trans Co", "Status": "Operating", "Shape_Leng": 0.0830415018, "STATEFP": "32", "STATENS": "01779793", "AFFGEOID": "0400000US32", "GEOID": "32", "STUSPS": "NV", "NAME": "Nevada", "LSAD": "00", "ALAND": 284329506470, "AWATER": 2047206072 }, "geometry": { "type": "MultiLineString", "coordinates": [ [ [ -114.911792, 36.433351 ], [ -114.830991, 36.439432 ], [ -114.830991, 36.441444 ] ] ] } },
{ "type": "Feature", "properties": { "TYPEPIPE": "Interstate", "Operator": "Kern River Gas Trans Co", "Status": "Operating", "Shape_Leng": 0.0586361612, "STATEFP": "32", "STATENS": "01779793", "AFFGEOID": "0400000US32", "GEOID": "32", "STUSPS": "NV", "NAME": "Nevada", "LSAD": "00", "ALAND": 284329506470, "AWATER": 2047206072 }, "geometry": { "type": "MultiLineString", "coordinates": [ [ [ -114.539258, 36.649492 ], [ -114.498208, 36.607622 ] ] ] } },
{ "type": "Feature", "properties": { "TYPEPIPE": "Interstate", "Operator": "Kern River Gas Trans Co", "Status": "Operating", "Shape_Leng": 1.0352258385599999, "STATEFP": "32", "STATENS": "01779793", "AFFGEOID": "0400000US32", "GEOID": "32", "STUSPS": "NV", "NAME": "Nevada", "LSAD": "00", "ALAND": 284329506470, "AWATER": 2047206072 }, "geometry": { "type": "MultiLineString", "coordinates": [ [ [ -114.830991, 36.439432 ], [ -114.830991, 36.441444 ], [ -114.781472, 36.482122 ], [ -114.647274, 36.592361 ], [ -114.539258, 36.649492 ], [ -114.242156, 36.806893 ], [ -114.172416, 36.84352 ], [ -114.05146854953469, 37.066954909822371 ] ] ] } },
{ "type": "Feature", "properties": { "TYPEPIPE": "Interstate", "Operator": "Kern River Gas Trans Co", "Status": "Operating", "Shape_Leng": 0.30456890951, "STATEFP": "32", "STATENS": "01779793", "AFFGEOID": "0400000US32", "GEOID": "32", "STUSPS": "NV", "NAME": "Nevada", "LSAD": "00", "ALAND": 284329506470, "AWATER": 2047206072 }, "geometry": { "type": "MultiLineString", "coordinates": [ [ [ -115.05659, 36.28364 ], [ -115.028269, 36.284668 ], [ -114.944079, 36.367192 ], [ -114.93932, 36.36864 ], [ -114.911792, 36.433351 ], [ -114.830991, 36.439432 ], [ -114.830991, 36.441444 ] ] ] } },
{ "type": "Feature", "properties": { "TYPEPIPE": "Interstate", "Operator": "Kern River Gas Trans Co", "Status": "Operating", "Shape_Leng": 0.22540697444, "STATEFP": "32", "STATENS": "01779793", "AFFGEOID": "0400000US32", "GEOID": "32", "STUSPS": "NV", "NAME": "Nevada", "LSAD": "00", "ALAND": 284329506470, "AWATER": 2047206072 }, "geometry": { "type": "MultiLineString", "coordinates": [ [ [ -115.448233, 35.841833 ], [ -115.457971841652181, 35.883869316695666 ] ], [ [ -115.457971841652181, 35.883869316695666 ], [ -115.457972, 35.88387 ], [ -115.457972, 35.883869 ], [ -115.457971841652181, 35.883869316695666 ] ], [ [ -115.457971841652181, 35.883869316695666 ], [ -115.457971, 35.883871 ], [ -115.38368, 35.998303 ], [ -115.396098, 36.042409 ] ] ] } },
{ "type": "Feature", "properties": { "TYPEPIPE": "Interstate", "Operator": "Kern River Gas Trans Co", "Status": "Operating", "Shape_Leng": 1.6578404738600001, "STATEFP": "32", "STATENS": "01779793", "AFFGEOID": "0400000US32", "GEOID": "32", "STUSPS": "NV", "NAME": "Nevada", "LSAD": "00", "ALAND": 284329506470, "AWATER": 2047206072 }, "geometry": { "type": "MultiLineString", "coordinates": [ [ [ -115.431534, 35.648599 ], [ -115.441938205281929, 35.647130849266311 ] ] ] } },
{ "type": "Feature", "properties": { "TYPEPIPE": "Interstate", "Operator": "Kern River Gas Trans Co", "Status": "Operating", "Shape_Leng": 0.19608586528, "STATEFP": "32", "STATENS": "01779793", "AFFGEOID": "0400000US32", "GEOID": "32", "STUSPS": "NV", "NAME": "Nevada", "LSAD": "00", "ALAND": 284329506470, "AWATER": 2047206072 }, "geometry": { "type": "MultiLineString", "coordinates": [ [ [ -115.448233, 35.841833 ], [ -115.425174, 35.742305 ], [ -115.429507, 35.678459 ], [ -115.431534, 35.648599 ] ] ] } },
{ "type": "Feature", "properties": { "TYPEPIPE": "Intrastate", "Operator": "Southwest Gas Corp", "Status": "Operating", "Shape_Leng": 0.19913250069, "STATEFP": "32", "STATENS": "01779793", "AFFGEOID": "0400000US32", "GEOID": "32", "STUSPS": "NV", "NAME": "Nevada", "LSAD": "00", "ALAND": 284329506470, "AWATER": 2047206072 }, "geometry": { "type": "MultiLineString", "coordinates": [ [ [ -115.145472, 36.037376 ], [ -114.946688, 36.0256 ] ] ] } },
{ "type": "Feature", "properties": { "TYPEPIPE": "Intrastate", "Operator": "Southwest Gas Corp", "Status": "Operating", "Shape_Leng": 0.04791578746, "STATEFP": "32", "STATENS": "01779793", "AFFGEOID": "0400000US32", "GEOID": "32", "STUSPS": "NV", "NAME": "Nevada", "LSAD": "00", "ALAND": 284329506470, "AWATER": 2047206072 }, "geometry": { "type": "MultiLineString", "coordinates": [ [ [ -114.90496, 36.002048 ], [ -114.946688, 36.0256 ] ] ] } },
{ "type": "Feature", "properties": { "TYPEPIPE": "Intrastate", "Operator": "Southwest Gas Corp", "Status": "Operating", "Shape_Leng": 0.04136004642, "STATEFP": "32", "STATENS": "01779793", "AFFGEOID": "0400000US32", "GEOID": "32", "STUSPS": "NV", "NAME": "Nevada", "LSAD": "00", "ALAND": 284329506470, "AWATER": 2047206072 }, "geometry": { "type": "MultiLineString", "coordinates": [ [ [ -114.930688, 35.969664 ], [ -114.90496, 36.002048 ] ] ] } },
{ "type": "Feature", "properties": { "TYPEPIPE": "Intrastate", "Operator": "Paiute Pipeline Co", "Status": "Operating", "Shape_Leng": 2.7700984282, "STATEFP": "32", "STATENS": "01779793", "AFFGEOID": "0400000US32", "GEOID": "32", "STUSPS": "NV", "NAME": "Nevada", "LSAD": "00", "ALAND": 284329506470, "AWATER": 2047206072 }, "geometry": { "type": "MultiLineString", "coordinates": [ [ [ -116.605784061316172, 41.997372397863607 ], [ -116.640663, 41.974776 ], [ -116.70736, 41.940795 ], [ -117.054996, 41.751831 ], [ -117.14714, 41.685694 ], [ -117.189025, 41.666797 ], [ -117.230909, 41.606959 ], [ -117.457082, 41.430593 ], [ -117.515719, 41.395949 ], [ -117.698554, 41.219927 ], [ -117.725138, 41.175492 ], [ -117.913615, 40.97393 ], [ -117.989006, 40.929839 ], [ -118.047643, 40.885747 ], [ -118.089527, 40.810162 ], [ -118.118846, 40.76607 ], [ -118.273816, 40.646393 ], [ -118.298946, 40.621198 ], [ -118.319888, 40.492073 ], [ -118.59862, 40.169918 ] ] ] } },
{ "type": "Feature", "properties": { "TYPEPIPE": "Intrastate", "Operator": "Paiute Pipeline Co", "Status": "Operating", "Shape_Leng": 0.47677512573000003, "STATEFP": "32", "STATENS": "01779793", "AFFGEOID": "0400000US32", "GEOID": "32", "STUSPS": "NV", "NAME": "Nevada", "LSAD": "00", "ALAND": 284329506470, "AWATER": 2047206072 }, "geometry": { "type": "MultiLineString", "coordinates": [ [ [ -117.913615, 40.97393 ], [ -117.804717, 40.970781 ], [ -117.79634, 40.898345 ], [ -117.762833, 40.876299 ], [ -117.741892, 40.807012 ], [ -117.725138, 40.737726 ], [ -117.704196, 40.706232 ], [ -117.64137, 40.668439 ] ] ] } },
{ "type": "Feature", "properties": { "TYPEPIPE": "Intrastate", "Operator": "Paiute Pipeline Co", "Status": "Operating", "Shape_Leng": 1.5075350809500001, "STATEFP": "32", "STATENS": "01779793", "AFFGEOID": "0400000US32", "GEOID": "32", "STUSPS": "NV", "NAME": "Nevada", "LSAD": "00", "ALAND": 284329506470, "AWATER": 2047206072 }, "geometry": { "type": "MultiLineString", "coordinates": [ [ [ -117.64137, 40.668439 ], [ -117.607863, 40.655841 ], [ -117.524096, 40.66529 ], [ -117.465458, 40.643244 ], [ -117.364937, 40.599152 ], [ -117.28117, 40.536164 ], [ -117.222532, 40.514119 ], [ -117.1262, 40.510969 ], [ -117.02149, 40.517268 ], [ -116.900026, 40.533015 ], [ -116.84117, 40.549611 ], [ -116.799506, 40.56136 ], [ -116.652912, 40.577107 ], [ -116.477, 40.614899 ], [ -116.384856, 40.655841 ], [ -116.301088, 40.671588 ], [ -116.204754, 40.71568 ] ] ] } },
{ "type": "Feature", "properties": { "TYPEPIPE": "Intrastate", "Operator": "Paiute Pipeline Co", "Status": "Operating", "Shape_Leng": 0.43845386412999998, "STATEFP": "32", "STATENS": "01779793", "AFFGEOID": "0400000US32", "GEOID": "32", "STUSPS": "NV", "NAME": "Nevada", "LSAD": "00", "ALAND": 284329506470, "AWATER": 2047206072 }, "geometry": { "type": "MultiLineString", "coordinates": [ [ [ -116.204754, 40.71568 ], [ -116.151994, 40.744017 ], [ -116.116798, 40.762921 ], [ -116.024654, 40.775518 ], [ -115.940886, 40.800714 ], [ -115.785916, 40.832208 ] ] ] } },
{ "type": "Feature", "properties": { "TYPEPIPE": "Intrastate", "Operator": "Paiute Pipeline Co", "Status": "Operating", "Shape_Leng": 0.89738180427000003, "STATEFP": "32", "STATENS": "01779793", "AFFGEOID": "0400000US32", "GEOID": "32", "STUSPS": "NV", "NAME": "Nevada", "LSAD": "00", "ALAND": 284329506470, "AWATER": 2047206072 }, "geometry": { "type": "MultiLineString", "coordinates": [ [ [ -118.59862, 40.169918 ], [ -118.737522, 40.035418 ], [ -119.223679, 39.790326 ], [ -119.304706, 39.652837 ] ] ] } },
{ "type": "Feature", "properties": { "TYPEPIPE": "Intrastate", "Operator": "Paiute Pipeline Co", "Status": "Operating", "Shape_Leng": 1.17655425141, "STATEFP": "32", "STATENS": "01779793", "AFFGEOID": "0400000US32", "GEOID": "32", "STUSPS": "NV", "NAME": "Nevada", "LSAD": "00", "ALAND": 284329506470, "AWATER": 2047206072 }, "geometry": { "type": "MultiLineString", "coordinates": [ [ [ -119.232382, 39.513154 ], [ -119.028514, 39.514459 ], [ -119.005352, 39.523325 ], [ -118.959029, 39.532191 ], [ -118.912705, 39.511504 ], [ -118.870243, 39.508548 ], [ -118.870243, 39.493772 ], [ -118.808477, 39.490816 ], [ -118.808477, 39.449442 ], [ -118.781455, 39.446487 ], [ -118.785315, 39.413978 ], [ -118.677228, 39.405112 ], [ -118.650206, 39.357827 ], [ -118.623184, 39.340095 ], [ -118.57686, 39.242569 ], [ -118.441749, 39.16573 ], [ -118.426308, 39.077071 ], [ -118.360684, 39.029785 ] ] ] } },
{ "type": "Feature", "properties": { "TYPEPIPE": "Intrastate", "Operator": "Paiute Pipeline Co", "Status": "Operating", "Shape_Leng": 0.41434077768, "STATEFP": "32", "STATENS": "01779793", "AFFGEOID": "0400000US32", "GEOID": "32", "STUSPS": "NV", "NAME": "Nevada", "LSAD": "00", "ALAND": 284329506470, "AWATER": 2047206072 }, "geometry": { "type": "MultiLineString", "coordinates": [ [ [ -118.360684, 39.029785 ], [ -118.306956, 39.032739 ], [ -117.961564, 38.929359 ] ] ] } },
{ "type": "Feature", "properties": { "TYPEPIPE": "Intrastate", "Operator": "Paiute Pipeline Co", "Status": "Operating", "Shape_Leng": 0.14314987542, "STATEFP": "32", "STATENS": "01779793", "AFFGEOID": "0400000US32", "GEOID": "32", "STUSPS": "NV", "NAME": "Nevada", "LSAD": "00", "ALAND": 284329506470, "AWATER": 2047206072 }, "geometry": { "type": "MultiLineString", "coordinates": [ [ [ -119.304706, 39.652837 ], [ -119.232382, 39.534607 ], [ -119.232382, 39.530054 ] ] ] } },
{ "type": "Feature", "properties": { "TYPEPIPE": "Intrastate", "Operator": "Paiute Pipeline Co", "Status": "Operating", "Shape_Leng": 0.01773787318, "STATEFP": "32", "STATENS": "01779793", "AFFGEOID": "0400000US32", "GEOID": "32", "STUSPS": "NV", "NAME": "Nevada", "LSAD": "00", "ALAND": 284329506470, "AWATER": 2047206072 }, "geometry": { "type": "MultiLineString", "coordinates": [ [ [ -119.232558, 39.438495 ], [ -119.232382, 39.420758 ] ] ] } },
{ "type": "Feature", "properties": { "TYPEPIPE": "Intrastate", "Operator": "Paiute Pipeline Co", "Status": "Operating", "Shape_Leng": 0.10240935017, "STATEFP": "32", "STATENS": "01779793", "AFFGEOID": "0400000US32", "GEOID": "32", "STUSPS": "NV", "NAME": "Nevada", "LSAD": "00", "ALAND": 284329506470, "AWATER": 2047206072 }, "geometry": { "type": "MultiLineString", "coordinates": [ [ [ -119.470006, 39.326647 ], [ -119.481322, 39.322573 ], [ -119.530618, 39.29355 ], [ -119.559324, 39.276916 ] ] ] } },
{ "type": "Feature", "properties": { "TYPEPIPE": "Intrastate", "Operator": "Paiute Pipeline Co", "Status": "Operating", "Shape_Leng": 0.04910000791, "STATEFP": "32", "STATENS": "01779793", "AFFGEOID": "0400000US32", "GEOID": "32", "STUSPS": "NV", "NAME": "Nevada", "LSAD": "00", "ALAND": 284329506470, "AWATER": 2047206072 }, "geometry": { "type": "MultiLineString", "coordinates": [ [ [ -119.662544, 39.215984 ], [ -119.711548, 39.212915 ] ] ] } },
{ "type": "Feature", "properties": { "TYPEPIPE": "Intrastate", "Operator": "Paiute Pipeline Co", "Status": "Operating", "Shape_Leng": 0.02484452891, "STATEFP": "32", "STATENS": "01779793", "AFFGEOID": "0400000US32", "GEOID": "32", "STUSPS": "NV", "NAME": "Nevada", "LSAD": "00", "ALAND": 284329506470, "AWATER": 2047206072 }, "geometry": { "type": "MultiLineString", "coordinates": [ [ [ -119.711548, 39.212915 ], [ -119.703872, 39.189286 ] ] ] } },
{ "type": "Feature", "properties": { "TYPEPIPE": "Intrastate", "Operator": "Paiute Pipeline Co", "Status": "Operating", "Shape_Leng": 0.12881019468, "STATEFP": "32", "STATENS": "01779793", "AFFGEOID": "0400000US32", "GEOID": "32", "STUSPS": "NV", "NAME": "Nevada", "LSAD": "00", "ALAND": 284329506470, "AWATER": 2047206072 }, "geometry": { "type": "MultiLineString", "coordinates": [ [ [ -119.703872, 39.189286 ], [ -119.70771, 39.115443 ], [ -119.720412, 39.062066 ] ] ] } },
{ "type": "Feature", "properties": { "TYPEPIPE": "Intrastate", "Operator": "Paiute Pipeline Co", "Status": "Operating", "Shape_Leng": 0.19899596896, "STATEFP": "32", "STATENS": "01779793", "AFFGEOID": "0400000US32", "GEOID": "32", "STUSPS": "NV", "NAME": "Nevada", "LSAD": "00", "ALAND": 284329506470, "AWATER": 2047206072 }, "geometry": { "type": "MultiLineString", "coordinates": [ [ [ -119.720412, 39.062066 ], [ -119.738411, 39.000248 ], [ -119.87273, 38.991387 ] ] ] } },
{ "type": "Feature", "properties": { "TYPEPIPE": "Intrastate", "Operator": "Paiute Pipeline Co", "Status": "Operating", "Shape_Leng": 0.06530784177, "STATEFP": "32", "STATENS": "01779793", "AFFGEOID": "0400000US32", "GEOID": "32", "STUSPS": "NV", "NAME": "Nevada", "LSAD": "00", "ALAND": 284329506470, "AWATER": 2047206072 }, "geometry": { "type": "MultiLineString", "coordinates": [ [ [ -119.87273, 38.991387 ], [ -119.937971, 38.988433 ] ] ] } },
{ "type": "Feature", "properties": { "TYPEPIPE": "Intrastate", "Operator": "Paiute Pipeline Co", "Status": "Operating", "Shape_Leng": 0.0525700462, "STATEFP": "32", "STATENS": "01779793", "AFFGEOID": "0400000US32", "GEOID": "32", "STUSPS": "NV", "NAME": "Nevada", "LSAD": "00", "ALAND": 284329506470, "AWATER": 2047206072 }, "geometry": { "type": "MultiLineString", "coordinates": [ [ [ -119.937971, 38.988433 ], [ -119.949676317890194, 38.964409464762603 ] ] ] } },
{ "type": "Feature", "properties": { "TYPEPIPE": "Intrastate", "Operator": "Paiute Pipeline Co", "Status": "Operating", "Shape_Leng": 0.31908440869, "STATEFP": "32", "STATENS": "01779793", "AFFGEOID": "0400000US32", "GEOID": "32", "STUSPS": "NV", "NAME": "Nevada", "LSAD": "00", "ALAND": 284329506470, "AWATER": 2047206072 }, "geometry": { "type": "MultiLineString", "coordinates": [ [ [ -119.711548, 39.212915 ], [ -119.795977, 39.24836 ], [ -119.826678, 39.254267 ], [ -119.849704, 39.239499 ], [ -119.911107, 39.257221 ], [ -119.945646, 39.266082 ], [ -119.999771, 39.261454 ], [ -120.004713930831571, 39.261031238871041 ] ] ] } },
{ "type": "Feature", "properties": { "TYPEPIPE": "Intrastate", "Operator": "Paiute Pipeline Co", "Status": "Operating", "Shape_Leng": 0.08783824598, "STATEFP": "32", "STATENS": "01779793", "AFFGEOID": "0400000US32", "GEOID": "32", "STUSPS": "NV", "NAME": "Nevada", "LSAD": "00", "ALAND": 284329506470, "AWATER": 2047206072 }, "geometry": { "type": "MultiLineString", "coordinates": [ [ [ -119.304706, 39.652837 ], [ -119.348781, 39.635296 ], [ -119.389182, 39.635296 ] ] ] } },
{ "type": "Feature", "properties": { "TYPEPIPE": "Intrastate", "Operator": "Paiute Pipeline Co", "Status": "Operating", "Shape_Leng": 0.18220404735000001, "STATEFP": "32", "STATENS": "01779793", "AFFGEOID": "0400000US32", "GEOID": "32", "STUSPS": "NV", "NAME": "Nevada", "LSAD": "00", "ALAND": 284329506470, "AWATER": 2047206072 }, "geometry": { "type": "MultiLineString", "coordinates": [ [ [ -119.389182, 39.635296 ], [ -119.500475, 39.611666 ], [ -119.535014, 39.552592 ] ] ] } },
{ "type": "Feature", "properties": { "TYPEPIPE": "Intrastate", "Operator": "Paiute Pipeline Co", "Status": "Operating", "Shape_Leng": 0.22990607053000001, "STATEFP": "32", "STATENS": "01779793", "AFFGEOID": "0400000US32", "GEOID": "32", "STUSPS": "NV", "NAME": "Nevada", "LSAD": "00", "ALAND": 284329506470, "AWATER": 2047206072 }, "geometry": { "type": "MultiLineString", "coordinates": [ [ [ -119.500475, 39.611666 ], [ -119.54269, 39.611666 ], [ -119.604093, 39.582129 ], [ -119.723061, 39.570314 ] ] ] } },
{ "type": "Feature", "properties": { "TYPEPIPE": "Intrastate", "Operator": "Paiute Pipeline Co", "Status": "Operating", "Shape_Leng": 0.07688944476, "STATEFP": "32", "STATENS": "01779793", "AFFGEOID": "0400000US32", "GEOID": "32", "STUSPS": "NV", "NAME": "Nevada", "LSAD": "00", "ALAND": 284329506470, "AWATER": 2047206072 }, "geometry": { "type": "MultiLineString", "coordinates": [ [ [ -119.723061, 39.570314 ], [ -119.761438, 39.567361 ], [ -119.761438, 39.528962 ] ] ] } },
{ "type": "Feature", "properties": { "TYPEPIPE": "Intrastate", "Operator": "Paiute Pipeline Co", "Status": "Operating", "Shape_Leng": 0.11803225805000001, "STATEFP": "32", "STATENS": "01779793", "AFFGEOID": "0400000US32", "GEOID": "32", "STUSPS": "NV", "NAME": "Nevada", "LSAD": "00", "ALAND": 284329506470, "AWATER": 2047206072 }, "geometry": { "type": "MultiLineString", "coordinates": [ [ [ -119.369417, 39.363102 ], [ -119.362318, 39.342879 ], [ -119.335455, 39.325156 ], [ -119.327779, 39.295619 ], [ -119.300916, 39.274943 ] ] ] } },
{ "type": "Feature", "properties": { "TYPEPIPE": "Intrastate", "Operator": "Paiute Pipeline Co", "Status": "Operating", "Shape_Leng": 0.31398441862999998, "STATEFP": "32", "STATENS": "01779793", "AFFGEOID": "0400000US32", "GEOID": "32", "STUSPS": "NV", "NAME": "Nevada", "LSAD": "00", "ALAND": 284329506470, "AWATER": 2047206072 }, "geometry": { "type": "MultiLineString", "coordinates": [ [ [ -119.300916, 39.274943 ], [ -119.262539, 39.221777 ], [ -119.228, 39.115443 ], [ -119.201136, 39.103628 ], [ -119.197298, 39.062276 ], [ -119.166597, 39.056369 ], [ -119.17811, 39.023878 ] ] ] } },
{ "type": "Feature", "properties": { "TYPEPIPE": "Intrastate", "Operator": "Paiute Pipeline Co", "Status": "Operating", "Shape_Leng": 0.33563214465000002, "STATEFP": "32", "STATENS": "01779793", "AFFGEOID": "0400000US32", "GEOID": "32", "STUSPS": "NV", "NAME": "Nevada", "LSAD": "00", "ALAND": 284329506470, "AWATER": 2047206072 }, "geometry": { "type": "MultiLineString", "coordinates": [ [ [ -119.232382, 39.420758 ], [ -119.204973, 39.405962 ], [ -119.208811, 39.279979 ], [ -119.197298, 39.243584 ], [ -119.208811, 39.218387 ], [ -119.197298, 39.201589 ], [ -119.116707, 39.156795 ] ] ] } },
{ "type": "Feature", "properties": { "TYPEPIPE": "Intrastate", "Operator": "Paiute Pipeline Co", "Status": "Operating", "Shape_Leng": 0.12591521837, "STATEFP": "32", "STATENS": "01779793", "AFFGEOID": "0400000US32", "GEOID": "32", "STUSPS": "NV", "NAME": "Nevada", "LSAD": "00", "ALAND": 284329506470, "AWATER": 2047206072 }, "geometry": { "type": "MultiLineString", "coordinates": [ [ [ -118.561434, 40.208106 ], [ -118.473168, 40.202198 ], [ -118.450142, 40.172661 ] ] ] } },
{ "type": "Feature", "properties": { "TYPEPIPE": "Intrastate", "Operator": "Paiute Pipeline Co", "Status": "Operating", "Shape_Leng": 0.08415305696, "STATEFP": "32", "STATENS": "01779793", "AFFGEOID": "0400000US32", "GEOID": "32", "STUSPS": "NV", "NAME": "Nevada", "LSAD": "00", "ALAND": 284329506470, "AWATER": 2047206072 }, "geometry": { "type": "MultiLineString", "coordinates": [ [ [ -118.561434, 40.208106 ], [ -118.53457, 40.128356 ] ] ] } },
{ "type": "Feature", "properties": { "TYPEPIPE": "Intrastate", "Operator": "Paiute Pipeline Co", "Status": "Operating", "Shape_Leng": 0.03827735636, "STATEFP": "32", "STATENS": "01779793", "AFFGEOID": "0400000US32", "GEOID": "32", "STUSPS": "NV", "NAME": "Nevada", "LSAD": "00", "ALAND": 284329506470, "AWATER": 2047206072 }, "geometry": { "type": "MultiLineString", "coordinates": [ [ [ -119.535014, 39.552592 ], [ -119.497827, 39.543521 ] ] ] } },
{ "type": "Feature", "properties": { "TYPEPIPE": "Intrastate", "Operator": "Paiute Pipeline Co", "Status": "Operating", "Shape_Leng": 0.09543041574, "STATEFP": "32", "STATENS": "01779793", "AFFGEOID": "0400000US32", "GEOID": "32", "STUSPS": "NV", "NAME": "Nevada", "LSAD": "00", "ALAND": 284329506470, "AWATER": 2047206072 }, "geometry": { "type": "MultiLineString", "coordinates": [ [ [ -119.232382, 39.530054 ], [ -119.232382, 39.500336 ], [ -119.232382, 39.482956 ], [ -119.227428, 39.477987 ], [ -119.232877, 39.470724 ], [ -119.232382, 39.447233 ], [ -119.232558, 39.438495 ] ] ] } },
{ "type": "Feature", "properties": { "TYPEPIPE": "Intrastate", "Operator": "Paiute Pipeline Co", "Status": "Operating", "Shape_Leng": 0.12234542247000001, "STATEFP": "32", "STATENS": "01779793", "AFFGEOID": "0400000US32", "GEOID": "32", "STUSPS": "NV", "NAME": "Nevada", "LSAD": "00", "ALAND": 284329506470, "AWATER": 2047206072 }, "geometry": { "type": "MultiLineString", "coordinates": [ [ [ -119.559324, 39.276916 ], [ -119.578417, 39.264754 ], [ -119.623722, 39.23703 ], [ -119.633952, 39.223376 ], [ -119.662544, 39.215984 ] ] ] } },
{ "type": "Feature", "properties": { "TYPEPIPE": "Intrastate", "Operator": "Paiute Pipeline Co", "Status": "Operating", "Shape_Leng": 0.25566707164000002, "STATEFP": "32", "STATENS": "01779793", "AFFGEOID": "0400000US32", "GEOID": "32", "STUSPS": "NV", "NAME": "Nevada", "LSAD": "00", "ALAND": 284329506470, "AWATER": 2047206072 }, "geometry": { "type": "MultiLineString", "coordinates": [ [ [ -119.232382, 39.420758 ], [ -119.277889, 39.402194 ], [ -119.36867, 39.363379 ], [ -119.404239, 39.350327 ], [ -119.470006, 39.326647 ] ] ] } },
{ "type": "Feature", "properties": { "TYPEPIPE": "Intrastate", "Operator": "Southwest Gas Corp", "Status": "Operating", "Shape_Leng": 0.15936056546, "STATEFP": "32", "STATENS": "01779793", "AFFGEOID": "0400000US32", "GEOID": "32", "STUSPS": "NV", "NAME": "Nevada", "LSAD": "00", "ALAND": 284329506470, "AWATER": 2047206072 }, "geometry": { "type": "MultiLineString", "coordinates": [ [ [ -114.937088, 35.810432 ], [ -114.930688, 35.969664 ] ] ] } },
{ "type": "Feature", "properties": { "TYPEPIPE": "Intrastate", "Operator": "Southwest Gas Corp", "Status": "Operating", "Shape_Leng": 0.04356910171, "STATEFP": "32", "STATENS": "01779793", "AFFGEOID": "0400000US32", "GEOID": "32", "STUSPS": "NV", "NAME": "Nevada", "LSAD": "00", "ALAND": 284329506470, "AWATER": 2047206072 }, "geometry": { "type": "MultiLineString", "coordinates": [ [ [ -114.930688, 36.187776 ], [ -114.898688, 36.158208 ] ] ] } },
{ "type": "Feature", "properties": { "TYPEPIPE": "Intrastate", "Operator": "Southwest Gas Corp", "Status": "Operating", "Shape_Leng": 0.04038192071, "STATEFP": "32", "STATENS": "01779793", "AFFGEOID": "0400000US32", "GEOID": "32", "STUSPS": "NV", "NAME": "Nevada", "LSAD": "00", "ALAND": 284329506470, "AWATER": 2047206072 }, "geometry": { "type": "MultiLineString", "coordinates": [ [ [ -114.950016, 36.15232 ], [ -114.930688, 36.187776 ] ] ] } },
{ "type": "Feature", "properties": { "TYPEPIPE": "Intrastate", "Operator": "Southwest Gas Corp", "Status": "Operating", "Shape_Leng": 0.08544083895, "STATEFP": "32", "STATENS": "01779793", "AFFGEOID": "0400000US32", "GEOID": "32", "STUSPS": "NV", "NAME": "Nevada", "LSAD": "00", "ALAND": 284329506470, "AWATER": 2047206072 }, "geometry": { "type": "MultiLineString", "coordinates": [ [ [ -114.946688, 36.066944 ], [ -114.950016, 36.15232 ] ] ] } },
{ "type": "Feature", "properties": { "TYPEPIPE": "Intrastate", "Operator": "Southwest Gas Corp", "Status": "Operating", "Shape_Leng": 0.03117555555, "STATEFP": "32", "STATENS": "01779793", "AFFGEOID": "0400000US32", "GEOID": "32", "STUSPS": "NV", "NAME": "Nevada", "LSAD": "00", "ALAND": 284329506470, "AWATER": 2047206072 }, "geometry": { "type": "MultiLineString", "coordinates": [ [ [ -114.921088, 36.049152 ], [ -114.946688, 36.066944 ] ] ] } },
{ "type": "Feature", "properties": { "TYPEPIPE": "Intrastate", "Operator": "Southwest Gas Corp", "Status": "Operating", "Shape_Leng": 0.03478586932, "STATEFP": "32", "STATENS": "01779793", "AFFGEOID": "0400000US32", "GEOID": "32", "STUSPS": "NV", "NAME": "Nevada", "LSAD": "00", "ALAND": 284329506470, "AWATER": 2047206072 }, "geometry": { "type": "MultiLineString", "coordinates": [ [ [ -114.946688, 36.0256 ], [ -114.921088, 36.049152 ] ] ] } },
{ "type": "Feature", "properties": { "TYPEPIPE": "Intrastate", "Operator": "Southwest Gas Corp", "Status": "Operating", "Shape_Leng": 0.27706592729000001, "STATEFP": "32", "STATENS": "01779793", "AFFGEOID": "0400000US32", "GEOID": "32", "STUSPS": "NV", "NAME": "Nevada", "LSAD": "00", "ALAND": 284329506470, "AWATER": 2047206072 }, "geometry": { "type": "MultiLineString", "coordinates": [ [ [ -114.930688, 35.53344 ], [ -114.937088, 35.810432 ] ] ] } },
{ "type": "Feature", "properties": { "TYPEPIPE": "Intrastate", "Operator": "Southwest Gas Corp", "Status": "Operating", "Shape_Leng": 0.17175487202, "STATEFP": "32", "STATENS": "01779793", "AFFGEOID": "0400000US32", "GEOID": "32", "STUSPS": "NV", "NAME": "Nevada", "LSAD": "00", "ALAND": 284329506470, "AWATER": 2047206072 }, "geometry": { "type": "MultiLineString", "coordinates": [ [ [ -114.914688, 35.362432 ], [ -114.930688, 35.53344 ] ] ] } },
{ "type": "Feature", "properties": { "TYPEPIPE": "Intrastate", "Operator": "Southwest Gas Corp", "Status": "Operating", "Shape_Leng": 0.06516155529000001, "STATEFP": "32", "STATENS": "01779793", "AFFGEOID": "0400000US32", "GEOID": "32", "STUSPS": "NV", "NAME": "Nevada", "LSAD": "00", "ALAND": 284329506470, "AWATER": 2047206072 }, "geometry": { "type": "MultiLineString", "coordinates": [ [ [ -114.87296, 35.312384 ], [ -114.914688, 35.362432 ] ] ] } },
{ "type": "Feature", "properties": { "TYPEPIPE": "Intrastate", "Operator": "Southwest Gas Corp", "Status": "Operating", "Shape_Leng": 0.11524870082, "STATEFP": "32", "STATENS": "01779793", "AFFGEOID": "0400000US32", "GEOID": "32", "STUSPS": "NV", "NAME": "Nevada", "LSAD": "00", "ALAND": 284329506470, "AWATER": 2047206072 }, "geometry": { "type": "MultiLineString", "coordinates": [ [ [ -114.86016, 36.240768 ], [ -114.776832, 36.320384 ] ] ] } },
{ "type": "Feature", "properties": { "TYPEPIPE": "Intrastate", "Operator": "Southwest Gas Corp", "Status": "Operating", "Shape_Leng": 0.12236960668000001, "STATEFP": "32", "STATENS": "01779793", "AFFGEOID": "0400000US32", "GEOID": "32", "STUSPS": "NV", "NAME": "Nevada", "LSAD": "00", "ALAND": 284329506470, "AWATER": 2047206072 }, "geometry": { "type": "MultiLineString", "coordinates": [ [ [ -114.86016, 36.240768 ], [ -114.767232, 36.161152 ] ] ] } },
{ "type": "Feature", "properties": { "TYPEPIPE": "Intrastate", "Operator": "Southwest Gas Corp", "Status": "Operating", "Shape_Leng": 0.08821763343, "STATEFP": "32", "STATENS": "01779793", "AFFGEOID": "0400000US32", "GEOID": "32", "STUSPS": "NV", "NAME": "Nevada", "LSAD": "00", "ALAND": 284329506470, "AWATER": 2047206072 }, "geometry": { "type": "MultiLineString", "coordinates": [ [ [ -114.930688, 36.187776 ], [ -114.86016, 36.240768 ] ] ] } },
{ "type": "Feature", "properties": { "TYPEPIPE": "Intrastate", "Operator": "Southwest Gas Corp", "Status": "Operating", "Shape_Leng": 0.0747113314, "STATEFP": "32", "STATENS": "01779793", "AFFGEOID": "0400000US32", "GEOID": "32", "STUSPS": "NV", "NAME": "Nevada", "LSAD": "00", "ALAND": 284329506470, "AWATER": 2047206072 }, "geometry": { "type": "MultiLineString", "coordinates": [ [ [ -115.145472, 36.037376 ], [ -115.2128, 36.004992 ] ] ] } },
{ "type": "Feature", "properties": { "TYPEPIPE": "Intrastate", "Operator": "Southwest Gas Corp", "Status": "Operating", "Shape_Leng": 0.1504, "STATEFP": "32", "STATENS": "01779793", "AFFGEOID": "0400000US32", "GEOID": "32", "STUSPS": "NV", "NAME": "Nevada", "LSAD": "00", "ALAND": 284329506470, "AWATER": 2047206072 }, "geometry": { "type": "MultiLineString", "coordinates": [ [ [ -115.145472, 36.187776 ], [ -115.145472, 36.037376 ] ] ] } },
{ "type": "Feature", "properties": { "TYPEPIPE": "Intrastate", "Operator": "Southwest Gas Corp", "Status": "Operating", "Shape_Leng": 0.214784, "STATEFP": "32", "STATENS": "01779793", "AFFGEOID": "0400000US32", "GEOID": "32", "STUSPS": "NV", "NAME": "Nevada", "LSAD": "00", "ALAND": 284329506470, "AWATER": 2047206072 }, "geometry": { "type": "MultiLineString", "coordinates": [ [ [ -114.930688, 36.187776 ], [ -115.145472, 36.187776 ] ] ] } },
{ "type": "Feature", "properties": { "TYPEPIPE": "Intrastate", "Operator": "Southwest Gas Corp", "Status": "Operating", "Shape_Leng": 0.11615102555, "STATEFP": "32", "STATENS": "01779793", "AFFGEOID": "0400000US32", "GEOID": "32", "STUSPS": "NV", "NAME": "Nevada", "LSAD": "00", "ALAND": 284329506470, "AWATER": 2047206072 }, "geometry": { "type": "MultiLineString", "coordinates": [ [ [ -114.831232, 35.975552 ], [ -114.921088, 36.049152 ] ] ] } },
{ "type": "Feature", "properties": { "TYPEPIPE": "Intrastate", "Operator": "Southwest Gas Corp", "Status": "Operating", "Shape_Leng": 0.30268013606, "STATEFP": "32", "STATENS": "01779793", "AFFGEOID": "0400000US32", "GEOID": "32", "STUSPS": "NV", "NAME": "Nevada", "LSAD": "00", "ALAND": 284329506470, "AWATER": 2047206072 }, "geometry": { "type": "MultiLineString", "coordinates": [ [ [ -114.88576, 35.677824 ], [ -114.831232, 35.975552 ] ] ] } },
{ "type": "Feature", "properties": { "TYPEPIPE": "Intrastate", "Operator": "Southwest Gas Corp", "Status": "Operating", "Shape_Leng": 0.16589338263, "STATEFP": "32", "STATENS": "01779793", "AFFGEOID": "0400000US32", "GEOID": "32", "STUSPS": "NV", "NAME": "Nevada", "LSAD": "00", "ALAND": 284329506470, "AWATER": 2047206072 }, "geometry": { "type": "MultiLineString", "coordinates": [ [ [ -114.90176, 35.512704 ], [ -114.88576, 35.677824 ] ] ] } },
{ "type": "Feature", "properties": { "TYPEPIPE": "Intrastate", "Operator": "Southwest Gas Corp", "Status": "Operating", "Shape_Leng": 0.20237969859, "STATEFP": "32", "STATENS": "01779793", "AFFGEOID": "0400000US32", "GEOID": "32", "STUSPS": "NV", "NAME": "Nevada", "LSAD": "00", "ALAND": 284329506470, "AWATER": 2047206072 }, "geometry": { "type": "MultiLineString", "coordinates": [ [ [ -114.87296, 35.312384 ], [ -114.90176, 35.512704 ] ] ] } },
{ "type": "Feature", "properties": { "TYPEPIPE": "Intrastate", "Operator": "Southwest Gas Corp", "Status": "Operating", "Shape_Leng": 0.30461965832, "STATEFP": "32", "STATENS": "01779793", "AFFGEOID": "0400000US32", "GEOID": "32", "STUSPS": "NV", "NAME": "Nevada", "LSAD": "00", "ALAND": 284329506470, "AWATER": 2047206072 }, "geometry": { "type": "MultiLineString", "coordinates": [ [ [ -114.658259, 35.09629 ], [ -114.87296, 35.312384 ] ] ] } },
{ "type": "Feature", "properties": { "TYPEPIPE": "Intrastate", "Operator": "Southwest Gas Corp", "Status": "Operating", "Shape_Leng": 0.05598394381, "STATEFP": "32", "STATENS": "01779793", "AFFGEOID": "0400000US32", "GEOID": "32", "STUSPS": "NV", "NAME": "Nevada", "LSAD": "00", "ALAND": 284329506470, "AWATER": 2047206072 }, "geometry": { "type": "MultiLineString", "coordinates": [ [ [ -114.626473258622852, 35.057368313825165 ], [ -114.658259, 35.09629 ] ] ] } },
{ "type": "Feature", "properties": { "TYPEPIPE": "Interstate", "Operator": "Tuscarora Pipeline Co", "Status": "Operating", "Shape_Leng": 0.02189146466, "STATEFP": "32", "STATENS": "01779793", "AFFGEOID": "0400000US32", "GEOID": "32", "STUSPS": "NV", "NAME": "Nevada", "LSAD": "00", "ALAND": 284329506470, "AWATER": 2047206072 }, "geometry": { "type": "MultiLineString", "coordinates": [ [ [ -119.996920840567171, 40.167269231897862 ], [ -119.995792, 40.166132 ] ] ] } },
{ "type": "Feature", "properties": { "TYPEPIPE": "Interstate", "Operator": "Tuscarora Pipeline Co", "Status": "Operating", "Shape_Leng": 0.85296060088000003, "STATEFP": "32", "STATENS": "01779793", "AFFGEOID": "0400000US32", "GEOID": "32", "STUSPS": "NV", "NAME": "Nevada", "LSAD": "00", "ALAND": 284329506470, "AWATER": 2047206072 }, "geometry": { "type": "MultiLineString", "coordinates": [ [ [ -119.995792, 40.166132 ], [ -119.98808, 40.154345 ], [ -119.981069, 40.147648 ], [ -119.977564, 40.1297 ], [ -119.976917, 40.104298 ], [ -119.966406, 40.090301 ], [ -119.962202, 40.087195 ], [ -119.945386, 40.07477 ], [ -119.943284, 40.070102 ], [ -119.930672, 40.052993 ], [ -119.922264, 40.046781 ], [ -119.911753, 40.0359 ], [ -119.901243, 40.03125 ], [ -119.882325, 40.01883 ], [ -119.878121, 40.017282 ], [ -119.867611, 40.001727 ], [ -119.8571, 39.990846 ], [ -119.852896, 39.984624 ], [ -119.83608, 39.967526 ], [ -119.823468, 39.951975 ], [ -119.822382, 39.948884 ], [ -119.813863, 39.931853 ], [ -119.811679, 39.914822 ], [ -119.805271, 39.897792 ], [ -119.800988, 39.883858 ], [ -119.800975, 39.880761 ], [ -119.792456, 39.863731 ], [ -119.78816, 39.8467 ], [ -119.785976, 39.829669 ], [ -119.779568, 39.812639 ], [ -119.777404, 39.800253 ], [ -119.777384, 39.795608 ], [ -119.7752, 39.778578 ], [ -119.764568, 39.761547 ], [ -119.758161, 39.744516 ], [ -119.755977, 39.727486 ], [ -119.755905, 39.710455 ], [ -119.755885, 39.70581 ], [ -119.754431, 39.701146 ], [ -119.750247, 39.684009 ], [ -119.733508, 39.669988 ], [ -119.731416, 39.666872 ], [ -119.710493, 39.651293 ], [ -119.708401, 39.649735 ], [ -119.68957, 39.63883 ], [ -119.677016, 39.632598 ], [ -119.668647, 39.632598 ], [ -119.645631, 39.629482 ], [ -119.624708, 39.626366 ], [ -119.601693, 39.624808 ], [ -119.58077, 39.626366 ], [ -119.559847, 39.626366 ], [ -119.541016, 39.615461 ], [ -119.536831, 39.613903 ], [ -119.534739, 39.598324 ], [ -119.530554, 39.581187 ], [ -119.530554, 39.56405 ] ] ] } },
{ "type": "Feature", "properties": { "TYPEPIPE": "Interstate", "Operator": "Tuscarora Pipeline Co", "Status": "Operating", "Shape_Leng": 0.04496153245, "STATEFP": "32", "STATENS": "01779793", "AFFGEOID": "0400000US32", "GEOID": "32", "STUSPS": "NV", "NAME": "Nevada", "LSAD": "00", "ALAND": 284329506470, "AWATER": 2047206072 }, "geometry": { "type": "MultiLineString", "coordinates": [ [ [ -119.961439, 40.188098 ], [ -119.981069, 40.147648 ] ] ] } },
{ "type": "Feature", "properties": { "TYPEPIPE": "Interstate", "Operator": "Tuscarora Pipeline Co", "Status": "Operating", "Shape_Leng": 0.19421763076000001, "STATEFP": "32", "STATENS": "01779793", "AFFGEOID": "0400000US32", "GEOID": "32", "STUSPS": "NV", "NAME": "Nevada", "LSAD": "00", "ALAND": 284329506470, "AWATER": 2047206072 }, "geometry": { "type": "MultiLineString", "coordinates": [ [ [ -119.896909, 40.369824 ], [ -119.941809, 40.217028 ], [ -119.961439, 40.188098 ] ] ] } },
{ "type": "Feature", "properties": { "TYPEPIPE": "Interstate", "Operator": "Tuscarora Pipeline Co", "Status": "Operating", "Shape_Leng": 0.25169558286, "STATEFP": "32", "STATENS": "01779793", "AFFGEOID": "0400000US32", "GEOID": "32", "STUSPS": "NV", "NAME": "Nevada", "LSAD": "00", "ALAND": 284329506470, "AWATER": 2047206072 }, "geometry": { "type": "MultiLineString", "coordinates": [ [ [ -119.755977, 39.727486 ], [ -119.843691, 39.629741 ], [ -119.921182, 39.537639 ] ] ] } },
{ "type": "Feature", "properties": { "TYPEPIPE": "Interstate", "Operator": "Ruby Pipeline LLC", "Status": "Operating", "Shape_Leng": 6.4815094466199996, "STATEFP": "32", "STATENS": "01779793", "AFFGEOID": "0400000US32", "GEOID": "32", "STUSPS": "NV", "NAME": "Nevada", "LSAD": "00", "ALAND": 284329506470, "AWATER": 2047206072 }, "geometry": { "type": "MultiLineString", "coordinates": [ [ [ -119.999172775941176, 41.989253664347608 ], [ -119.856718, 41.727453 ], [ -119.764982, 41.592489 ], [ -119.732222, 41.567497 ], [ -118.847598, 41.547501 ], [ -118.637918, 41.442529 ], [ -118.46755, 41.502513 ], [ -118.297166, 41.432533 ], [ -118.10715, 41.392545 ], [ -117.805726, 41.382545 ], [ -117.713982, 41.242585 ], [ -117.635342, 41.187601 ], [ -117.491182, 41.087625 ], [ -117.31427, 41.052637 ], [ -116.934206, 41.177601 ], [ -116.337902, 41.202597 ], [ -115.813694, 41.222589 ], [ -115.518814, 41.262577 ], [ -115.400862, 41.212593 ], [ -114.981502, 41.377549 ], [ -114.313118, 41.432533 ], [ -114.247582, 41.482517 ], [ -114.13619, 41.427533 ], [ -114.040401753758786, 41.451893463819268 ] ] ] } }
]
}
