{
"type": "FeatureCollection",
"name": "natural_gas_pipelines_sd",
"crs": { "type": "name", "properties": { "name": "urn:ogc:def:crs:OGC:1.3:CRS84" } },
"features": [
{ "type": "Feature", "properties": { "TYPEPIPE": "Interstate", "Operator": "Northern Border PL Co", "Status": "Operating", "Shape_Leng": 0.5332360122000001, "STATEFP": "46", "STATENS": "01785534", "AFFGEOID": "0400000US46", "GEOID": "46", "STUSPS": "SD", "NAME": "South Dakota", "LSAD": "00", "ALAND": 196346981786, "AWATER": 3382720225 }, "geometry": { "type": "MultiLineString", "coordinates": [ [ [ -99.516385, 45.9184 ], [ -99.509471, 45.918063 ], [ -99.450706, 45.89025 ], [ -99.381404, 45.860876 ], [ -99.353151, 45.854429 ], [ -99.329724, 45.843501 ], [ -99.284548, 45.834475 ], [ -99.24751, 45.826548 ], [ -99.194496, 45.809235 ], [ -99.18018, 45.79969 ], [ -99.165543, 45.797237 ], [ -99.152011, 45.790825 ], [ -99.145304, 45.783048 ], [ -99.098885, 45.758741 ], [ -99.048818, 45.725931 ], [ -99.050462, 45.7169 ], [ -99.038754, 45.711837 ] ] ] } },
{ "type": "Feature", "properties": { "TYPEPIPE": "Interstate", "Operator": "Northern Border PL Co", "Status": "Operating", "Shape_Leng": 0.15213641064, "STATEFP": "46", "STATENS": "01785534", "AFFGEOID": "0400000US46", "GEOID": "46", "STUSPS": "SD", "NAME": "South Dakota", "LSAD": "00", "ALAND": 196346981786, "AWATER": 3382720225 }, "geometry": { "type": "MultiLineString", "coordinates": [ [ [ -99.038754, 45.711837 ], [ -99.002299, 45.683163 ], [ -98.958789, 45.651471 ], [ -98.91636, 45.621534 ] ] ] } },
{ "type": "Feature", "properties": { "TYPEPIPE": "Interstate", "Operator": "Northern Border PL Co", "Status": "Operating", "Shape_Leng": 0.23120538784, "STATEFP": "46", "STATENS": "01785534", "AFFGEOID": "0400000US46", "GEOID": "46", "STUSPS": "SD", "NAME": "South Dakota", "LSAD": "00", "ALAND": 196346981786, "AWATER": 3382720225 }, "geometry": { "type": "MultiLineString", "coordinates": [ [ [ -98.91636, 45.621534 ], [ -98.907329, 45.621857 ], [ -98.843571, 45.57637 ], [ -98.821976, 45.558793 ], [ -98.785174, 45.533469 ], [ -98.721768, 45.500793 ] ] ] } },
{ "type": "Feature", "properties": { "TYPEPIPE": "Interstate", "Operator": "Northern Border PL Co", "Status": "Operating", "Shape_Leng": 0.44791879274000002, "STATEFP": "46", "STATENS": "01785534", "AFFGEOID": "0400000US46", "GEOID": "46", "STUSPS": "SD", "NAME": "South Dakota", "LSAD": "00", "ALAND": 196346981786, "AWATER": 3382720225 }, "geometry": { "type": "MultiLineString", "coordinates": [ [ [ -98.721768, 45.500793 ], [ -98.700574, 45.490621 ], [ -98.689718, 45.485411 ], [ -98.669271, 45.473931 ], [ -98.657374, 45.47405 ], [ -98.634475, 45.462623 ], [ -98.634984, 45.458565 ], [ -98.606089, 45.448371 ], [ -98.606166, 45.44387 ], [ -98.594402, 45.44152 ], [ -98.578722, 45.42942 ], [ -98.565883, 45.424357 ], [ -98.51826, 45.394341 ], [ -98.509437, 45.394204 ], [ -98.423199, 45.353327 ], [ -98.405555, 45.350467 ], [ -98.362645, 45.325472 ], [ -98.344693, 45.3171 ], [ -98.326917, 45.311293 ] ] ] } },
{ "type": "Feature", "properties": { "TYPEPIPE": "Interstate", "Operator": "Northern Border PL Co", "Status": "Operating", "Shape_Leng": 0.16392146006, "STATEFP": "46", "STATENS": "01785534", "AFFGEOID": "0400000US46", "GEOID": "46", "STUSPS": "SD", "NAME": "South Dakota", "LSAD": "00", "ALAND": 196346981786, "AWATER": 3382720225 }, "geometry": { "type": "MultiLineString", "coordinates": [ [ [ -98.129977, 45.219186 ], [ -98.101124, 45.208975 ], [ -98.04512, 45.177479 ], [ -98.022483, 45.168038 ], [ -98.010497, 45.159371 ], [ -97.981944, 45.151039 ] ] ] } },
{ "type": "Feature", "properties": { "TYPEPIPE": "Interstate", "Operator": "Northern Border PL Co", "Status": "Operating", "Shape_Leng": 0.31723099994999998, "STATEFP": "46", "STATENS": "01785534", "AFFGEOID": "0400000US46", "GEOID": "46", "STUSPS": "SD", "NAME": "South Dakota", "LSAD": "00", "ALAND": 196346981786, "AWATER": 3382720225 }, "geometry": { "type": "MultiLineString", "coordinates": [ [ [ -97.981944, 45.151039 ], [ -97.938894, 45.13075 ], [ -97.927998, 45.130648 ], [ -97.915593, 45.120115 ], [ -97.884845, 45.110116 ], [ -97.883933, 45.105056 ], [ -97.860892, 45.092925 ], [ -97.835896, 45.084258 ], [ -97.80223, 45.069539 ], [ -97.781142, 45.065581 ], [ -97.767117, 45.052525 ], [ -97.726826, 45.041332 ], [ -97.705127, 45.030173 ], [ -97.696205, 45.030205 ] ] ] } },
{ "type": "Feature", "properties": { "TYPEPIPE": "Interstate", "Operator": "Northern Border PL Co", "Status": "Operating", "Shape_Leng": 0.23602441873, "STATEFP": "46", "STATENS": "01785534", "AFFGEOID": "0400000US46", "GEOID": "46", "STUSPS": "SD", "NAME": "South Dakota", "LSAD": "00", "ALAND": 196346981786, "AWATER": 3382720225 }, "geometry": { "type": "MultiLineString", "coordinates": [ [ [ -97.696205, 45.030205 ], [ -97.662523, 45.014806 ], [ -97.653603, 45.014939 ], [ -97.638258, 45.003645 ], [ -97.592725, 44.989768 ], [ -97.574327, 44.977716 ], [ -97.549524, 44.972885 ], [ -97.525144, 44.960815 ], [ -97.486436, 44.950515 ], [ -97.479168, 44.945392 ] ] ] } },
{ "type": "Feature", "properties": { "TYPEPIPE": "Interstate", "Operator": "Northern Border PL Co", "Status": "Operating", "Shape_Leng": 0.35749644838, "STATEFP": "46", "STATENS": "01785534", "AFFGEOID": "0400000US46", "GEOID": "46", "STUSPS": "SD", "NAME": "South Dakota", "LSAD": "00", "ALAND": 196346981786, "AWATER": 3382720225 }, "geometry": { "type": "MultiLineString", "coordinates": [ [ [ -97.479168, 44.945392 ], [ -97.434426, 44.930586 ], [ -97.430638, 44.925776 ], [ -97.413418, 44.921735 ], [ -97.378935, 44.908959 ], [ -97.353153, 44.896644 ], [ -97.344688, 44.885731 ], [ -97.316473, 44.878576 ], [ -97.314809, 44.872687 ], [ -97.288716, 44.868414 ], [ -97.25705, 44.856966 ], [ -97.248634, 44.848965 ], [ -97.231126, 44.839838 ], [ -97.213091, 44.839404 ], [ -97.214551, 44.833727 ], [ -97.199482, 44.833185 ], [ -97.172925, 44.823358 ], [ -97.160475, 44.818384 ] ] ] } },
{ "type": "Feature", "properties": { "TYPEPIPE": "Interstate", "Operator": "Northern Border PL Co", "Status": "Operating", "Shape_Leng": 0.12609312675000001, "STATEFP": "46", "STATENS": "01785534", "AFFGEOID": "0400000US46", "GEOID": "46", "STUSPS": "SD", "NAME": "South Dakota", "LSAD": "00", "ALAND": 196346981786, "AWATER": 3382720225 }, "geometry": { "type": "MultiLineString", "coordinates": [ [ [ -97.160475, 44.818384 ], [ -97.10857, 44.790178 ], [ -97.10375, 44.790705 ], [ -97.083159, 44.77762 ], [ -97.053561, 44.76615 ], [ -97.047536, 44.76588 ] ] ] } },
{ "type": "Feature", "properties": { "TYPEPIPE": "Interstate", "Operator": "Northern Border PL Co", "Status": "Operating", "Shape_Leng": 0.16572116123, "STATEFP": "46", "STATENS": "01785534", "AFFGEOID": "0400000US46", "GEOID": "46", "STUSPS": "SD", "NAME": "South Dakota", "LSAD": "00", "ALAND": 196346981786, "AWATER": 3382720225 }, "geometry": { "type": "MultiLineString", "coordinates": [ [ [ -97.047536, 44.76588 ], [ -97.041509, 44.764203 ], [ -97.034666, 44.76203 ], [ -97.035065, 44.759454 ], [ -97.010938, 44.751008 ], [ -97.001847, 44.747837 ], [ -97.001655, 44.743994 ], [ -96.994201, 44.741298 ], [ -96.986958, 44.738546 ], [ -96.963996, 44.73338 ], [ -96.964079, 44.729839 ], [ -96.935446, 44.718609 ], [ -96.93162, 44.714996 ], [ -96.92045, 44.710847 ], [ -96.901798, 44.70376 ] ] ] } },
{ "type": "Feature", "properties": { "TYPEPIPE": "Interstate", "Operator": "Northern Border PL Co", "Status": "Operating", "Shape_Leng": 0.49015558036000001, "STATEFP": "46", "STATENS": "01785534", "AFFGEOID": "0400000US46", "GEOID": "46", "STUSPS": "SD", "NAME": "South Dakota", "LSAD": "00", "ALAND": 196346981786, "AWATER": 3382720225 }, "geometry": { "type": "MultiLineString", "coordinates": [ [ [ -96.901798, 44.70376 ], [ -96.900243, 44.700884 ], [ -96.878698, 44.694815 ], [ -96.870211, 44.692456 ], [ -96.864667, 44.686365 ], [ -96.85832, 44.682992 ], [ -96.830861, 44.668821 ], [ -96.818602, 44.672336 ], [ -96.81441, 44.66933 ], [ -96.780715, 44.661023 ], [ -96.780353, 44.657276 ], [ -96.735581, 44.646206 ], [ -96.734927, 44.642782 ], [ -96.683675, 44.628626 ], [ -96.677824, 44.628768 ], [ -96.669604, 44.625952 ], [ -96.661608, 44.621281 ], [ -96.639032, 44.610603 ], [ -96.612547, 44.599479 ], [ -96.582436, 44.586832 ], [ -96.547447, 44.57148 ], [ -96.536555, 44.571524 ], [ -96.509236, 44.560006 ], [ -96.503254, 44.562433 ], [ -96.453297618591989, 44.544710470376423 ] ] ] } },
{ "type": "Feature", "properties": { "TYPEPIPE": "Interstate", "Operator": "Northern Border PL Co", "Status": "Operating", "Shape_Leng": 0.21741449595000001, "STATEFP": "46", "STATENS": "01785534", "AFFGEOID": "0400000US46", "GEOID": "46", "STUSPS": "SD", "NAME": "South Dakota", "LSAD": "00", "ALAND": 196346981786, "AWATER": 3382720225 }, "geometry": { "type": "MultiLineString", "coordinates": [ [ [ -98.326917, 45.311293 ], [ -98.129977, 45.219186 ] ] ] } },
{ "type": "Feature", "properties": { "TYPEPIPE": "Interstate", "Operator": "Northern Border PL Co", "Status": "Operating", "Shape_Leng": 0.19203701852, "STATEFP": "46", "STATENS": "01785534", "AFFGEOID": "0400000US46", "GEOID": "46", "STUSPS": "SD", "NAME": "South Dakota", "LSAD": "00", "ALAND": 196346981786, "AWATER": 3382720225 }, "geometry": { "type": "MultiLineString", "coordinates": [ [ [ -99.548277139629661, 45.940715209751254 ], [ -99.547702, 45.940346 ] ] ] } },
{ "type": "Feature", "properties": { "TYPEPIPE": "Interstate", "Operator": "Northern Border PL Co", "Status": "Operating", "Shape_Leng": 0.03781158978, "STATEFP": "46", "STATENS": "01785534", "AFFGEOID": "0400000US46", "GEOID": "46", "STUSPS": "SD", "NAME": "South Dakota", "LSAD": "00", "ALAND": 196346981786, "AWATER": 3382720225 }, "geometry": { "type": "MultiLineString", "coordinates": [ [ [ -99.54631977220555, 45.940703294519892 ], [ -99.516385, 45.9184 ] ] ] } },
{ "type": "Feature", "properties": { "TYPEPIPE": "Interstate", "Operator": "Northern Natural Gas Co", "Status": "Operating", "Shape_Leng": 0.09507565661, "STATEFP": "46", "STATENS": "01785534", "AFFGEOID": "0400000US46", "GEOID": "46", "STUSPS": "SD", "NAME": "South Dakota", "LSAD": "00", "ALAND": 196346981786, "AWATER": 3382720225 }, "geometry": { "type": "MultiLineString", "coordinates": [ [ [ -97.28768, 44.192 ], [ -97.339648, 44.271616 ] ] ] } },
{ "type": "Feature", "properties": { "TYPEPIPE": "Interstate", "Operator": "Northern Natural Gas Co", "Status": "Operating", "Shape_Leng": 0.07955382781000001, "STATEFP": "46", "STATENS": "01785534", "AFFGEOID": "0400000US46", "GEOID": "46", "STUSPS": "SD", "NAME": "South Dakota", "LSAD": "00", "ALAND": 196346981786, "AWATER": 3382720225 }, "geometry": { "type": "MultiLineString", "coordinates": [ [ [ -97.236224, 44.131328 ], [ -97.28768, 44.192 ] ] ] } },
{ "type": "Feature", "properties": { "TYPEPIPE": "Interstate", "Operator": "Northern Natural Gas Co", "Status": "Operating", "Shape_Leng": 0.22601712133, "STATEFP": "46", "STATENS": "01785534", "AFFGEOID": "0400000US46", "GEOID": "46", "STUSPS": "SD", "NAME": "South Dakota", "LSAD": "00", "ALAND": 196346981786, "AWATER": 3382720225 }, "geometry": { "type": "MultiLineString", "coordinates": [ [ [ -97.36832, 44.070656 ], [ -97.592576, 44.042496 ] ] ] } },
{ "type": "Feature", "properties": { "TYPEPIPE": "Interstate", "Operator": "Northern Natural Gas Co", "Status": "Operating", "Shape_Leng": 0.14536314801, "STATEFP": "46", "STATENS": "01785534", "AFFGEOID": "0400000US46", "GEOID": "46", "STUSPS": "SD", "NAME": "South Dakota", "LSAD": "00", "ALAND": 196346981786, "AWATER": 3382720225 }, "geometry": { "type": "MultiLineString", "coordinates": [ [ [ -97.236224, 44.131328 ], [ -97.36832, 44.070656 ] ] ] } },
{ "type": "Feature", "properties": { "TYPEPIPE": "Interstate", "Operator": "Northern Natural Gas Co", "Status": "Operating", "Shape_Leng": 0.33942520524000003, "STATEFP": "46", "STATENS": "01785534", "AFFGEOID": "0400000US46", "GEOID": "46", "STUSPS": "SD", "NAME": "South Dakota", "LSAD": "00", "ALAND": 196346981786, "AWATER": 3382720225 }, "geometry": { "type": "MultiLineString", "coordinates": [ [ [ -97.05216, 43.846144 ], [ -97.236224, 44.131328 ] ] ] } },
{ "type": "Feature", "properties": { "TYPEPIPE": "Interstate", "Operator": "Northern Natural Gas Co", "Status": "Operating", "Shape_Leng": 0.13142203261, "STATEFP": "46", "STATENS": "01785534", "AFFGEOID": "0400000US46", "GEOID": "46", "STUSPS": "SD", "NAME": "South Dakota", "LSAD": "00", "ALAND": 196346981786, "AWATER": 3382720225 }, "geometry": { "type": "MultiLineString", "coordinates": [ [ [ -96.959744, 43.752704 ], [ -97.05216, 43.846144 ] ] ] } },
{ "type": "Feature", "properties": { "TYPEPIPE": "Interstate", "Operator": "Northern Natural Gas Co", "Status": "Operating", "Shape_Leng": 0.069888, "STATEFP": "46", "STATENS": "01785534", "AFFGEOID": "0400000US46", "GEOID": "46", "STUSPS": "SD", "NAME": "South Dakota", "LSAD": "00", "ALAND": 196346981786, "AWATER": 3382720225 }, "geometry": { "type": "MultiLineString", "coordinates": [ [ [ -97.997824, 43.495424 ], [ -97.997824, 43.425536 ] ] ] } },
{ "type": "Feature", "properties": { "TYPEPIPE": "Interstate", "Operator": "Northern Natural Gas Co", "Status": "Operating", "Shape_Leng": 0.205824, "STATEFP": "46", "STATENS": "01785534", "AFFGEOID": "0400000US46", "GEOID": "46", "STUSPS": "SD", "NAME": "South Dakota", "LSAD": "00", "ALAND": 196346981786, "AWATER": 3382720225 }, "geometry": { "type": "MultiLineString", "coordinates": [ [ [ -97.997824, 43.701248 ], [ -97.997824, 43.495424 ] ] ] } },
{ "type": "Feature", "properties": { "TYPEPIPE": "Interstate", "Operator": "Northern Natural Gas Co", "Status": "Operating", "Shape_Leng": 0.027904, "STATEFP": "46", "STATENS": "01785534", "AFFGEOID": "0400000US46", "GEOID": "46", "STUSPS": "SD", "NAME": "South Dakota", "LSAD": "00", "ALAND": 196346981786, "AWATER": 3382720225 }, "geometry": { "type": "MultiLineString", "coordinates": [ [ [ -97.96992, 43.701248 ], [ -97.997824, 43.701248 ] ] ] } },
{ "type": "Feature", "properties": { "TYPEPIPE": "Interstate", "Operator": "Northern Natural Gas Co", "Status": "Operating", "Shape_Leng": 0.3571497278, "STATEFP": "46", "STATENS": "01785534", "AFFGEOID": "0400000US46", "GEOID": "46", "STUSPS": "SD", "NAME": "South Dakota", "LSAD": "00", "ALAND": 196346981786, "AWATER": 3382720225 }, "geometry": { "type": "MultiLineString", "coordinates": [ [ [ -97.6128, 43.69664 ], [ -97.96992, 43.701248 ] ] ] } },
{ "type": "Feature", "properties": { "TYPEPIPE": "Interstate", "Operator": "Northern Natural Gas Co", "Status": "Operating", "Shape_Leng": 0.100352, "STATEFP": "46", "STATENS": "01785534", "AFFGEOID": "0400000US46", "GEOID": "46", "STUSPS": "SD", "NAME": "South Dakota", "LSAD": "00", "ALAND": 196346981786, "AWATER": 3382720225 }, "geometry": { "type": "MultiLineString", "coordinates": [ [ [ -97.512448, 43.69664 ], [ -97.6128, 43.69664 ] ] ] } },
{ "type": "Feature", "properties": { "TYPEPIPE": "Interstate", "Operator": "Northern Natural Gas Co", "Status": "Operating", "Shape_Leng": 0.056064, "STATEFP": "46", "STATENS": "01785534", "AFFGEOID": "0400000US46", "GEOID": "46", "STUSPS": "SD", "NAME": "South Dakota", "LSAD": "00", "ALAND": 196346981786, "AWATER": 3382720225 }, "geometry": { "type": "MultiLineString", "coordinates": [ [ [ -97.512448, 43.69664 ], [ -97.512448, 43.752704 ] ] ] } },
{ "type": "Feature", "properties": { "TYPEPIPE": "Interstate", "Operator": "Northern Natural Gas Co", "Status": "Operating", "Shape_Leng": 0.385024, "STATEFP": "46", "STATENS": "01785534", "AFFGEOID": "0400000US46", "GEOID": "46", "STUSPS": "SD", "NAME": "South Dakota", "LSAD": "00", "ALAND": 196346981786, "AWATER": 3382720225 }, "geometry": { "type": "MultiLineString", "coordinates": [ [ [ -97.127424, 43.69664 ], [ -97.512448, 43.69664 ] ] ] } },
{ "type": "Feature", "properties": { "TYPEPIPE": "Interstate", "Operator": "Northern Natural Gas Co", "Status": "Operating", "Shape_Leng": 0.17680428303000001, "STATEFP": "46", "STATENS": "01785534", "AFFGEOID": "0400000US46", "GEOID": "46", "STUSPS": "SD", "NAME": "South Dakota", "LSAD": "00", "ALAND": 196346981786, "AWATER": 3382720225 }, "geometry": { "type": "MultiLineString", "coordinates": [ [ [ -96.959744, 43.752704 ], [ -97.127424, 43.69664 ] ] ] } },
{ "type": "Feature", "properties": { "TYPEPIPE": "Interstate", "Operator": "Northern Natural Gas Co", "Status": "Operating", "Shape_Leng": 0.060928, "STATEFP": "46", "STATENS": "01785534", "AFFGEOID": "0400000US46", "GEOID": "46", "STUSPS": "SD", "NAME": "South Dakota", "LSAD": "00", "ALAND": 196346981786, "AWATER": 3382720225 }, "geometry": { "type": "MultiLineString", "coordinates": [ [ [ -96.786688, 43.80416 ], [ -96.786688, 43.743232 ] ] ] } },
{ "type": "Feature", "properties": { "TYPEPIPE": "Interstate", "Operator": "Northern Natural Gas Co", "Status": "Operating", "Shape_Leng": 0.18054389791, "STATEFP": "46", "STATENS": "01785534", "AFFGEOID": "0400000US46", "GEOID": "46", "STUSPS": "SD", "NAME": "South Dakota", "LSAD": "00", "ALAND": 196346981786, "AWATER": 3382720225 }, "geometry": { "type": "MultiLineString", "coordinates": [ [ [ -96.959744, 43.752704 ], [ -96.786688, 43.80416 ] ] ] } },
{ "type": "Feature", "properties": { "TYPEPIPE": "Interstate", "Operator": "Northern Natural Gas Co", "Status": "Operating", "Shape_Leng": 0.29117510222999998, "STATEFP": "46", "STATENS": "01785534", "AFFGEOID": "0400000US46", "GEOID": "46", "STUSPS": "SD", "NAME": "South Dakota", "LSAD": "00", "ALAND": 196346981786, "AWATER": 3382720225 }, "geometry": { "type": "MultiLineString", "coordinates": [ [ [ -96.814592, 43.500288 ], [ -96.959744, 43.752704 ] ] ] } },
{ "type": "Feature", "properties": { "TYPEPIPE": "Interstate", "Operator": "Northern Natural Gas Co", "Status": "Operating", "Shape_Leng": 0.061184, "STATEFP": "46", "STATENS": "01785534", "AFFGEOID": "0400000US46", "GEOID": "46", "STUSPS": "SD", "NAME": "South Dakota", "LSAD": "00", "ALAND": 196346981786, "AWATER": 3382720225 }, "geometry": { "type": "MultiLineString", "coordinates": [ [ [ -96.753408, 43.500288 ], [ -96.814592, 43.500288 ] ] ] } },
{ "type": "Feature", "properties": { "TYPEPIPE": "Interstate", "Operator": "Northern Natural Gas Co", "Status": "Operating", "Shape_Leng": 0.112128, "STATEFP": "46", "STATENS": "01785534", "AFFGEOID": "0400000US46", "GEOID": "46", "STUSPS": "SD", "NAME": "South Dakota", "LSAD": "00", "ALAND": 196346981786, "AWATER": 3382720225 }, "geometry": { "type": "MultiLineString", "coordinates": [ [ [ -96.753408, 43.38816 ], [ -96.753408, 43.500288 ] ] ] } },
{ "type": "Feature", "properties": { "TYPEPIPE": "Interstate", "Operator": "Northern Natural Gas Co", "Status": "Operating", "Shape_Leng": 0.128256, "STATEFP": "46", "STATENS": "01785534", "AFFGEOID": "0400000US46", "GEOID": "46", "STUSPS": "SD", "NAME": "South Dakota", "LSAD": "00", "ALAND": 196346981786, "AWATER": 3382720225 }, "geometry": { "type": "MultiLineString", "coordinates": [ [ [ -96.753408, 43.38816 ], [ -96.881664, 43.38816 ] ] ] } },
{ "type": "Feature", "properties": { "TYPEPIPE": "Interstate", "Operator": "Northern Natural Gas Co", "Status": "Operating", "Shape_Leng": 0.29931699102999998, "STATEFP": "46", "STATENS": "01785534", "AFFGEOID": "0400000US46", "GEOID": "46", "STUSPS": "SD", "NAME": "South Dakota", "LSAD": "00", "ALAND": 196346981786, "AWATER": 3382720225 }, "geometry": { "type": "MultiLineString", "coordinates": [ [ [ -96.747776, 43.088896 ], [ -96.753408, 43.38816 ] ] ] } },
{ "type": "Feature", "properties": { "TYPEPIPE": "Interstate", "Operator": "Northern Natural Gas Co", "Status": "Operating", "Shape_Leng": 0.14522512444, "STATEFP": "46", "STATENS": "01785534", "AFFGEOID": "0400000US46", "GEOID": "46", "STUSPS": "SD", "NAME": "South Dakota", "LSAD": "00", "ALAND": 196346981786, "AWATER": 3382720225 }, "geometry": { "type": "MultiLineString", "coordinates": [ [ [ -96.747776, 43.088896 ], [ -96.892928, 43.093504 ] ] ] } },
{ "type": "Feature", "properties": { "TYPEPIPE": "Interstate", "Operator": "Northern Natural Gas Co", "Status": "Operating", "Shape_Leng": 0.041984, "STATEFP": "46", "STATENS": "01785534", "AFFGEOID": "0400000US46", "GEOID": "46", "STUSPS": "SD", "NAME": "South Dakota", "LSAD": "00", "ALAND": 196346981786, "AWATER": 3382720225 }, "geometry": { "type": "MultiLineString", "coordinates": [ [ [ -96.747776, 43.046912 ], [ -96.747776, 43.088896 ] ] ] } },
{ "type": "Feature", "properties": { "TYPEPIPE": "Interstate", "Operator": "Northern Natural Gas Co", "Status": "Operating", "Shape_Leng": 0.224512, "STATEFP": "46", "STATENS": "01785534", "AFFGEOID": "0400000US46", "GEOID": "46", "STUSPS": "SD", "NAME": "South Dakota", "LSAD": "00", "ALAND": 196346981786, "AWATER": 3382720225 }, "geometry": { "type": "MultiLineString", "coordinates": [ [ [ -96.747776, 42.8224 ], [ -96.747776, 43.046912 ] ] ] } },
{ "type": "Feature", "properties": { "TYPEPIPE": "Interstate", "Operator": "Northern Natural Gas Co", "Status": "Operating", "Shape_Leng": 0.22865973883, "STATEFP": "46", "STATENS": "01785534", "AFFGEOID": "0400000US46", "GEOID": "46", "STUSPS": "SD", "NAME": "South Dakota", "LSAD": "00", "ALAND": 196346981786, "AWATER": 3382720225 }, "geometry": { "type": "MultiLineString", "coordinates": [ [ [ -97.155328, 42.864384 ], [ -97.383936, 42.869248 ] ] ] } },
{ "type": "Feature", "properties": { "TYPEPIPE": "Interstate", "Operator": "Northern Natural Gas Co", "Status": "Operating", "Shape_Leng": 0.35372419611, "STATEFP": "46", "STATENS": "01785534", "AFFGEOID": "0400000US46", "GEOID": "46", "STUSPS": "SD", "NAME": "South Dakota", "LSAD": "00", "ALAND": 196346981786, "AWATER": 3382720225 }, "geometry": { "type": "MultiLineString", "coordinates": [ [ [ -96.803584, 42.827008 ], [ -97.155328, 42.864384 ] ] ] } },
{ "type": "Feature", "properties": { "TYPEPIPE": "Interstate", "Operator": "Northern Natural Gas Co", "Status": "Operating", "Shape_Leng": 0.05599791539, "STATEFP": "46", "STATENS": "01785534", "AFFGEOID": "0400000US46", "GEOID": "46", "STUSPS": "SD", "NAME": "South Dakota", "LSAD": "00", "ALAND": 196346981786, "AWATER": 3382720225 }, "geometry": { "type": "MultiLineString", "coordinates": [ [ [ -96.747776, 42.8224 ], [ -96.803584, 42.827008 ] ] ] } },
{ "type": "Feature", "properties": { "TYPEPIPE": "Interstate", "Operator": "Northern Natural Gas Co", "Status": "Operating", "Shape_Leng": 0.11226935382, "STATEFP": "46", "STATENS": "01785534", "AFFGEOID": "0400000US46", "GEOID": "46", "STUSPS": "SD", "NAME": "South Dakota", "LSAD": "00", "ALAND": 196346981786, "AWATER": 3382720225 }, "geometry": { "type": "MultiLineString", "coordinates": [ [ [ -96.753408, 42.710272 ], [ -96.747776, 42.8224 ] ] ] } },
{ "type": "Feature", "properties": { "TYPEPIPE": "Interstate", "Operator": "Northern Natural Gas Co", "Status": "Operating", "Shape_Leng": 0.16015133323, "STATEFP": "46", "STATENS": "01785534", "AFFGEOID": "0400000US46", "GEOID": "46", "STUSPS": "SD", "NAME": "South Dakota", "LSAD": "00", "ALAND": 196346981786, "AWATER": 3382720225 }, "geometry": { "type": "MultiLineString", "coordinates": [ [ [ -96.586554425570654, 42.507285275920609 ], [ -96.607648, 42.517344 ] ] ] } },
{ "type": "Feature", "properties": { "TYPEPIPE": "Interstate", "Operator": "Northern Natural Gas Co", "Status": "Operating", "Shape_Leng": 0.09135256292, "STATEFP": "46", "STATENS": "01785534", "AFFGEOID": "0400000US46", "GEOID": "46", "STUSPS": "SD", "NAME": "South Dakota", "LSAD": "00", "ALAND": 196346981786, "AWATER": 3382720225 }, "geometry": { "type": "MultiLineString", "coordinates": [ [ [ -96.607648, 42.517344 ], [ -96.658432, 42.59328 ] ] ] } },
{ "type": "Feature", "properties": { "TYPEPIPE": "Interstate", "Operator": "Northern Natural Gas Co", "Status": "Operating", "Shape_Leng": 0.26263516487, "STATEFP": "46", "STATENS": "01785534", "AFFGEOID": "0400000US46", "GEOID": "46", "STUSPS": "SD", "NAME": "South Dakota", "LSAD": "00", "ALAND": 196346981786, "AWATER": 3382720225 }, "geometry": { "type": "MultiLineString", "coordinates": [ [ [ -96.452738379933791, 43.975240193529658 ], [ -96.661248, 44.12672 ] ] ] } },
{ "type": "Feature", "properties": { "TYPEPIPE": "Interstate", "Operator": "Northern Natural Gas Co", "Status": "Operating", "Shape_Leng": 0.23501692358000001, "STATEFP": "46", "STATENS": "01785534", "AFFGEOID": "0400000US46", "GEOID": "46", "STUSPS": "SD", "NAME": "South Dakota", "LSAD": "00", "ALAND": 196346981786, "AWATER": 3382720225 }, "geometry": { "type": "MultiLineString", "coordinates": [ [ [ -96.64384, 43.84128 ], [ -96.452745955397916, 43.969682030917696 ] ] ] } },
{ "type": "Feature", "properties": { "TYPEPIPE": "Interstate", "Operator": "Northern Natural Gas Co", "Status": "Operating", "Shape_Leng": 0.14759215936, "STATEFP": "46", "STATENS": "01785534", "AFFGEOID": "0400000US46", "GEOID": "46", "STUSPS": "SD", "NAME": "South Dakota", "LSAD": "00", "ALAND": 196346981786, "AWATER": 3382720225 }, "geometry": { "type": "MultiLineString", "coordinates": [ [ [ -96.786688, 43.80416 ], [ -96.64384, 43.84128 ] ] ] } },
{ "type": "Feature", "properties": { "TYPEPIPE": "Interstate", "Operator": "Northern Natural Gas Co", "Status": "Operating", "Shape_Leng": 0.128512, "STATEFP": "46", "STATENS": "01785534", "AFFGEOID": "0400000US46", "GEOID": "46", "STUSPS": "SD", "NAME": "South Dakota", "LSAD": "00", "ALAND": 196346981786, "AWATER": 3382720225 }, "geometry": { "type": "MultiLineString", "coordinates": [ [ [ -96.753408, 43.38816 ], [ -96.624896, 43.38816 ] ] ] } },
{ "type": "Feature", "properties": { "TYPEPIPE": "Interstate", "Operator": "Northern Natural Gas Co", "Status": "Operating", "Shape_Leng": 0.25153038961000002, "STATEFP": "46", "STATENS": "01785534", "AFFGEOID": "0400000US46", "GEOID": "46", "STUSPS": "SD", "NAME": "South Dakota", "LSAD": "00", "ALAND": 196346981786, "AWATER": 3382720225 }, "geometry": { "type": "MultiLineString", "coordinates": [ [ [ -96.747776, 43.046912 ], [ -96.508101503072353, 43.033474662280582 ] ] ] } },
{ "type": "Feature", "properties": { "TYPEPIPE": "Interstate", "Operator": "Northern Natural Gas Co", "Status": "Operating", "Shape_Leng": 0.12899885469, "STATEFP": "46", "STATENS": "01785534", "AFFGEOID": "0400000US46", "GEOID": "46", "STUSPS": "SD", "NAME": "South Dakota", "LSAD": "00", "ALAND": 196346981786, "AWATER": 3382720225 }, "geometry": { "type": "MultiLineString", "coordinates": [ [ [ -96.596992, 42.817536 ], [ -96.587999014885099, 42.81656679694288 ] ] ] } },
{ "type": "Feature", "properties": { "TYPEPIPE": "Interstate", "Operator": "Northern Natural Gas Co", "Status": "Operating", "Shape_Leng": 0.15086243122000001, "STATEFP": "46", "STATENS": "01785534", "AFFGEOID": "0400000US46", "GEOID": "46", "STUSPS": "SD", "NAME": "South Dakota", "LSAD": "00", "ALAND": 196346981786, "AWATER": 3382720225 }, "geometry": { "type": "MultiLineString", "coordinates": [ [ [ -96.747776, 42.8224 ], [ -96.596992, 42.817536 ] ] ] } },
{ "type": "Feature", "properties": { "TYPEPIPE": "Interstate", "Operator": "Northern Natural Gas Co", "Status": "Operating", "Shape_Leng": 0.15069030705, "STATEFP": "46", "STATENS": "01785534", "AFFGEOID": "0400000US46", "GEOID": "46", "STUSPS": "SD", "NAME": "South Dakota", "LSAD": "00", "ALAND": 196346981786, "AWATER": 3382720225 }, "geometry": { "type": "MultiLineString", "coordinates": [ [ [ -96.658432, 42.59328 ], [ -96.700572061224705, 42.645215536424338 ] ], [ [ -96.712453641469708, 42.659851165957768 ], [ -96.753408, 42.710272 ] ] ] } },
{ "type": "Feature", "properties": { "TYPEPIPE": "Interstate", "Operator": "Northern Natural Gas Co", "Status": "Operating", "Shape_Leng": 0.09676935449, "STATEFP": "46", "STATENS": "01785534", "AFFGEOID": "0400000US46", "GEOID": "46", "STUSPS": "SD", "NAME": "South Dakota", "LSAD": "00", "ALAND": 196346981786, "AWATER": 3382720225 }, "geometry": { "type": "MultiLineString", "coordinates": [ [ [ -96.65664, 43.499776 ], [ -96.753408, 43.500288 ] ] ] } },
{ "type": "Feature", "properties": { "TYPEPIPE": "Interstate", "Operator": "Northern Natural Gas Co", "Status": "Operating", "Shape_Leng": 0.18944805186, "STATEFP": "46", "STATENS": "01785534", "AFFGEOID": "0400000US46", "GEOID": "46", "STUSPS": "SD", "NAME": "South Dakota", "LSAD": "00", "ALAND": 196346981786, "AWATER": 3382720225 }, "geometry": { "type": "MultiLineString", "coordinates": [ [ [ -96.52295132321315, 43.36613554335495 ], [ -96.58433782710479, 43.427536548616168 ] ], [ [ -96.593548847739839, 43.436744376776453 ], [ -96.65664, 43.499776 ] ] ] } },
{ "type": "Feature", "properties": { "TYPEPIPE": "Interstate", "Operator": "Northern Natural Gas Co", "Status": "Operating", "Shape_Leng": 0.14535959758, "STATEFP": "46", "STATENS": "01785534", "AFFGEOID": "0400000US46", "GEOID": "46", "STUSPS": "SD", "NAME": "South Dakota", "LSAD": "00", "ALAND": 196346981786, "AWATER": 3382720225 }, "geometry": { "type": "MultiLineString", "coordinates": [ [ [ -98.183168, 45.243904 ], [ -98.28224, 45.350272 ] ] ] } },
{ "type": "Feature", "properties": { "TYPEPIPE": "Interstate", "Operator": "Northern Natural Gas Co", "Status": "Operating", "Shape_Leng": 0.07936, "STATEFP": "46", "STATENS": "01785534", "AFFGEOID": "0400000US46", "GEOID": "46", "STUSPS": "SD", "NAME": "South Dakota", "LSAD": "00", "ALAND": 196346981786, "AWATER": 3382720225 }, "geometry": { "type": "MultiLineString", "coordinates": [ [ [ -98.03008, 45.430784 ], [ -98.03008, 45.510144 ] ] ] } },
{ "type": "Feature", "properties": { "TYPEPIPE": "Interstate", "Operator": "Northern Natural Gas Co", "Status": "Operating", "Shape_Leng": 0.270848, "STATEFP": "46", "STATENS": "01785534", "AFFGEOID": "0400000US46", "GEOID": "46", "STUSPS": "SD", "NAME": "South Dakota", "LSAD": "00", "ALAND": 196346981786, "AWATER": 3382720225 }, "geometry": { "type": "MultiLineString", "coordinates": [ [ [ -97.977344, 45.430784 ], [ -97.706496, 45.430784 ] ] ] } },
{ "type": "Feature", "properties": { "TYPEPIPE": "Interstate", "Operator": "Northern Natural Gas Co", "Status": "Operating", "Shape_Leng": 0.052736, "STATEFP": "46", "STATENS": "01785534", "AFFGEOID": "0400000US46", "GEOID": "46", "STUSPS": "SD", "NAME": "South Dakota", "LSAD": "00", "ALAND": 196346981786, "AWATER": 3382720225 }, "geometry": { "type": "MultiLineString", "coordinates": [ [ [ -98.03008, 45.430784 ], [ -97.977344, 45.430784 ] ] ] } },
{ "type": "Feature", "properties": { "TYPEPIPE": "Interstate", "Operator": "Northern Natural Gas Co", "Status": "Operating", "Shape_Leng": 0.18688, "STATEFP": "46", "STATENS": "01785534", "AFFGEOID": "0400000US46", "GEOID": "46", "STUSPS": "SD", "NAME": "South Dakota", "LSAD": "00", "ALAND": 196346981786, "AWATER": 3382720225 }, "geometry": { "type": "MultiLineString", "coordinates": [ [ [ -98.03008, 45.243904 ], [ -98.03008, 45.430784 ] ] ] } },
{ "type": "Feature", "properties": { "TYPEPIPE": "Interstate", "Operator": "Northern Natural Gas Co", "Status": "Operating", "Shape_Leng": 0.153088, "STATEFP": "46", "STATENS": "01785534", "AFFGEOID": "0400000US46", "GEOID": "46", "STUSPS": "SD", "NAME": "South Dakota", "LSAD": "00", "ALAND": 196346981786, "AWATER": 3382720225 }, "geometry": { "type": "MultiLineString", "coordinates": [ [ [ -98.183168, 45.243904 ], [ -98.03008, 45.243904 ] ] ] } },
{ "type": "Feature", "properties": { "TYPEPIPE": "Interstate", "Operator": "Northern Natural Gas Co", "Status": "Operating", "Shape_Leng": 0.21674070333000001, "STATEFP": "46", "STATENS": "01785534", "AFFGEOID": "0400000US46", "GEOID": "46", "STUSPS": "SD", "NAME": "South Dakota", "LSAD": "00", "ALAND": 196346981786, "AWATER": 3382720225 }, "geometry": { "type": "MultiLineString", "coordinates": [ [ [ -98.046464, 45.075712 ], [ -98.183168, 45.243904 ] ] ] } },
{ "type": "Feature", "properties": { "TYPEPIPE": "Interstate", "Operator": "Northern Natural Gas Co", "Status": "Operating", "Shape_Leng": 0.12975589241, "STATEFP": "46", "STATENS": "01785534", "AFFGEOID": "0400000US46", "GEOID": "46", "STUSPS": "SD", "NAME": "South Dakota", "LSAD": "00", "ALAND": 196346981786, "AWATER": 3382720225 }, "geometry": { "type": "MultiLineString", "coordinates": [ [ [ -98.328064, 44.968192 ], [ -98.454784, 44.940288 ] ] ] } },
{ "type": "Feature", "properties": { "TYPEPIPE": "Interstate", "Operator": "Northern Natural Gas Co", "Status": "Operating", "Shape_Leng": 0.05209458475, "STATEFP": "46", "STATENS": "01785534", "AFFGEOID": "0400000US46", "GEOID": "46", "STUSPS": "SD", "NAME": "South Dakota", "LSAD": "00", "ALAND": 196346981786, "AWATER": 3382720225 }, "geometry": { "type": "MultiLineString", "coordinates": [ [ [ -98.30528, 45.01504 ], [ -98.328064, 44.968192 ] ] ] } },
{ "type": "Feature", "properties": { "TYPEPIPE": "Interstate", "Operator": "Northern Natural Gas Co", "Status": "Operating", "Shape_Leng": 0.15602858733, "STATEFP": "46", "STATENS": "01785534", "AFFGEOID": "0400000US46", "GEOID": "46", "STUSPS": "SD", "NAME": "South Dakota", "LSAD": "00", "ALAND": 196346981786, "AWATER": 3382720225 }, "geometry": { "type": "MultiLineString", "coordinates": [ [ [ -98.149888, 45.02912 ], [ -98.30528, 45.01504 ] ] ] } },
{ "type": "Feature", "properties": { "TYPEPIPE": "Interstate", "Operator": "Northern Natural Gas Co", "Status": "Operating", "Shape_Leng": 0.06504868823, "STATEFP": "46", "STATENS": "01785534", "AFFGEOID": "0400000US46", "GEOID": "46", "STUSPS": "SD", "NAME": "South Dakota", "LSAD": "00", "ALAND": 196346981786, "AWATER": 3382720225 }, "geometry": { "type": "MultiLineString", "coordinates": [ [ [ -98.149888, 45.02912 ], [ -98.127104, 44.968192 ] ] ] } },
{ "type": "Feature", "properties": { "TYPEPIPE": "Interstate", "Operator": "Northern Natural Gas Co", "Status": "Operating", "Shape_Leng": 0.11343429041, "STATEFP": "46", "STATENS": "01785534", "AFFGEOID": "0400000US46", "GEOID": "46", "STUSPS": "SD", "NAME": "South Dakota", "LSAD": "00", "ALAND": 196346981786, "AWATER": 3382720225 }, "geometry": { "type": "MultiLineString", "coordinates": [ [ [ -98.046464, 45.075712 ], [ -98.149888, 45.02912 ] ] ] } },
{ "type": "Feature", "properties": { "TYPEPIPE": "Interstate", "Operator": "Northern Natural Gas Co", "Status": "Operating", "Shape_Leng": 0.11607447651, "STATEFP": "46", "STATENS": "01785534", "AFFGEOID": "0400000US46", "GEOID": "46", "STUSPS": "SD", "NAME": "South Dakota", "LSAD": "00", "ALAND": 196346981786, "AWATER": 3382720225 }, "geometry": { "type": "MultiLineString", "coordinates": [ [ [ -97.9776, 44.982272 ], [ -98.046464, 45.075712 ] ] ] } },
{ "type": "Feature", "properties": { "TYPEPIPE": "Interstate", "Operator": "Northern Natural Gas Co", "Status": "Operating", "Shape_Leng": 0.09344, "STATEFP": "46", "STATENS": "01785534", "AFFGEOID": "0400000US46", "GEOID": "46", "STUSPS": "SD", "NAME": "South Dakota", "LSAD": "00", "ALAND": 196346981786, "AWATER": 3382720225 }, "geometry": { "type": "MultiLineString", "coordinates": [ [ [ -97.9776, 44.982272 ], [ -97.902848, 45.038336 ] ] ] } },
{ "type": "Feature", "properties": { "TYPEPIPE": "Interstate", "Operator": "Northern Natural Gas Co", "Status": "Operating", "Shape_Leng": 0.0979098766, "STATEFP": "46", "STATENS": "01785534", "AFFGEOID": "0400000US46", "GEOID": "46", "STUSPS": "SD", "NAME": "South Dakota", "LSAD": "00", "ALAND": 196346981786, "AWATER": 3382720225 }, "geometry": { "type": "MultiLineString", "coordinates": [ [ [ -97.920256, 44.902912 ], [ -97.9776, 44.982272 ] ] ] } },
{ "type": "Feature", "properties": { "TYPEPIPE": "Interstate", "Operator": "Northern Natural Gas Co", "Status": "Operating", "Shape_Leng": 0.17679594276, "STATEFP": "46", "STATENS": "01785534", "AFFGEOID": "0400000US46", "GEOID": "46", "STUSPS": "SD", "NAME": "South Dakota", "LSAD": "00", "ALAND": 196346981786, "AWATER": 3382720225 }, "geometry": { "type": "MultiLineString", "coordinates": [ [ [ -97.920256, 44.902912 ], [ -97.747456, 44.940288 ] ] ] } },
{ "type": "Feature", "properties": { "TYPEPIPE": "Interstate", "Operator": "Northern Natural Gas Co", "Status": "Operating", "Shape_Leng": 0.39565725515, "STATEFP": "46", "STATENS": "01785534", "AFFGEOID": "0400000US46", "GEOID": "46", "STUSPS": "SD", "NAME": "South Dakota", "LSAD": "00", "ALAND": 196346981786, "AWATER": 3382720225 }, "geometry": { "type": "MultiLineString", "coordinates": [ [ [ -97.66144, 44.603648 ], [ -97.920256, 44.902912 ] ] ] } },
{ "type": "Feature", "properties": { "TYPEPIPE": "Interstate", "Operator": "Northern Natural Gas Co", "Status": "Operating", "Shape_Leng": 0.23638657965000001, "STATEFP": "46", "STATENS": "01785534", "AFFGEOID": "0400000US46", "GEOID": "46", "STUSPS": "SD", "NAME": "South Dakota", "LSAD": "00", "ALAND": 196346981786, "AWATER": 3382720225 }, "geometry": { "type": "MultiLineString", "coordinates": [ [ [ -97.305088, 44.804608 ], [ -97.080832, 44.87936 ] ] ] } },
{ "type": "Feature", "properties": { "TYPEPIPE": "Interstate", "Operator": "Northern Natural Gas Co", "Status": "Operating", "Shape_Leng": 0.14922187078, "STATEFP": "46", "STATENS": "01785534", "AFFGEOID": "0400000US46", "GEOID": "46", "STUSPS": "SD", "NAME": "South Dakota", "LSAD": "00", "ALAND": 196346981786, "AWATER": 3382720225 }, "geometry": { "type": "MultiLineString", "coordinates": [ [ [ -97.431296, 44.724992 ], [ -97.305088, 44.804608 ] ] ] } },
{ "type": "Feature", "properties": { "TYPEPIPE": "Interstate", "Operator": "Northern Natural Gas Co", "Status": "Operating", "Shape_Leng": 0.102656, "STATEFP": "46", "STATENS": "01785534", "AFFGEOID": "0400000US46", "GEOID": "46", "STUSPS": "SD", "NAME": "South Dakota", "LSAD": "00", "ALAND": 196346981786, "AWATER": 3382720225 }, "geometry": { "type": "MultiLineString", "coordinates": [ [ [ -97.431296, 44.724992 ], [ -97.431296, 44.622336 ] ] ] } },
{ "type": "Feature", "properties": { "TYPEPIPE": "Interstate", "Operator": "Northern Natural Gas Co", "Status": "Operating", "Shape_Leng": 0.07148407509, "STATEFP": "46", "STATENS": "01785534", "AFFGEOID": "0400000US46", "GEOID": "46", "STUSPS": "SD", "NAME": "South Dakota", "LSAD": "00", "ALAND": 196346981786, "AWATER": 3382720225 }, "geometry": { "type": "MultiLineString", "coordinates": [ [ [ -97.489152, 44.683008 ], [ -97.431296, 44.724992 ] ] ] } },
{ "type": "Feature", "properties": { "TYPEPIPE": "Interstate", "Operator": "Northern Natural Gas Co", "Status": "Operating", "Shape_Leng": 0.18968701733000001, "STATEFP": "46", "STATENS": "01785534", "AFFGEOID": "0400000US46", "GEOID": "46", "STUSPS": "SD", "NAME": "South Dakota", "LSAD": "00", "ALAND": 196346981786, "AWATER": 3382720225 }, "geometry": { "type": "MultiLineString", "coordinates": [ [ [ -97.66144, 44.603648 ], [ -97.489152, 44.683008 ] ] ] } },
{ "type": "Feature", "properties": { "TYPEPIPE": "Interstate", "Operator": "Northern Natural Gas Co", "Status": "Operating", "Shape_Leng": 0.26089301507000001, "STATEFP": "46", "STATENS": "01785534", "AFFGEOID": "0400000US46", "GEOID": "46", "STUSPS": "SD", "NAME": "South Dakota", "LSAD": "00", "ALAND": 196346981786, "AWATER": 3382720225 }, "geometry": { "type": "MultiLineString", "coordinates": [ [ [ -98.034944, 44.407296 ], [ -98.276608, 44.308992 ] ] ] } },
{ "type": "Feature", "properties": { "TYPEPIPE": "Interstate", "Operator": "Northern Natural Gas Co", "Status": "Operating", "Shape_Leng": 0.08084291929, "STATEFP": "46", "STATENS": "01785534", "AFFGEOID": "0400000US46", "GEOID": "46", "STUSPS": "SD", "NAME": "South Dakota", "LSAD": "00", "ALAND": 196346981786, "AWATER": 3382720225 }, "geometry": { "type": "MultiLineString", "coordinates": [ [ [ -98.034944, 44.407296 ], [ -97.994752, 44.337152 ] ] ] } },
{ "type": "Feature", "properties": { "TYPEPIPE": "Interstate", "Operator": "Northern Natural Gas Co", "Status": "Operating", "Shape_Leng": 0.1950504975, "STATEFP": "46", "STATENS": "01785534", "AFFGEOID": "0400000US46", "GEOID": "46", "STUSPS": "SD", "NAME": "South Dakota", "LSAD": "00", "ALAND": 196346981786, "AWATER": 3382720225 }, "geometry": { "type": "MultiLineString", "coordinates": [ [ [ -97.856768, 44.486656 ], [ -98.034944, 44.407296 ] ] ] } },
{ "type": "Feature", "properties": { "TYPEPIPE": "Interstate", "Operator": "Northern Natural Gas Co", "Status": "Operating", "Shape_Leng": 0.11050337189, "STATEFP": "46", "STATENS": "01785534", "AFFGEOID": "0400000US46", "GEOID": "46", "STUSPS": "SD", "NAME": "South Dakota", "LSAD": "00", "ALAND": 196346981786, "AWATER": 3382720225 }, "geometry": { "type": "MultiLineString", "coordinates": [ [ [ -97.758976, 44.538112 ], [ -97.856768, 44.486656 ] ] ] } },
{ "type": "Feature", "properties": { "TYPEPIPE": "Interstate", "Operator": "Northern Natural Gas Co", "Status": "Operating", "Shape_Leng": 0.11750846179, "STATEFP": "46", "STATENS": "01785534", "AFFGEOID": "0400000US46", "GEOID": "46", "STUSPS": "SD", "NAME": "South Dakota", "LSAD": "00", "ALAND": 196346981786, "AWATER": 3382720225 }, "geometry": { "type": "MultiLineString", "coordinates": [ [ [ -97.66144, 44.603648 ], [ -97.758976, 44.538112 ] ] ] } },
{ "type": "Feature", "properties": { "TYPEPIPE": "Interstate", "Operator": "Northern Natural Gas Co", "Status": "Operating", "Shape_Leng": 0.08363994452, "STATEFP": "46", "STATENS": "01785534", "AFFGEOID": "0400000US46", "GEOID": "46", "STUSPS": "SD", "NAME": "South Dakota", "LSAD": "00", "ALAND": 196346981786, "AWATER": 3382720225 }, "geometry": { "type": "MultiLineString", "coordinates": [ [ [ -97.609472, 44.538112 ], [ -97.66144, 44.603648 ] ] ] } },
{ "type": "Feature", "properties": { "TYPEPIPE": "Interstate", "Operator": "Northern Natural Gas Co", "Status": "Operating", "Shape_Leng": 0.21209117194, "STATEFP": "46", "STATENS": "01785534", "AFFGEOID": "0400000US46", "GEOID": "46", "STUSPS": "SD", "NAME": "South Dakota", "LSAD": "00", "ALAND": 196346981786, "AWATER": 3382720225 }, "geometry": { "type": "MultiLineString", "coordinates": [ [ [ -97.454592, 44.393216 ], [ -97.609472, 44.538112 ] ] ] } },
{ "type": "Feature", "properties": { "TYPEPIPE": "Interstate", "Operator": "Northern Natural Gas Co", "Status": "Operating", "Shape_Leng": 0.12502081798, "STATEFP": "46", "STATENS": "01785534", "AFFGEOID": "0400000US46", "GEOID": "46", "STUSPS": "SD", "NAME": "South Dakota", "LSAD": "00", "ALAND": 196346981786, "AWATER": 3382720225 }, "geometry": { "type": "MultiLineString", "coordinates": [ [ [ -97.454592, 44.393216 ], [ -97.34528, 44.453888 ] ] ] } },
{ "type": "Feature", "properties": { "TYPEPIPE": "Interstate", "Operator": "Northern Natural Gas Co", "Status": "Operating", "Shape_Leng": 0.16732807038, "STATEFP": "46", "STATENS": "01785534", "AFFGEOID": "0400000US46", "GEOID": "46", "STUSPS": "SD", "NAME": "South Dakota", "LSAD": "00", "ALAND": 196346981786, "AWATER": 3382720225 }, "geometry": { "type": "MultiLineString", "coordinates": [ [ [ -97.339648, 44.271616 ], [ -97.454592, 44.393216 ] ] ] } },
{ "type": "Feature", "properties": { "TYPEPIPE": "Interstate", "Operator": "Northern Natural Gas Co", "Status": "Operating", "Shape_Leng": 0.16904569948000001, "STATEFP": "46", "STATENS": "01785534", "AFFGEOID": "0400000US46", "GEOID": "46", "STUSPS": "SD", "NAME": "South Dakota", "LSAD": "00", "ALAND": 196346981786, "AWATER": 3382720225 }, "geometry": { "type": "MultiLineString", "coordinates": [ [ [ -96.868096, 44.32768 ], [ -96.707072, 44.276224 ] ] ] } },
{ "type": "Feature", "properties": { "TYPEPIPE": "Interstate", "Operator": "Northern Natural Gas Co", "Status": "Operating", "Shape_Leng": 0.046592, "STATEFP": "46", "STATENS": "01785534", "AFFGEOID": "0400000US46", "GEOID": "46", "STUSPS": "SD", "NAME": "South Dakota", "LSAD": "00", "ALAND": 196346981786, "AWATER": 3382720225 }, "geometry": { "type": "MultiLineString", "coordinates": [ [ [ -96.868096, 44.32768 ], [ -96.868096, 44.281088 ] ] ] } },
{ "type": "Feature", "properties": { "TYPEPIPE": "Interstate", "Operator": "Northern Natural Gas Co", "Status": "Operating", "Shape_Leng": 0.264704, "STATEFP": "46", "STATENS": "01785534", "AFFGEOID": "0400000US46", "GEOID": "46", "STUSPS": "SD", "NAME": "South Dakota", "LSAD": "00", "ALAND": 196346981786, "AWATER": 3382720225 }, "geometry": { "type": "MultiLineString", "coordinates": [ [ [ -97.1328, 44.32768 ], [ -96.868096, 44.32768 ] ] ] } },
{ "type": "Feature", "properties": { "TYPEPIPE": "Interstate", "Operator": "Northern Natural Gas Co", "Status": "Operating", "Shape_Leng": 0.08138907956, "STATEFP": "46", "STATENS": "01785534", "AFFGEOID": "0400000US46", "GEOID": "46", "STUSPS": "SD", "NAME": "South Dakota", "LSAD": "00", "ALAND": 196346981786, "AWATER": 3382720225 }, "geometry": { "type": "MultiLineString", "coordinates": [ [ [ -97.1328, 44.32768 ], [ -97.149696, 44.407296 ] ] ] } },
{ "type": "Feature", "properties": { "TYPEPIPE": "Interstate", "Operator": "Northern Natural Gas Co", "Status": "Operating", "Shape_Leng": 0.21431114577, "STATEFP": "46", "STATENS": "01785534", "AFFGEOID": "0400000US46", "GEOID": "46", "STUSPS": "SD", "NAME": "South Dakota", "LSAD": "00", "ALAND": 196346981786, "AWATER": 3382720225 }, "geometry": { "type": "MultiLineString", "coordinates": [ [ [ -97.339648, 44.271616 ], [ -97.1328, 44.32768 ] ] ] } },
{ "type": "Feature", "properties": { "TYPEPIPE": "Interstate", "Operator": "Northern Natural Gas Co", "Status": "Operating", "Shape_Leng": 0.13011532116, "STATEFP": "46", "STATENS": "01785534", "AFFGEOID": "0400000US46", "GEOID": "46", "STUSPS": "SD", "NAME": "South Dakota", "LSAD": "00", "ALAND": 196346981786, "AWATER": 3382720225 }, "geometry": { "type": "MultiLineString", "coordinates": [ [ [ -98.28224, 45.350272 ], [ -98.371584, 45.444864 ] ] ] } },
{ "type": "Feature", "properties": { "TYPEPIPE": "Interstate", "Operator": "WBI Energy Transmission", "Status": "Operating", "Shape_Leng": 0.2176, "STATEFP": "46", "STATENS": "01785534", "AFFGEOID": "0400000US46", "GEOID": "46", "STUSPS": "SD", "NAME": "South Dakota", "LSAD": "00", "ALAND": 196346981786, "AWATER": 3382720225 }, "geometry": { "type": "MultiLineString", "coordinates": [ [ [ -103.97184, 45.214208 ], [ -103.97184, 44.996608 ] ] ] } },
{ "type": "Feature", "properties": { "TYPEPIPE": "Interstate", "Operator": "WBI Energy Transmission", "Status": "Operating", "Shape_Leng": 0.13135968429, "STATEFP": "46", "STATENS": "01785534", "AFFGEOID": "0400000US46", "GEOID": "46", "STUSPS": "SD", "NAME": "South Dakota", "LSAD": "00", "ALAND": 196346981786, "AWATER": 3382720225 }, "geometry": { "type": "MultiLineString", "coordinates": [ [ [ -103.855104, 44.711424 ], [ -103.78752, 44.598784 ] ] ] } },
{ "type": "Feature", "properties": { "TYPEPIPE": "Interstate", "Operator": "WBI Energy Transmission", "Status": "Operating", "Shape_Leng": 0.16611618874, "STATEFP": "46", "STATENS": "01785534", "AFFGEOID": "0400000US46", "GEOID": "46", "STUSPS": "SD", "NAME": "South Dakota", "LSAD": "00", "ALAND": 196346981786, "AWATER": 3382720225 }, "geometry": { "type": "MultiLineString", "coordinates": [ [ [ -103.78752, 44.598784 ], [ -103.681024, 44.471296 ] ] ] } },
{ "type": "Feature", "properties": { "TYPEPIPE": "Interstate", "Operator": "WBI Energy Transmission", "Status": "Operating", "Shape_Leng": 0.14276080493000001, "STATEFP": "46", "STATENS": "01785534", "AFFGEOID": "0400000US46", "GEOID": "46", "STUSPS": "SD", "NAME": "South Dakota", "LSAD": "00", "ALAND": 196346981786, "AWATER": 3382720225 }, "geometry": { "type": "MultiLineString", "coordinates": [ [ [ -103.681024, 44.471296 ], [ -103.777792, 44.366336 ] ] ] } },
{ "type": "Feature", "properties": { "TYPEPIPE": "Interstate", "Operator": "WBI Energy Transmission", "Status": "Operating", "Shape_Leng": 0.13053188717, "STATEFP": "46", "STATENS": "01785534", "AFFGEOID": "0400000US46", "GEOID": "46", "STUSPS": "SD", "NAME": "South Dakota", "LSAD": "00", "ALAND": 196346981786, "AWATER": 3382720225 }, "geometry": { "type": "MultiLineString", "coordinates": [ [ [ -103.681024, 44.471296 ], [ -103.574016, 44.396544 ] ] ] } },
{ "type": "Feature", "properties": { "TYPEPIPE": "Interstate", "Operator": "WBI Energy Transmission", "Status": "Operating", "Shape_Leng": 0.37984810371, "STATEFP": "46", "STATENS": "01785534", "AFFGEOID": "0400000US46", "GEOID": "46", "STUSPS": "SD", "NAME": "South Dakota", "LSAD": "00", "ALAND": 196346981786, "AWATER": 3382720225 }, "geometry": { "type": "MultiLineString", "coordinates": [ [ [ -103.574016, 44.396544 ], [ -103.292928, 44.141056 ] ] ] } },
{ "type": "Feature", "properties": { "TYPEPIPE": "Interstate", "Operator": "WBI Energy Transmission", "Status": "Operating", "Shape_Leng": 0.05395469507, "STATEFP": "46", "STATENS": "01785534", "AFFGEOID": "0400000US46", "GEOID": "46", "STUSPS": "SD", "NAME": "South Dakota", "LSAD": "00", "ALAND": 196346981786, "AWATER": 3382720225 }, "geometry": { "type": "MultiLineString", "coordinates": [ [ [ -103.292928, 44.141056 ], [ -103.254016, 44.10368 ] ] ] } },
{ "type": "Feature", "properties": { "TYPEPIPE": "Interstate", "Operator": "WBI Energy Transmission", "Status": "Operating", "Shape_Leng": 0.16553127076, "STATEFP": "46", "STATENS": "01785534", "AFFGEOID": "0400000US46", "GEOID": "46", "STUSPS": "SD", "NAME": "South Dakota", "LSAD": "00", "ALAND": 196346981786, "AWATER": 3382720225 }, "geometry": { "type": "MultiLineString", "coordinates": [ [ [ -103.254016, 44.10368 ], [ -103.089152, 44.088832 ] ] ] } },
{ "type": "Feature", "properties": { "TYPEPIPE": "Interstate", "Operator": "WBI Energy Transmission", "Status": "Operating", "Shape_Leng": 0.07997394812, "STATEFP": "46", "STATENS": "01785534", "AFFGEOID": "0400000US46", "GEOID": "46", "STUSPS": "SD", "NAME": "South Dakota", "LSAD": "00", "ALAND": 196346981786, "AWATER": 3382720225 }, "geometry": { "type": "MultiLineString", "coordinates": [ [ [ -103.97184, 44.996608 ], [ -103.941543, 44.922595 ] ] ] } },
{ "type": "Feature", "properties": { "TYPEPIPE": "Interstate", "Operator": "WBI Energy Transmission", "Status": "Operating", "Shape_Leng": 0.2281773257, "STATEFP": "46", "STATENS": "01785534", "AFFGEOID": "0400000US46", "GEOID": "46", "STUSPS": "SD", "NAME": "South Dakota", "LSAD": "00", "ALAND": 196346981786, "AWATER": 3382720225 }, "geometry": { "type": "MultiLineString", "coordinates": [ [ [ -103.941543, 44.922595 ], [ -103.855104, 44.711424 ] ] ] } },
{ "type": "Feature", "properties": { "TYPEPIPE": "Interstate", "Operator": "WBI Energy Transmission", "Status": "Operating", "Shape_Leng": 0.11694818898000001, "STATEFP": "46", "STATENS": "01785534", "AFFGEOID": "0400000US46", "GEOID": "46", "STUSPS": "SD", "NAME": "South Dakota", "LSAD": "00", "ALAND": 196346981786, "AWATER": 3382720225 }, "geometry": { "type": "MultiLineString", "coordinates": [ [ [ -103.941543, 44.922595 ], [ -104.049152, 44.8768 ] ] ] } },
{ "type": "Feature", "properties": { "TYPEPIPE": "Interstate", "Operator": "WBI Energy Transmission", "Status": "Operating", "Shape_Leng": 0.17606622172, "STATEFP": "46", "STATENS": "01785534", "AFFGEOID": "0400000US46", "GEOID": "46", "STUSPS": "SD", "NAME": "South Dakota", "LSAD": "00", "ALAND": 196346981786, "AWATER": 3382720225 }, "geometry": { "type": "MultiLineString", "coordinates": [ [ [ -104.049152, 44.8768 ], [ -104.05693519109218, 44.873958026051369 ] ] ] } },
{ "type": "Feature", "properties": { "TYPEPIPE": "Interstate", "Operator": "WBI Energy Transmission", "Status": "Operating", "Shape_Leng": 0.0805273626, "STATEFP": "46", "STATENS": "01785534", "AFFGEOID": "0400000US46", "GEOID": "46", "STUSPS": "SD", "NAME": "South Dakota", "LSAD": "00", "ALAND": 196346981786, "AWATER": 3382720225 }, "geometry": { "type": "MultiLineString", "coordinates": [ [ [ -103.97184, 44.996608 ], [ -104.049152, 44.97408 ] ] ] } },
{ "type": "Feature", "properties": { "TYPEPIPE": "Interstate", "Operator": "WBI Energy Transmission", "Status": "Operating", "Shape_Leng": 0.223232, "STATEFP": "46", "STATENS": "01785534", "AFFGEOID": "0400000US46", "GEOID": "46", "STUSPS": "SD", "NAME": "South Dakota", "LSAD": "00", "ALAND": 196346981786, "AWATER": 3382720225 }, "geometry": { "type": "MultiLineString", "coordinates": [ [ [ -104.049152, 44.97408 ], [ -104.057553613022677, 44.97408 ] ] ] } },
{ "type": "Feature", "properties": { "TYPEPIPE": "Interstate", "Operator": "WBI Energy Transmission", "Status": "Operating", "Shape_Leng": 0.12697455957000001, "STATEFP": "46", "STATENS": "01785534", "AFFGEOID": "0400000US46", "GEOID": "46", "STUSPS": "SD", "NAME": "South Dakota", "LSAD": "00", "ALAND": 196346981786, "AWATER": 3382720225 }, "geometry": { "type": "MultiLineString", "coordinates": [ [ [ -103.98329046789452, 45.945298851250755 ], [ -103.981568, 45.942272 ] ] ] } },
{ "type": "Feature", "properties": { "TYPEPIPE": "Interstate", "Operator": "WBI Energy Transmission", "Status": "Operating", "Shape_Leng": 0.33405466937, "STATEFP": "46", "STATENS": "01785534", "AFFGEOID": "0400000US46", "GEOID": "46", "STUSPS": "SD", "NAME": "South Dakota", "LSAD": "00", "ALAND": 196346981786, "AWATER": 3382720225 }, "geometry": { "type": "MultiLineString", "coordinates": [ [ [ -103.976988, 45.548223 ], [ -103.97184, 45.214208 ] ] ] } },
{ "type": "Feature", "properties": { "TYPEPIPE": "Interstate", "Operator": "WBI Energy Transmission", "Status": "Operating", "Shape_Leng": 0.32321510367, "STATEFP": "46", "STATENS": "01785534", "AFFGEOID": "0400000US46", "GEOID": "46", "STUSPS": "SD", "NAME": "South Dakota", "LSAD": "00", "ALAND": 196346981786, "AWATER": 3382720225 }, "geometry": { "type": "MultiLineString", "coordinates": [ [ [ -103.981568, 45.942272 ], [ -103.976109, 45.619103 ] ] ] } },
{ "type": "Feature", "properties": { "TYPEPIPE": "Interstate", "Operator": "WBI Energy Transmission", "Status": "Operating", "Shape_Leng": 0.07088545014, "STATEFP": "46", "STATENS": "01785534", "AFFGEOID": "0400000US46", "GEOID": "46", "STUSPS": "SD", "NAME": "South Dakota", "LSAD": "00", "ALAND": 196346981786, "AWATER": 3382720225 }, "geometry": { "type": "MultiLineString", "coordinates": [ [ [ -103.976988, 45.548223 ], [ -103.976109, 45.619103 ] ] ] } }
]
}
