{
"type": "FeatureCollection",
"name": "natural_gas_pipelines_id",
"crs": { "type": "name", "properties": { "name": "urn:ogc:def:crs:OGC:1.3:CRS84" } },
"features": [
{ "type": "Feature", "properties": { "TYPEPIPE": "Interstate", "Operator": "Northwest Pipeline", "Status": "Operating", "Shape_Leng": 0.01045290945, "STATEFP": "16", "STATENS": "01779783", "AFFGEOID": "0400000US16", "GEOID": "16", "STUSPS": "ID", "NAME": "Idaho", "LSAD": "00", "ALAND": 214049787659, "AWATER": 2391722557 }, "geometry": { "type": "MultiLineString", "coordinates": [ [ [ -111.403387, 42.529724 ], [ -111.398191, 42.520654 ] ] ] } },
{ "type": "Feature", "properties": { "TYPEPIPE": "Interstate", "Operator": "Northwest Pipeline", "Status": "Operating", "Shape_Leng": 0.16310792627000001, "STATEFP": "16", "STATENS": "01779783", "AFFGEOID": "0400000US16", "GEOID": "16", "STUSPS": "ID", "NAME": "Idaho", "LSAD": "00", "ALAND": 214049787659, "AWATER": 2391722557 }, "geometry": { "type": "MultiLineString", "coordinates": [ [ [ -111.534416, 42.626861 ], [ -111.471645, 42.580326 ], [ -111.403387, 42.529724 ] ] ] } },
{ "type": "Feature", "properties": { "TYPEPIPE": "Interstate", "Operator": "Northwest Pipeline", "Status": "Operating", "Shape_Leng": 0.39458002966, "STATEFP": "16", "STATENS": "01779783", "AFFGEOID": "0400000US16", "GEOID": "16", "STUSPS": "ID", "NAME": "Idaho", "LSAD": "00", "ALAND": 214049787659, "AWATER": 2391722557 }, "geometry": { "type": "MultiLineString", "coordinates": [ [ [ -115.041582, 42.804167 ], [ -114.747677, 42.639953 ], [ -114.696127, 42.613567 ] ] ] } },
{ "type": "Feature", "properties": { "TYPEPIPE": "Interstate", "Operator": "Northwest Pipeline", "Status": "Operating", "Shape_Leng": 0.14862260129, "STATEFP": "16", "STATENS": "01779783", "AFFGEOID": "0400000US16", "GEOID": "16", "STUSPS": "ID", "NAME": "Idaho", "LSAD": "00", "ALAND": 214049787659, "AWATER": 2391722557 }, "geometry": { "type": "MultiLineString", "coordinates": [ [ [ -111.127412, 42.001661 ], [ -111.127279715203358, 42.001401113348479 ] ] ] } },
{ "type": "Feature", "properties": { "TYPEPIPE": "Interstate", "Operator": "Northwest Pipeline", "Status": "Operating", "Shape_Leng": 0.31787013878999998, "STATEFP": "16", "STATENS": "01779783", "AFFGEOID": "0400000US16", "GEOID": "16", "STUSPS": "ID", "NAME": "Idaho", "LSAD": "00", "ALAND": 214049787659, "AWATER": 2391722557 }, "geometry": { "type": "MultiLineString", "coordinates": [ [ [ -115.314421, 42.967263 ], [ -115.178624, 42.886087 ], [ -115.168565, 42.880074 ], [ -115.041582, 42.804167 ] ] ] } },
{ "type": "Feature", "properties": { "TYPEPIPE": "Interstate", "Operator": "Northwest Pipeline", "Status": "Operating", "Shape_Leng": 0.75551089593999998, "STATEFP": "16", "STATENS": "01779783", "AFFGEOID": "0400000US16", "GEOID": "16", "STUSPS": "ID", "NAME": "Idaho", "LSAD": "00", "ALAND": 214049787659, "AWATER": 2391722557 }, "geometry": { "type": "MultiLineString", "coordinates": [ [ [ -115.984074, 42.757609 ], [ -116.479474, 42.187192 ] ] ] } },
{ "type": "Feature", "properties": { "TYPEPIPE": "Interstate", "Operator": "Northwest Pipeline", "Status": "Operating", "Shape_Leng": 0.26726019984, "STATEFP": "16", "STATENS": "01779783", "AFFGEOID": "0400000US16", "GEOID": "16", "STUSPS": "ID", "NAME": "Idaho", "LSAD": "00", "ALAND": 214049787659, "AWATER": 2391722557 }, "geometry": { "type": "MultiLineString", "coordinates": [ [ [ -116.324887, 47.546767 ], [ -116.194197, 47.547901 ], [ -116.15525, 47.548239 ], [ -116.104211, 47.54643 ], [ -116.057676, 47.545429 ] ] ] } },
{ "type": "Feature", "properties": { "TYPEPIPE": "Interstate", "Operator": "Northwest Pipeline", "Status": "Operating", "Shape_Leng": 0.40656032043000001, "STATEFP": "16", "STATENS": "01779783", "AFFGEOID": "0400000US16", "GEOID": "16", "STUSPS": "ID", "NAME": "Idaho", "LSAD": "00", "ALAND": 214049787659, "AWATER": 2391722557 }, "geometry": { "type": "MultiLineString", "coordinates": [ [ [ -116.704435, 47.692488 ], [ -116.324887, 47.546767 ] ] ] } },
{ "type": "Feature", "properties": { "TYPEPIPE": "Interstate", "Operator": "Northwest Pipeline", "Status": "Operating", "Shape_Leng": 0.33740431794999998, "STATEFP": "16", "STATENS": "01779783", "AFFGEOID": "0400000US16", "GEOID": "16", "STUSPS": "ID", "NAME": "Idaho", "LSAD": "00", "ALAND": 214049787659, "AWATER": 2391722557 }, "geometry": { "type": "MultiLineString", "coordinates": [ [ [ -117.040747, 47.719537 ], [ -117.007503, 47.716312 ], [ -116.958528, 47.712306 ], [ -116.813248, 47.701256 ], [ -116.766213, 47.697323 ], [ -116.704435, 47.692488 ] ] ] } },
{ "type": "Feature", "properties": { "TYPEPIPE": "Interstate", "Operator": "Northwest Pipeline", "Status": "Operating", "Shape_Leng": 0.22329085576, "STATEFP": "16", "STATENS": "01779783", "AFFGEOID": "0400000US16", "GEOID": "16", "STUSPS": "ID", "NAME": "Idaho", "LSAD": "00", "ALAND": 214049787659, "AWATER": 2391722557 }, "geometry": { "type": "MultiLineString", "coordinates": [ [ [ -116.479474, 42.187192 ], [ -116.603101, 42.001248 ] ] ] } },
{ "type": "Feature", "properties": { "TYPEPIPE": "Interstate", "Operator": "Northwest Pipeline", "Status": "Operating", "Shape_Leng": 0.0039606016, "STATEFP": "16", "STATENS": "01779783", "AFFGEOID": "0400000US16", "GEOID": "16", "STUSPS": "ID", "NAME": "Idaho", "LSAD": "00", "ALAND": 214049787659, "AWATER": 2391722557 }, "geometry": { "type": "MultiLineString", "coordinates": [ [ [ -116.603101, 42.001248 ], [ -116.605083, 41.997819 ] ] ] } },
{ "type": "Feature", "properties": { "TYPEPIPE": "Interstate", "Operator": "Northwest Pipeline", "Status": "Operating", "Shape_Leng": 0.49675109871000001, "STATEFP": "16", "STATENS": "01779783", "AFFGEOID": "0400000US16", "GEOID": "16", "STUSPS": "ID", "NAME": "Idaho", "LSAD": "00", "ALAND": 214049787659, "AWATER": 2391722557 }, "geometry": { "type": "MultiLineString", "coordinates": [ [ [ -116.403124, 43.56826 ], [ -116.347311, 43.537793 ], [ -116.283395, 43.502553 ], [ -116.162964, 43.43646 ], [ -116.015457, 43.355507 ], [ -115.967643, 43.329267 ] ] ] } },
{ "type": "Feature", "properties": { "TYPEPIPE": "Interstate", "Operator": "Northwest Pipeline", "Status": "Operating", "Shape_Leng": 0.20140989371000001, "STATEFP": "16", "STATENS": "01779783", "AFFGEOID": "0400000US16", "GEOID": "16", "STUSPS": "ID", "NAME": "Idaho", "LSAD": "00", "ALAND": 214049787659, "AWATER": 2391722557 }, "geometry": { "type": "MultiLineString", "coordinates": [ [ [ -116.555135, 43.700391 ], [ -116.520836, 43.670578 ], [ -116.455759, 43.614012 ], [ -116.403124, 43.56826 ] ] ] } },
{ "type": "Feature", "properties": { "TYPEPIPE": "Interstate", "Operator": "Northwest Pipeline", "Status": "Operating", "Shape_Leng": 0.08312238462, "STATEFP": "16", "STATENS": "01779783", "AFFGEOID": "0400000US16", "GEOID": "16", "STUSPS": "ID", "NAME": "Idaho", "LSAD": "00", "ALAND": 214049787659, "AWATER": 2391722557 }, "geometry": { "type": "MultiLineString", "coordinates": [ [ [ -116.619452, 43.753047 ], [ -116.574632, 43.716353 ], [ -116.555135, 43.700391 ] ] ] } },
{ "type": "Feature", "properties": { "TYPEPIPE": "Interstate", "Operator": "Northwest Pipeline", "Status": "Operating", "Shape_Leng": 0.128781039, "STATEFP": "16", "STATENS": "01779783", "AFFGEOID": "0400000US16", "GEOID": "16", "STUSPS": "ID", "NAME": "Idaho", "LSAD": "00", "ALAND": 214049787659, "AWATER": 2391722557 }, "geometry": { "type": "MultiLineString", "coordinates": [ [ [ -116.715604, 43.838717 ], [ -116.658573, 43.787903 ], [ -116.650102, 43.780355 ], [ -116.619452, 43.753047 ] ] ] } },
{ "type": "Feature", "properties": { "TYPEPIPE": "Interstate", "Operator": "Northwest Pipeline", "Status": "Operating", "Shape_Leng": 0.34698529765000002, "STATEFP": "16", "STATENS": "01779783", "AFFGEOID": "0400000US16", "GEOID": "16", "STUSPS": "ID", "NAME": "Idaho", "LSAD": "00", "ALAND": 214049787659, "AWATER": 2391722557 }, "geometry": { "type": "MultiLineString", "coordinates": [ [ [ -116.953170512031505, 44.051532513476182 ], [ -116.888792, 43.996349 ], [ -116.880295, 43.988881 ], [ -116.855123, 43.964837 ], [ -116.820339, 43.933393 ], [ -116.715604, 43.838717 ] ] ] } },
{ "type": "Feature", "properties": { "TYPEPIPE": "Interstate", "Operator": "Northwest Pipeline", "Status": "Operating", "Shape_Leng": 0.3112181428, "STATEFP": "16", "STATENS": "01779783", "AFFGEOID": "0400000US16", "GEOID": "16", "STUSPS": "ID", "NAME": "Idaho", "LSAD": "00", "ALAND": 214049787659, "AWATER": 2391722557 }, "geometry": { "type": "MultiLineString", "coordinates": [ [ [ -111.315569, 42.37462 ], [ -111.26036, 42.27704 ], [ -111.252296, 42.262786 ], [ -111.242667, 42.245767 ], [ -111.162317, 42.10375 ] ] ] } },
{ "type": "Feature", "properties": { "TYPEPIPE": "Interstate", "Operator": "Northwest Pipeline", "Status": "Operating", "Shape_Leng": 0.10789125519, "STATEFP": "16", "STATENS": "01779783", "AFFGEOID": "0400000US16", "GEOID": "16", "STUSPS": "ID", "NAME": "Idaho", "LSAD": "00", "ALAND": 214049787659, "AWATER": 2391722557 }, "geometry": { "type": "MultiLineString", "coordinates": [ [ [ -111.162317, 42.10375 ], [ -111.127412, 42.001661 ] ] ] } },
{ "type": "Feature", "properties": { "TYPEPIPE": "Interstate", "Operator": "Northwest Pipeline", "Status": "Operating", "Shape_Leng": 0.62523181047999998, "STATEFP": "16", "STATENS": "01779783", "AFFGEOID": "0400000US16", "GEOID": "16", "STUSPS": "ID", "NAME": "Idaho", "LSAD": "00", "ALAND": 214049787659, "AWATER": 2391722557 }, "geometry": { "type": "MultiLineString", "coordinates": [ [ [ -115.967643, 43.329267 ], [ -115.960825, 43.325363 ], [ -115.693833, 43.174101 ], [ -115.606768, 43.124776 ], [ -115.455092, 43.038846 ], [ -115.423665, 43.021042 ] ] ] } },
{ "type": "Feature", "properties": { "TYPEPIPE": "Interstate", "Operator": "Northwest Pipeline", "Status": "Operating", "Shape_Leng": 0.12176383854, "STATEFP": "16", "STATENS": "01779783", "AFFGEOID": "0400000US16", "GEOID": "16", "STUSPS": "ID", "NAME": "Idaho", "LSAD": "00", "ALAND": 214049787659, "AWATER": 2391722557 }, "geometry": { "type": "MultiLineString", "coordinates": [ [ [ -115.423665, 43.021042 ], [ -115.314421, 42.967263 ] ] ] } },
{ "type": "Feature", "properties": { "TYPEPIPE": "Interstate", "Operator": "Northwest Pipeline", "Status": "Operating", "Shape_Leng": 0.0207902842, "STATEFP": "16", "STATENS": "01779783", "AFFGEOID": "0400000US16", "GEOID": "16", "STUSPS": "ID", "NAME": "Idaho", "LSAD": "00", "ALAND": 214049787659, "AWATER": 2391722557 }, "geometry": { "type": "MultiLineString", "coordinates": [ [ [ -117.041584652408588, 47.719419592073855 ], [ -117.040747, 47.719537 ] ] ] } },
{ "type": "Feature", "properties": { "TYPEPIPE": "Interstate", "Operator": "Northwest Pipeline", "Status": "Operating", "Shape_Leng": 0.76728793397999995, "STATEFP": "16", "STATENS": "01779783", "AFFGEOID": "0400000US16", "GEOID": "16", "STUSPS": "ID", "NAME": "Idaho", "LSAD": "00", "ALAND": 214049787659, "AWATER": 2391722557 }, "geometry": { "type": "MultiLineString", "coordinates": [ [ [ -112.34956, 42.791215 ], [ -112.290804, 42.787159 ], [ -112.260495, 42.785066 ], [ -112.241723, 42.726568 ], [ -112.222291, 42.666016 ], [ -112.211098, 42.664173 ], [ -112.16158, 42.648389 ], [ -112.05194, 42.616893 ], [ -112.01259, 42.603324 ], [ -111.985537, 42.596087 ], [ -111.957255, 42.586137 ], [ -111.932661, 42.5789 ], [ -111.888393, 42.567141 ], [ -111.871177, 42.560809 ], [ -111.836746, 42.588851 ], [ -111.819531, 42.602419 ], [ -111.807234, 42.611465 ], [ -111.79483, 42.620362 ], [ -111.765425, 42.644934 ], [ -111.755588, 42.651266 ], [ -111.721157, 42.670262 ] ] ] } },
{ "type": "Feature", "properties": { "TYPEPIPE": "Interstate", "Operator": "Northwest Pipeline", "Status": "Operating", "Shape_Leng": 2.3326478986099999, "STATEFP": "16", "STATENS": "01779783", "AFFGEOID": "0400000US16", "GEOID": "16", "STUSPS": "ID", "NAME": "Idaho", "LSAD": "00", "ALAND": 214049787659, "AWATER": 2391722557 }, "geometry": { "type": "MultiLineString", "coordinates": [ [ [ -114.696127, 42.613567 ], [ -114.661345, 42.60337 ], [ -114.597016, 42.58417 ], [ -114.532027, 42.564772 ], [ -114.491128, 42.547002 ], [ -114.426615, 42.527487 ], [ -114.349841, 42.511462 ], [ -114.221566, 42.495059 ], [ -114.11746, 42.484124 ], [ -113.997626, 42.493022 ], [ -113.896376, 42.509304 ], [ -113.852194, 42.514732 ], [ -113.813534, 42.516089 ], [ -113.692033, 42.514732 ], [ -113.596305, 42.520159 ], [ -113.518858, 42.546449 ], [ -113.290713, 42.59343 ], [ -113.033551, 42.638376 ], [ -112.926135, 42.703213 ], [ -112.881745, 42.730007 ], [ -112.828641, 42.77932 ], [ -112.810231, 42.796959 ], [ -112.782617, 42.798316 ], [ -112.754505, 42.800012 ], [ -112.523809, 42.850184 ], [ -112.559768, 42.911129 ] ] ] } },
{ "type": "Feature", "properties": { "TYPEPIPE": "Interstate", "Operator": "Northwest Pipeline", "Status": "Operating", "Shape_Leng": 0.61548829993999998, "STATEFP": "16", "STATENS": "01779783", "AFFGEOID": "0400000US16", "GEOID": "16", "STUSPS": "ID", "NAME": "Idaho", "LSAD": "00", "ALAND": 214049787659, "AWATER": 2391722557 }, "geometry": { "type": "MultiLineString", "coordinates": [ [ [ -115.455092, 43.038846 ], [ -115.595348, 42.98268 ], [ -115.729219, 42.953283 ], [ -115.781555, 42.877823 ], [ -115.984074, 42.757609 ] ] ] } },
{ "type": "Feature", "properties": { "TYPEPIPE": "Interstate", "Operator": "Northwest Pipeline", "Status": "Operating", "Shape_Leng": 0.04008564363, "STATEFP": "16", "STATENS": "01779783", "AFFGEOID": "0400000US16", "GEOID": "16", "STUSPS": "ID", "NAME": "Idaho", "LSAD": "00", "ALAND": 214049787659, "AWATER": 2391722557 }, "geometry": { "type": "MultiLineString", "coordinates": [ [ [ -117.038733, 46.485361 ], [ -117.009957, 46.457454 ] ] ] } },
{ "type": "Feature", "properties": { "TYPEPIPE": "Interstate", "Operator": "Northwest Pipeline", "Status": "Operating", "Shape_Leng": 1.46320203078, "STATEFP": "16", "STATENS": "01779783", "AFFGEOID": "0400000US16", "GEOID": "16", "STUSPS": "ID", "NAME": "Idaho", "LSAD": "00", "ALAND": 214049787659, "AWATER": 2391722557 }, "geometry": { "type": "MultiLineString", "coordinates": [ [ [ -117.039772386835963, 46.486357905806742 ], [ -117.038733, 46.485361 ] ] ] } },
{ "type": "Feature", "properties": { "TYPEPIPE": "Interstate", "Operator": "Northwest Pipeline", "Status": "Operating", "Shape_Leng": 0.03827528006, "STATEFP": "16", "STATENS": "01779783", "AFFGEOID": "0400000US16", "GEOID": "16", "STUSPS": "ID", "NAME": "Idaho", "LSAD": "00", "ALAND": 214049787659, "AWATER": 2391722557 }, "geometry": { "type": "MultiLineString", "coordinates": [ [ [ -116.813248, 47.701256 ], [ -116.812098, 47.662998 ] ] ] } },
{ "type": "Feature", "properties": { "TYPEPIPE": "Interstate", "Operator": "Northwest Pipeline", "Status": "Operating", "Shape_Leng": 0.02901458478, "STATEFP": "16", "STATENS": "01779783", "AFFGEOID": "0400000US16", "GEOID": "16", "STUSPS": "ID", "NAME": "Idaho", "LSAD": "00", "ALAND": 214049787659, "AWATER": 2391722557 }, "geometry": { "type": "MultiLineString", "coordinates": [ [ [ -112.260977, 42.785632 ], [ -112.247065, 42.8039 ], [ -112.243398, 42.808715 ] ] ] } },
{ "type": "Feature", "properties": { "TYPEPIPE": "Interstate", "Operator": "Northwest Pipeline", "Status": "Operating", "Shape_Leng": 0.07816379768, "STATEFP": "16", "STATENS": "01779783", "AFFGEOID": "0400000US16", "GEOID": "16", "STUSPS": "ID", "NAME": "Idaho", "LSAD": "00", "ALAND": 214049787659, "AWATER": 2391722557 }, "geometry": { "type": "MultiLineString", "coordinates": [ [ [ -117.039794556751673, 46.719963938307011 ], [ -117.038558, 46.719979 ] ] ] } },
{ "type": "Feature", "properties": { "TYPEPIPE": "Interstate", "Operator": "Northwest Pipeline", "Status": "Operating", "Shape_Leng": 0.02053469544, "STATEFP": "16", "STATENS": "01779783", "AFFGEOID": "0400000US16", "GEOID": "16", "STUSPS": "ID", "NAME": "Idaho", "LSAD": "00", "ALAND": 214049787659, "AWATER": 2391722557 }, "geometry": { "type": "MultiLineString", "coordinates": [ [ [ -117.038558, 46.719979 ], [ -117.018024, 46.71981 ] ] ] } },
{ "type": "Feature", "properties": { "TYPEPIPE": "Interstate", "Operator": "Northwest Pipeline", "Status": "Operating", "Shape_Leng": 0.16778654309, "STATEFP": "16", "STATENS": "01779783", "AFFGEOID": "0400000US16", "GEOID": "16", "STUSPS": "ID", "NAME": "Idaho", "LSAD": "00", "ALAND": 214049787659, "AWATER": 2391722557 }, "geometry": { "type": "MultiLineString", "coordinates": [ [ [ -111.398191, 42.520654 ], [ -111.353429, 42.441538 ], [ -111.334502, 42.408085 ], [ -111.328146, 42.39685 ], [ -111.315569, 42.37462 ] ] ] } },
{ "type": "Feature", "properties": { "TYPEPIPE": "Interstate", "Operator": "Northwest Pipeline", "Status": "Operating", "Shape_Leng": 0.19344289916, "STATEFP": "16", "STATENS": "01779783", "AFFGEOID": "0400000US16", "GEOID": "16", "STUSPS": "ID", "NAME": "Idaho", "LSAD": "00", "ALAND": 214049787659, "AWATER": 2391722557 }, "geometry": { "type": "MultiLineString", "coordinates": [ [ [ -111.721157, 42.670262 ], [ -111.701482, 42.671167 ], [ -111.653524, 42.666644 ], [ -111.534416, 42.626861 ] ] ] } },
{ "type": "Feature", "properties": { "TYPEPIPE": "Interstate", "Operator": "Northwest Pipeline", "Status": "Operating", "Shape_Leng": 0.18555123634000001, "STATEFP": "16", "STATENS": "01779783", "AFFGEOID": "0400000US16", "GEOID": "16", "STUSPS": "ID", "NAME": "Idaho", "LSAD": "00", "ALAND": 214049787659, "AWATER": 2391722557 }, "geometry": { "type": "MultiLineString", "coordinates": [ [ [ -112.523809, 42.850184 ], [ -112.49942, 42.846823 ], [ -112.472121, 42.835206 ], [ -112.430856, 42.817646 ], [ -112.372458, 42.792796 ], [ -112.34956, 42.791215 ] ] ] } },
{ "type": "Feature", "properties": { "TYPEPIPE": "Intrastate", "Operator": "Paiute Pipeline Co", "Status": "Operating", "Shape_Leng": 2.7700984282, "STATEFP": "16", "STATENS": "01779783", "AFFGEOID": "0400000US16", "GEOID": "16", "STUSPS": "ID", "NAME": "Idaho", "LSAD": "00", "ALAND": 214049787659, "AWATER": 2391722557 }, "geometry": { "type": "MultiLineString", "coordinates": [ [ [ -116.605039, 41.997855 ], [ -116.605784061316172, 41.997372397863607 ] ] ] } },
{ "type": "Feature", "properties": { "TYPEPIPE": "Interstate", "Operator": "Gas Transmission - Northwest", "Status": "Operating", "Shape_Leng": 0.27954527111, "STATEFP": "16", "STATENS": "01779783", "AFFGEOID": "0400000US16", "GEOID": "16", "STUSPS": "ID", "NAME": "Idaho", "LSAD": "00", "ALAND": 214049787659, "AWATER": 2391722557 }, "geometry": { "type": "MultiLineString", "coordinates": [ [ [ -116.795062, 47.868725 ], [ -116.97722, 47.77618 ], [ -117.025156, 47.751826 ], [ -117.040756, 47.737091 ] ] ] } },
{ "type": "Feature", "properties": { "TYPEPIPE": "Interstate", "Operator": "Gas Transmission - Northwest", "Status": "Operating", "Shape_Leng": 0.06168881125, "STATEFP": "16", "STATENS": "01779783", "AFFGEOID": "0400000US16", "GEOID": "16", "STUSPS": "ID", "NAME": "Idaho", "LSAD": "00", "ALAND": 214049787659, "AWATER": 2391722557 }, "geometry": { "type": "MultiLineString", "coordinates": [ [ [ -116.68393, 48.00035 ], [ -116.723727, 47.953215 ] ] ] } },
{ "type": "Feature", "properties": { "TYPEPIPE": "Interstate", "Operator": "Gas Transmission - Northwest", "Status": "Operating", "Shape_Leng": 0.22578074352, "STATEFP": "16", "STATENS": "01779783", "AFFGEOID": "0400000US16", "GEOID": "16", "STUSPS": "ID", "NAME": "Idaho", "LSAD": "00", "ALAND": 214049787659, "AWATER": 2391722557 }, "geometry": { "type": "MultiLineString", "coordinates": [ [ [ -116.575498, 48.198389 ], [ -116.598666, 48.156075 ], [ -116.68393, 48.00035 ] ] ] } },
{ "type": "Feature", "properties": { "TYPEPIPE": "Interstate", "Operator": "Gas Transmission - Northwest", "Status": "Operating", "Shape_Leng": 0.14420656463000001, "STATEFP": "16", "STATENS": "01779783", "AFFGEOID": "0400000US16", "GEOID": "16", "STUSPS": "ID", "NAME": "Idaho", "LSAD": "00", "ALAND": 214049787659, "AWATER": 2391722557 }, "geometry": { "type": "MultiLineString", "coordinates": [ [ [ -116.546292, 48.339607 ], [ -116.571051, 48.220139 ], [ -116.575498, 48.198389 ] ] ] } },
{ "type": "Feature", "properties": { "TYPEPIPE": "Interstate", "Operator": "Gas Transmission - Northwest", "Status": "Operating", "Shape_Leng": 0.26343990347000001, "STATEFP": "16", "STATENS": "01779783", "AFFGEOID": "0400000US16", "GEOID": "16", "STUSPS": "ID", "NAME": "Idaho", "LSAD": "00", "ALAND": 214049787659, "AWATER": 2391722557 }, "geometry": { "type": "MultiLineString", "coordinates": [ [ [ -116.326491, 48.585413 ], [ -116.507703, 48.394199 ] ] ] } },
{ "type": "Feature", "properties": { "TYPEPIPE": "Interstate", "Operator": "Gas Transmission - Northwest", "Status": "Operating", "Shape_Leng": 0.10062519482, "STATEFP": "16", "STATENS": "01779783", "AFFGEOID": "0400000US16", "GEOID": "16", "STUSPS": "ID", "NAME": "Idaho", "LSAD": "00", "ALAND": 214049787659, "AWATER": 2391722557 }, "geometry": { "type": "MultiLineString", "coordinates": [ [ [ -116.278739, 48.673986 ], [ -116.326491, 48.585413 ] ] ] } },
{ "type": "Feature", "properties": { "TYPEPIPE": "Interstate", "Operator": "Gas Transmission - Northwest", "Status": "Operating", "Shape_Leng": 0.19142577356000001, "STATEFP": "16", "STATENS": "01779783", "AFFGEOID": "0400000US16", "GEOID": "16", "STUSPS": "ID", "NAME": "Idaho", "LSAD": "00", "ALAND": 214049787659, "AWATER": 2391722557 }, "geometry": { "type": "MultiLineString", "coordinates": [ [ [ -116.163509, 48.826845 ], [ -116.278739, 48.673986 ] ] ] } },
{ "type": "Feature", "properties": { "TYPEPIPE": "Interstate", "Operator": "Gas Transmission - Northwest", "Status": "Operating", "Shape_Leng": 0.10622345602, "STATEFP": "16", "STATENS": "01779783", "AFFGEOID": "0400000US16", "GEOID": "16", "STUSPS": "ID", "NAME": "Idaho", "LSAD": "00", "ALAND": 214049787659, "AWATER": 2391722557 }, "geometry": { "type": "MultiLineString", "coordinates": [ [ [ -116.165321, 48.933053 ], [ -116.163509, 48.826845 ] ] ] } },
{ "type": "Feature", "properties": { "TYPEPIPE": "Interstate", "Operator": "Gas Transmission - Northwest", "Status": "Operating", "Shape_Leng": 0.03208131427, "STATEFP": "16", "STATENS": "01779783", "AFFGEOID": "0400000US16", "GEOID": "16", "STUSPS": "ID", "NAME": "Idaho", "LSAD": "00", "ALAND": 214049787659, "AWATER": 2391722557 }, "geometry": { "type": "MultiLineString", "coordinates": [ [ [ -116.185437982765038, 49.000611257143809 ], [ -116.185297, 48.96876 ] ] ] } },
{ "type": "Feature", "properties": { "TYPEPIPE": "Interstate", "Operator": "Gas Transmission - Northwest", "Status": "Operating", "Shape_Leng": 0.06685355178000001, "STATEFP": "16", "STATENS": "01779783", "AFFGEOID": "0400000US16", "GEOID": "16", "STUSPS": "ID", "NAME": "Idaho", "LSAD": "00", "ALAND": 214049787659, "AWATER": 2391722557 }, "geometry": { "type": "MultiLineString", "coordinates": [ [ [ -116.507703, 48.394199 ], [ -116.546292, 48.339607 ] ] ] } },
{ "type": "Feature", "properties": { "TYPEPIPE": "Interstate", "Operator": "Gas Transmission - Northwest", "Status": "Operating", "Shape_Leng": 0.0409149169, "STATEFP": "16", "STATENS": "01779783", "AFFGEOID": "0400000US16", "GEOID": "16", "STUSPS": "ID", "NAME": "Idaho", "LSAD": "00", "ALAND": 214049787659, "AWATER": 2391722557 }, "geometry": { "type": "MultiLineString", "coordinates": [ [ [ -116.185297, 48.96876 ], [ -116.165321, 48.933053 ] ] ] } },
{ "type": "Feature", "properties": { "TYPEPIPE": "Interstate", "Operator": "Gas Transmission - Northwest", "Status": "Operating", "Shape_Leng": 0.04153370595, "STATEFP": "16", "STATENS": "01779783", "AFFGEOID": "0400000US16", "GEOID": "16", "STUSPS": "ID", "NAME": "Idaho", "LSAD": "00", "ALAND": 214049787659, "AWATER": 2391722557 }, "geometry": { "type": "MultiLineString", "coordinates": [ [ [ -117.040677, 47.737159 ], [ -117.041632816669946, 47.736176855711456 ] ] ] } },
{ "type": "Feature", "properties": { "TYPEPIPE": "Interstate", "Operator": "Gas Transmission - Northwest", "Status": "Operating", "Shape_Leng": 0.11057686162, "STATEFP": "16", "STATENS": "01779783", "AFFGEOID": "0400000US16", "GEOID": "16", "STUSPS": "ID", "NAME": "Idaho", "LSAD": "00", "ALAND": 214049787659, "AWATER": 2391722557 }, "geometry": { "type": "MultiLineString", "coordinates": [ [ [ -116.723727, 47.953215 ], [ -116.795062, 47.868725 ] ] ] } }
]
}
