{
"type": "FeatureCollection",
"name": "natural_gas_pipelines_ut",
"crs": { "type": "name", "properties": { "name": "urn:ogc:def:crs:OGC:1.3:CRS84" } },
"features": [
{ "type": "Feature", "properties": { "TYPEPIPE": "Interstate", "Operator": "Colorado Interstate Gas Co", "Status": "Operating", "Shape_Leng": 0.46157031131999998, "STATEFP": "49", "STATENS": "01455989", "AFFGEOID": "0400000US49", "GEOID": "49", "STUSPS": "UT", "NAME": "Utah", "LSAD": "00", "ALAND": 212886221680, "AWATER": 6998824394 }, "geometry": { "type": "MultiLineString", "coordinates": [ [ [ -109.050615320547081, 39.875244492134932 ], [ -109.247142, 39.947426 ], [ -109.448054, 39.984367 ], [ -109.448468, 39.984443 ], [ -109.494494, 39.992906 ] ] ] } },
{ "type": "Feature", "properties": { "TYPEPIPE": "Interstate", "Operator": "Kern River Gas Trans Co", "Status": "Operating", "Shape_Leng": 0.077312, "STATEFP": "49", "STATENS": "01455989", "AFFGEOID": "0400000US49", "GEOID": "49", "STUSPS": "UT", "NAME": "Utah", "LSAD": "00", "ALAND": 212886221680, "AWATER": 6998824394 }, "geometry": { "type": "MultiLineString", "coordinates": [ [ [ -111.878656, 40.94208 ], [ -111.801344, 40.94208 ] ] ] } },
{ "type": "Feature", "properties": { "TYPEPIPE": "Interstate", "Operator": "Kern River Gas Trans Co", "Status": "Operating", "Shape_Leng": 0.12923918564, "STATEFP": "49", "STATENS": "01455989", "AFFGEOID": "0400000US49", "GEOID": "49", "STUSPS": "UT", "NAME": "Utah", "LSAD": "00", "ALAND": 212886221680, "AWATER": 6998824394 }, "geometry": { "type": "MultiLineString", "coordinates": [ [ [ -111.981056, 40.863232 ], [ -111.878656, 40.94208 ] ] ] } },
{ "type": "Feature", "properties": { "TYPEPIPE": "Interstate", "Operator": "Kern River Gas Trans Co", "Status": "Operating", "Shape_Leng": 0.08424457327, "STATEFP": "49", "STATENS": "01455989", "AFFGEOID": "0400000US49", "GEOID": "49", "STUSPS": "UT", "NAME": "Utah", "LSAD": "00", "ALAND": 212886221680, "AWATER": 6998824394 }, "geometry": { "type": "MultiLineString", "coordinates": [ [ [ -112.009518, 40.783941 ], [ -111.981056, 40.863232 ] ] ] } },
{ "type": "Feature", "properties": { "TYPEPIPE": "Interstate", "Operator": "Kern River Gas Trans Co", "Status": "Operating", "Shape_Leng": 0.20626256176, "STATEFP": "49", "STATENS": "01455989", "AFFGEOID": "0400000US49", "GEOID": "49", "STUSPS": "UT", "NAME": "Utah", "LSAD": "00", "ALAND": 212886221680, "AWATER": 6998824394 }, "geometry": { "type": "MultiLineString", "coordinates": [ [ [ -111.801344, 40.94208 ], [ -111.595084, 40.943108 ] ] ] } },
{ "type": "Feature", "properties": { "TYPEPIPE": "Interstate", "Operator": "Kern River Gas Trans Co", "Status": "Operating", "Shape_Leng": 0.56986567939, "STATEFP": "49", "STATENS": "01455989", "AFFGEOID": "0400000US49", "GEOID": "49", "STUSPS": "UT", "NAME": "Utah", "LSAD": "00", "ALAND": 212886221680, "AWATER": 6998824394 }, "geometry": { "type": "MultiLineString", "coordinates": [ [ [ -114.049467, 37.070647 ], [ -113.934048, 37.222801 ], [ -113.800202, 37.29245 ], [ -113.73037, 37.30638 ], [ -113.62889, 37.425909 ] ] ] } },
{ "type": "Feature", "properties": { "TYPEPIPE": "Interstate", "Operator": "Kern River Gas Trans Co", "Status": "Operating", "Shape_Leng": 0.61922654357999996, "STATEFP": "49", "STATENS": "01455989", "AFFGEOID": "0400000US49", "GEOID": "49", "STUSPS": "UT", "NAME": "Utah", "LSAD": "00", "ALAND": 212886221680, "AWATER": 6998824394 }, "geometry": { "type": "MultiLineString", "coordinates": [ [ [ -111.595084, 40.943108 ], [ -111.159296, 40.94528 ], [ -111.046692984874028, 41.086586448630456 ] ] ] } },
{ "type": "Feature", "properties": { "TYPEPIPE": "Interstate", "Operator": "Kern River Gas Trans Co", "Status": "Operating", "Shape_Leng": 0.11769076537000001, "STATEFP": "49", "STATENS": "01455989", "AFFGEOID": "0400000US49", "GEOID": "49", "STUSPS": "UT", "NAME": "Utah", "LSAD": "00", "ALAND": 212886221680, "AWATER": 6998824394 }, "geometry": { "type": "MultiLineString", "coordinates": [ [ [ -112.045056, 40.671744 ], [ -112.009518, 40.783941 ] ] ] } },
{ "type": "Feature", "properties": { "TYPEPIPE": "Interstate", "Operator": "Kern River Gas Trans Co", "Status": "Operating", "Shape_Leng": 0.80339343335000002, "STATEFP": "49", "STATENS": "01455989", "AFFGEOID": "0400000US49", "GEOID": "49", "STUSPS": "UT", "NAME": "Utah", "LSAD": "00", "ALAND": 212886221680, "AWATER": 6998824394 }, "geometry": { "type": "MultiLineString", "coordinates": [ [ [ -111.936721, 39.877269 ], [ -111.942528, 39.916478 ], [ -111.97348, 40.125484 ], [ -111.977341, 40.151558 ], [ -111.981056, 40.17664 ], [ -111.993344, 40.424448 ], [ -112.021233, 40.557819 ], [ -112.034141, 40.619546 ], [ -112.045056, 40.671744 ] ] ] } },
{ "type": "Feature", "properties": { "TYPEPIPE": "Interstate", "Operator": "Kern River Gas Trans Co", "Status": "Operating", "Shape_Leng": 1.3707691665199999, "STATEFP": "49", "STATENS": "01455989", "AFFGEOID": "0400000US49", "GEOID": "49", "STUSPS": "UT", "NAME": "Utah", "LSAD": "00", "ALAND": 212886221680, "AWATER": 6998824394 }, "geometry": { "type": "MultiLineString", "coordinates": [ [ [ -112.658382, 38.838362 ], [ -112.523008, 38.96384 ], [ -112.384671, 39.07405 ], [ -112.307494, 39.124951 ], [ -112.19378, 39.21043 ], [ -112.147456, 39.33184 ], [ -112.074206, 39.506056 ], [ -111.966443, 39.559403 ], [ -111.948874, 39.603646 ], [ -111.918549, 39.680013 ], [ -111.909568, 39.805262 ], [ -111.929344, 39.827456 ], [ -111.936721, 39.877269 ] ] ] } },
{ "type": "Feature", "properties": { "TYPEPIPE": "Interstate", "Operator": "Kern River Gas Trans Co", "Status": "Operating", "Shape_Leng": 1.8238005977, "STATEFP": "49", "STATENS": "01455989", "AFFGEOID": "0400000US49", "GEOID": "49", "STUSPS": "UT", "NAME": "Utah", "LSAD": "00", "ALAND": 212886221680, "AWATER": 6998824394 }, "geometry": { "type": "MultiLineString", "coordinates": [ [ [ -113.628861, 37.425885 ], [ -113.608164, 37.450321 ], [ -113.584886, 37.524613 ], [ -113.631442, 37.575689 ], [ -113.627754, 37.604723 ], [ -113.6122, 37.66014 ], [ -113.568289, 37.661878 ], [ -113.568289, 37.712325 ], [ -113.190628, 38.119384 ], [ -113.18528, 38.149632 ], [ -113.1111, 38.29682 ], [ -112.944244, 38.573398 ], [ -112.658382, 38.838362 ] ] ] } },
{ "type": "Feature", "properties": { "TYPEPIPE": "Interstate", "Operator": "Kern River Gas Trans Co", "Status": "Operating", "Shape_Leng": 1.0352258385599999, "STATEFP": "49", "STATENS": "01455989", "AFFGEOID": "0400000US49", "GEOID": "49", "STUSPS": "UT", "NAME": "Utah", "LSAD": "00", "ALAND": 212886221680, "AWATER": 6998824394 }, "geometry": { "type": "MultiLineString", "coordinates": [ [ [ -114.05146854953469, 37.066954909822371 ], [ -114.049467, 37.070647 ] ] ] } },
{ "type": "Feature", "properties": { "TYPEPIPE": "Interstate", "Operator": "Northwest Pipeline", "Status": "Operating", "Shape_Leng": 0.06922968752, "STATEFP": "49", "STATENS": "01455989", "AFFGEOID": "0400000US49", "GEOID": "49", "STUSPS": "UT", "NAME": "Utah", "LSAD": "00", "ALAND": 212886221680, "AWATER": 6998824394 }, "geometry": { "type": "MultiLineString", "coordinates": [ [ [ -109.167001, 40.286989 ], [ -109.108504, 40.249964 ] ] ] } },
{ "type": "Feature", "properties": { "TYPEPIPE": "Interstate", "Operator": "Northwest Pipeline", "Status": "Operating", "Shape_Leng": 0.14862260129, "STATEFP": "49", "STATENS": "01455989", "AFFGEOID": "0400000US49", "GEOID": "49", "STUSPS": "UT", "NAME": "Utah", "LSAD": "00", "ALAND": 212886221680, "AWATER": 6998824394 }, "geometry": { "type": "MultiLineString", "coordinates": [ [ [ -111.127279715203358, 42.001401113348479 ], [ -111.116751, 41.980713 ], [ -111.105798, 41.951767 ], [ -111.098495, 41.929152 ], [ -111.086325, 41.91287 ], [ -111.075371, 41.902015 ], [ -111.046447293546848, 41.884752985603441 ] ] ] } },
{ "type": "Feature", "properties": { "TYPEPIPE": "Interstate", "Operator": "Northwest Pipeline", "Status": "Operating", "Shape_Leng": 0.14284047914, "STATEFP": "49", "STATENS": "01455989", "AFFGEOID": "0400000US49", "GEOID": "49", "STUSPS": "UT", "NAME": "Utah", "LSAD": "00", "ALAND": 212886221680, "AWATER": 6998824394 }, "geometry": { "type": "MultiLineString", "coordinates": [ [ [ -109.217051, 40.309069 ], [ -109.225662, 40.263772 ], [ -109.248837, 40.243083 ], [ -109.297822, 40.199351 ] ] ] } },
{ "type": "Feature", "properties": { "TYPEPIPE": "Interstate", "Operator": "Northwest Pipeline", "Status": "Operating", "Shape_Leng": 0.0980806605, "STATEFP": "49", "STATENS": "01455989", "AFFGEOID": "0400000US49", "GEOID": "49", "STUSPS": "UT", "NAME": "Utah", "LSAD": "00", "ALAND": 212886221680, "AWATER": 6998824394 }, "geometry": { "type": "MultiLineString", "coordinates": [ [ [ -109.05128247310536, 39.317786144268467 ], [ -109.061565, 39.328063 ] ] ] } },
{ "type": "Feature", "properties": { "TYPEPIPE": "Interstate", "Operator": "Northwest Pipeline", "Status": "Operating", "Shape_Leng": 0.22819550229, "STATEFP": "49", "STATENS": "01455989", "AFFGEOID": "0400000US49", "GEOID": "49", "STUSPS": "UT", "NAME": "Utah", "LSAD": "00", "ALAND": 212886221680, "AWATER": 6998824394 }, "geometry": { "type": "MultiLineString", "coordinates": [ [ [ -109.05141812222088, 39.204561009806817 ], [ -109.102107, 39.190475 ], [ -109.117927, 39.205461 ], [ -109.135654, 39.206913 ], [ -109.205279, 39.229497 ], [ -109.259012, 39.260417 ] ] ] } },
{ "type": "Feature", "properties": { "TYPEPIPE": "Interstate", "Operator": "Northwest Pipeline", "Status": "Operating", "Shape_Leng": 0.20951822071000001, "STATEFP": "49", "STATENS": "01455989", "AFFGEOID": "0400000US49", "GEOID": "49", "STUSPS": "UT", "NAME": "Utah", "LSAD": "00", "ALAND": 212886221680, "AWATER": 6998824394 }, "geometry": { "type": "MultiLineString", "coordinates": [ [ [ -109.102107, 39.190475 ], [ -109.133703, 39.161093 ], [ -109.152093, 39.143992 ], [ -109.187066, 39.113745 ], [ -109.229672, 39.076895 ], [ -109.268141, 39.072767 ] ] ] } },
{ "type": "Feature", "properties": { "TYPEPIPE": "Interstate", "Operator": "Northwest Pipeline", "Status": "Operating", "Shape_Leng": 0.37410608578, "STATEFP": "49", "STATENS": "01455989", "AFFGEOID": "0400000US49", "GEOID": "49", "STUSPS": "UT", "NAME": "Utah", "LSAD": "00", "ALAND": 212886221680, "AWATER": 6998824394 }, "geometry": { "type": "MultiLineString", "coordinates": [ [ [ -109.229672, 39.076895 ], [ -109.244591, 39.059511 ], [ -109.270159, 39.029719 ], [ -109.276222, 39.021897 ], [ -109.294631, 38.979913 ], [ -109.327669, 38.956214 ], [ -109.378943, 38.913446 ], [ -109.407604, 38.890852 ], [ -109.495776, 38.821343 ] ] ] } },
{ "type": "Feature", "properties": { "TYPEPIPE": "Interstate", "Operator": "Northwest Pipeline", "Status": "Operating", "Shape_Leng": 1.29209727818, "STATEFP": "49", "STATENS": "01455989", "AFFGEOID": "0400000US49", "GEOID": "49", "STUSPS": "UT", "NAME": "Utah", "LSAD": "00", "ALAND": 212886221680, "AWATER": 6998824394 }, "geometry": { "type": "MultiLineString", "coordinates": [ [ [ -109.495776, 38.821343 ], [ -109.504894, 38.800336 ], [ -109.567487, 38.763432 ], [ -109.596651, 38.756874 ], [ -109.680289, 38.670879 ], [ -109.67129, 38.660661 ], [ -109.654561, 38.649291 ], [ -109.612456, 38.621785 ], [ -109.580036, 38.598643 ], [ -109.570909, 38.572975 ], [ -109.519986, 38.526249 ], [ -109.512565, 38.51944 ], [ -109.424922, 38.43902 ], [ -109.457619, 38.382082 ], [ -109.388864, 38.270593 ], [ -109.354164, 38.211795 ], [ -109.297456, 38.119598 ], [ -109.293278, 38.116298 ], [ -109.161687, 38.012337 ], [ -109.042480356221347, 37.922825281134095 ] ] ] } },
{ "type": "Feature", "properties": { "TYPEPIPE": "Interstate", "Operator": "Northwest Pipeline", "Status": "Operating", "Shape_Leng": 0.07202760096, "STATEFP": "49", "STATENS": "01455989", "AFFGEOID": "0400000US49", "GEOID": "49", "STUSPS": "UT", "NAME": "Utah", "LSAD": "00", "ALAND": 212886221680, "AWATER": 6998824394 }, "geometry": { "type": "MultiLineString", "coordinates": [ [ [ -109.108504, 40.249964 ], [ -109.05081569682018, 40.208151991531324 ] ] ] } },
{ "type": "Feature", "properties": { "TYPEPIPE": "Interstate", "Operator": "Northwest Pipeline", "Status": "Operating", "Shape_Leng": 0.96991879330999997, "STATEFP": "49", "STATENS": "01455989", "AFFGEOID": "0400000US49", "GEOID": "49", "STUSPS": "UT", "NAME": "Utah", "LSAD": "00", "ALAND": 212886221680, "AWATER": 6998824394 }, "geometry": { "type": "MultiLineString", "coordinates": [ [ [ -109.502131, 40.999128 ], [ -109.486878, 40.983141 ], [ -109.447017, 40.94136 ], [ -109.334601, 40.934295 ], [ -109.330977, 40.794538 ], [ -109.327352, 40.742977 ], [ -109.32554, 40.699558 ], [ -109.318145, 40.670638 ], [ -109.31648, 40.642569 ], [ -109.311042, 40.618146 ], [ -109.307418, 40.588295 ], [ -109.323728, 40.532664 ], [ -109.376519, 40.48164 ], [ -109.327392, 40.406305 ], [ -109.282937, 40.338135 ], [ -109.217051, 40.309069 ], [ -109.167001, 40.286989 ] ] ] } },
{ "type": "Feature", "properties": { "TYPEPIPE": "Interstate", "Operator": "Northwest Pipeline", "Status": "Operating", "Shape_Leng": 0.29050392985000001, "STATEFP": "49", "STATENS": "01455989", "AFFGEOID": "0400000US49", "GEOID": "49", "STUSPS": "UT", "NAME": "Utah", "LSAD": "00", "ALAND": 212886221680, "AWATER": 6998824394 }, "geometry": { "type": "MultiLineString", "coordinates": [ [ [ -109.502469007931509, 40.999482382446367 ], [ -109.502131, 40.999128 ] ] ] } },
{ "type": "Feature", "properties": { "TYPEPIPE": "Interstate", "Operator": "Northwest Pipeline", "Status": "Operating", "Shape_Leng": 0.03504864211, "STATEFP": "49", "STATENS": "01455989", "AFFGEOID": "0400000US49", "GEOID": "49", "STUSPS": "UT", "NAME": "Utah", "LSAD": "00", "ALAND": 212886221680, "AWATER": 6998824394 }, "geometry": { "type": "MultiLineString", "coordinates": [ [ [ -109.248837, 40.243083 ], [ -109.217792, 40.226816 ] ] ] } },
{ "type": "Feature", "properties": { "TYPEPIPE": "Intrastate", "Operator": "Rocky Mountain Natural Gas Co", "Status": "Operating", "Shape_Leng": 0.02265480843, "STATEFP": "49", "STATENS": "01455989", "AFFGEOID": "0400000US49", "GEOID": "49", "STUSPS": "UT", "NAME": "Utah", "LSAD": "00", "ALAND": 212886221680, "AWATER": 6998824394 }, "geometry": { "type": "MultiLineString", "coordinates": [ [ [ -109.214435, 38.149078 ], [ -109.195496, 38.16151 ] ] ] } },
{ "type": "Feature", "properties": { "TYPEPIPE": "Intrastate", "Operator": "Rocky Mountain Natural Gas Co", "Status": "Operating", "Shape_Leng": 0.16142556938, "STATEFP": "49", "STATENS": "01455989", "AFFGEOID": "0400000US49", "GEOID": "49", "STUSPS": "UT", "NAME": "Utah", "LSAD": "00", "ALAND": 212886221680, "AWATER": 6998824394 }, "geometry": { "type": "MultiLineString", "coordinates": [ [ [ -109.167104, 38.173949 ], [ -109.153899, 38.161544 ], [ -109.152008, 38.161545 ], [ -109.140696, 38.149136 ], [ -109.136923, 38.146034 ], [ -109.127496, 38.136726 ], [ -109.121834, 38.133625 ], [ -109.110518, 38.124316 ], [ -109.106739, 38.124318 ], [ -109.093535, 38.115009 ], [ -109.085985, 38.111906 ], [ -109.078431, 38.110356 ], [ -109.067124, 38.099491 ], [ -109.063354, 38.096387 ], [ -109.052044, 38.087074 ], [ -109.048266, 38.087075 ], [ -109.042002699181594, 38.083722526992801 ] ] ] } },
{ "type": "Feature", "properties": { "TYPEPIPE": "Intrastate", "Operator": "Rocky Mountain Natural Gas Co", "Status": "Operating", "Shape_Leng": 0.11238659668000001, "STATEFP": "49", "STATENS": "01455989", "AFFGEOID": "0400000US49", "GEOID": "49", "STUSPS": "UT", "NAME": "Utah", "LSAD": "00", "ALAND": 212886221680, "AWATER": 6998824394 }, "geometry": { "type": "MultiLineString", "coordinates": [ [ [ -109.218111, 38.198727 ], [ -109.206788, 38.186327 ], [ -109.203012, 38.183227 ], [ -109.19925, 38.17392 ], [ -109.195496, 38.16151 ], [ -109.191743, 38.149098 ], [ -109.187968, 38.145997 ], [ -109.18799, 38.136686 ], [ -109.191801, 38.124267 ], [ -109.203161, 38.11805 ], [ -109.216382, 38.124247 ] ] ] } },
{ "type": "Feature", "properties": { "TYPEPIPE": "Intrastate", "Operator": "Rocky Mountain Natural Gas Co", "Status": "Operating", "Shape_Leng": 0.07425564333, "STATEFP": "49", "STATENS": "01455989", "AFFGEOID": "0400000US49", "GEOID": "49", "STUSPS": "UT", "NAME": "Utah", "LSAD": "00", "ALAND": 212886221680, "AWATER": 6998824394 }, "geometry": { "type": "MultiLineString", "coordinates": [ [ [ -109.127488, 38.13983 ], [ -109.142625, 38.133614 ], [ -109.155854, 38.135157 ], [ -109.163435, 38.127392 ], [ -109.170997, 38.127387 ], [ -109.18042, 38.139796 ], [ -109.19095, 38.140803 ] ] ] } },
{ "type": "Feature", "properties": { "TYPEPIPE": "Interstate", "Operator": "Questar Pipeline Co", "Status": "Operating", "Shape_Leng": 0.24537337517, "STATEFP": "49", "STATENS": "01455989", "AFFGEOID": "0400000US49", "GEOID": "49", "STUSPS": "UT", "NAME": "Utah", "LSAD": "00", "ALAND": 212886221680, "AWATER": 6998824394 }, "geometry": { "type": "MultiLineString", "coordinates": [ [ [ -109.901671, 39.931046 ], [ -109.812261, 39.949535 ], [ -109.797476, 39.952592 ], [ -109.775859, 39.957062 ], [ -109.753765, 39.961631 ], [ -109.715888, 39.963611 ], [ -109.660783, 39.975672 ] ] ] } },
{ "type": "Feature", "properties": { "TYPEPIPE": "Interstate", "Operator": "Questar Pipeline Co", "Status": "Operating", "Shape_Leng": 0.05781083635, "STATEFP": "49", "STATENS": "01455989", "AFFGEOID": "0400000US49", "GEOID": "49", "STUSPS": "UT", "NAME": "Utah", "LSAD": "00", "ALAND": 212886221680, "AWATER": 6998824394 }, "geometry": { "type": "MultiLineString", "coordinates": [ [ [ -109.538352, 40.986688 ], [ -109.587072, 40.955568 ] ] ] } },
{ "type": "Feature", "properties": { "TYPEPIPE": "Interstate", "Operator": "Questar Pipeline Co", "Status": "Operating", "Shape_Leng": 0.01670217615, "STATEFP": "49", "STATENS": "01455989", "AFFGEOID": "0400000US49", "GEOID": "49", "STUSPS": "UT", "NAME": "Utah", "LSAD": "00", "ALAND": 212886221680, "AWATER": 6998824394 }, "geometry": { "type": "MultiLineString", "coordinates": [ [ [ -109.52192, 40.98968 ], [ -109.538352, 40.986688 ] ] ] } },
{ "type": "Feature", "properties": { "TYPEPIPE": "Interstate", "Operator": "Questar Pipeline Co", "Status": "Operating", "Shape_Leng": 0.02716995046, "STATEFP": "49", "STATENS": "01455989", "AFFGEOID": "0400000US49", "GEOID": "49", "STUSPS": "UT", "NAME": "Utah", "LSAD": "00", "ALAND": 212886221680, "AWATER": 6998824394 }, "geometry": { "type": "MultiLineString", "coordinates": [ [ [ -109.495088, 40.985408 ], [ -109.52192, 40.98968 ] ] ] } },
{ "type": "Feature", "properties": { "TYPEPIPE": "Interstate", "Operator": "Questar Pipeline Co", "Status": "Operating", "Shape_Leng": 0.10978104172, "STATEFP": "49", "STATENS": "01455989", "AFFGEOID": "0400000US49", "GEOID": "49", "STUSPS": "UT", "NAME": "Utah", "LSAD": "00", "ALAND": 212886221680, "AWATER": 6998824394 }, "geometry": { "type": "MultiLineString", "coordinates": [ [ [ -109.3892, 40.956432 ], [ -109.495088, 40.985408 ] ] ] } },
{ "type": "Feature", "properties": { "TYPEPIPE": "Interstate", "Operator": "Questar Pipeline Co", "Status": "Operating", "Shape_Leng": 0.05521054972, "STATEFP": "49", "STATENS": "01455989", "AFFGEOID": "0400000US49", "GEOID": "49", "STUSPS": "UT", "NAME": "Utah", "LSAD": "00", "ALAND": 212886221680, "AWATER": 6998824394 }, "geometry": { "type": "MultiLineString", "coordinates": [ [ [ -109.334016, 40.95472 ], [ -109.3892, 40.956432 ] ] ] } },
{ "type": "Feature", "properties": { "TYPEPIPE": "Interstate", "Operator": "Questar Pipeline Co", "Status": "Operating", "Shape_Leng": 0.0178932157, "STATEFP": "49", "STATENS": "01455989", "AFFGEOID": "0400000US49", "GEOID": "49", "STUSPS": "UT", "NAME": "Utah", "LSAD": "00", "ALAND": 212886221680, "AWATER": 6998824394 }, "geometry": { "type": "MultiLineString", "coordinates": [ [ [ -109.316128, 40.954288 ], [ -109.334016, 40.95472 ] ] ] } },
{ "type": "Feature", "properties": { "TYPEPIPE": "Interstate", "Operator": "Questar Pipeline Co", "Status": "Operating", "Shape_Leng": 0.05150533953, "STATEFP": "49", "STATENS": "01455989", "AFFGEOID": "0400000US49", "GEOID": "49", "STUSPS": "UT", "NAME": "Utah", "LSAD": "00", "ALAND": 212886221680, "AWATER": 6998824394 }, "geometry": { "type": "MultiLineString", "coordinates": [ [ [ -109.265408, 40.963248 ], [ -109.316128, 40.954288 ] ] ] } },
{ "type": "Feature", "properties": { "TYPEPIPE": "Interstate", "Operator": "Questar Pipeline Co", "Status": "Operating", "Shape_Leng": 0.06943059844, "STATEFP": "49", "STATENS": "01455989", "AFFGEOID": "0400000US49", "GEOID": "49", "STUSPS": "UT", "NAME": "Utah", "LSAD": "00", "ALAND": 212886221680, "AWATER": 6998824394 }, "geometry": { "type": "MultiLineString", "coordinates": [ [ [ -109.1968, 40.973904 ], [ -109.265408, 40.963248 ] ] ] } },
{ "type": "Feature", "properties": { "TYPEPIPE": "Interstate", "Operator": "Questar Pipeline Co", "Status": "Operating", "Shape_Leng": 0.01649221295, "STATEFP": "49", "STATENS": "01455989", "AFFGEOID": "0400000US49", "GEOID": "49", "STUSPS": "UT", "NAME": "Utah", "LSAD": "00", "ALAND": 212886221680, "AWATER": 6998824394 }, "geometry": { "type": "MultiLineString", "coordinates": [ [ [ -109.1968, 40.973904 ], [ -109.185872, 40.961552 ] ] ] } },
{ "type": "Feature", "properties": { "TYPEPIPE": "Interstate", "Operator": "Questar Pipeline Co", "Status": "Operating", "Shape_Leng": 0.02790183652, "STATEFP": "49", "STATENS": "01455989", "AFFGEOID": "0400000US49", "GEOID": "49", "STUSPS": "UT", "NAME": "Utah", "LSAD": "00", "ALAND": 212886221680, "AWATER": 6998824394 }, "geometry": { "type": "MultiLineString", "coordinates": [ [ [ -109.191469019947462, 41.000905625348423 ], [ -109.192791, 40.989915 ], [ -109.1968, 40.973904 ] ] ] } },
{ "type": "Feature", "properties": { "TYPEPIPE": "Interstate", "Operator": "Questar Pipeline Co", "Status": "Operating", "Shape_Leng": 0.03674701895, "STATEFP": "49", "STATENS": "01455989", "AFFGEOID": "0400000US49", "GEOID": "49", "STUSPS": "UT", "NAME": "Utah", "LSAD": "00", "ALAND": 212886221680, "AWATER": 6998824394 }, "geometry": { "type": "MultiLineString", "coordinates": [ [ [ -111.191479, 40.968987 ], [ -111.20752, 41.002048 ] ] ] } },
{ "type": "Feature", "properties": { "TYPEPIPE": "Interstate", "Operator": "Questar Pipeline Co", "Status": "Operating", "Shape_Leng": 0.03912369437, "STATEFP": "49", "STATENS": "01455989", "AFFGEOID": "0400000US49", "GEOID": "49", "STUSPS": "UT", "NAME": "Utah", "LSAD": "00", "ALAND": 212886221680, "AWATER": 6998824394 }, "geometry": { "type": "MultiLineString", "coordinates": [ [ [ -111.247519, 40.955386 ], [ -111.266144, 40.989792 ] ] ] } },
{ "type": "Feature", "properties": { "TYPEPIPE": "Interstate", "Operator": "Questar Pipeline Co", "Status": "Operating", "Shape_Leng": 0.05766687785, "STATEFP": "49", "STATENS": "01455989", "AFFGEOID": "0400000US49", "GEOID": "49", "STUSPS": "UT", "NAME": "Utah", "LSAD": "00", "ALAND": 212886221680, "AWATER": 6998824394 }, "geometry": { "type": "MultiLineString", "coordinates": [ [ [ -111.191479, 40.968987 ], [ -111.247519, 40.955386 ] ] ] } },
{ "type": "Feature", "properties": { "TYPEPIPE": "Interstate", "Operator": "Questar Pipeline Co", "Status": "Operating", "Shape_Leng": 0.1637796902, "STATEFP": "49", "STATENS": "01455989", "AFFGEOID": "0400000US49", "GEOID": "49", "STUSPS": "UT", "NAME": "Utah", "LSAD": "00", "ALAND": 212886221680, "AWATER": 6998824394 }, "geometry": { "type": "MultiLineString", "coordinates": [ [ [ -111.04672091419846, 41.004121728820195 ], [ -111.191479, 40.968987 ] ] ] } },
{ "type": "Feature", "properties": { "TYPEPIPE": "Interstate", "Operator": "Questar Pipeline Co", "Status": "Operating", "Shape_Leng": 0.02244510541, "STATEFP": "49", "STATENS": "01455989", "AFFGEOID": "0400000US49", "GEOID": "49", "STUSPS": "UT", "NAME": "Utah", "LSAD": "00", "ALAND": 212886221680, "AWATER": 6998824394 }, "geometry": { "type": "MultiLineString", "coordinates": [ [ [ -111.469614, 39.824319 ], [ -111.47836, 39.803648 ] ] ] } },
{ "type": "Feature", "properties": { "TYPEPIPE": "Interstate", "Operator": "Questar Pipeline Co", "Status": "Operating", "Shape_Leng": 0.02667404319, "STATEFP": "49", "STATENS": "01455989", "AFFGEOID": "0400000US49", "GEOID": "49", "STUSPS": "UT", "NAME": "Utah", "LSAD": "00", "ALAND": 212886221680, "AWATER": 6998824394 }, "geometry": { "type": "MultiLineString", "coordinates": [ [ [ -111.046709029487459, 41.039225411243407 ], [ -111.066486, 41.039261 ] ] ] } },
{ "type": "Feature", "properties": { "TYPEPIPE": "Interstate", "Operator": "Questar Pipeline Co", "Status": "Operating", "Shape_Leng": 0.07212194614, "STATEFP": "49", "STATENS": "01455989", "AFFGEOID": "0400000US49", "GEOID": "49", "STUSPS": "UT", "NAME": "Utah", "LSAD": "00", "ALAND": 212886221680, "AWATER": 6998824394 }, "geometry": { "type": "MultiLineString", "coordinates": [ [ [ -111.063197, 41.18363 ], [ -111.058036, 41.180551 ], [ -111.051197, 41.179746 ], [ -111.046661389020485, 41.179752432842875 ] ] ] } },
{ "type": "Feature", "properties": { "TYPEPIPE": "Interstate", "Operator": "Questar Pipeline Co", "Status": "Operating", "Shape_Leng": 0.050098, "STATEFP": "49", "STATENS": "01455989", "AFFGEOID": "0400000US49", "GEOID": "49", "STUSPS": "UT", "NAME": "Utah", "LSAD": "00", "ALAND": 212886221680, "AWATER": 6998824394 }, "geometry": { "type": "MultiLineString", "coordinates": [ [ [ -111.069673, 41.118065 ], [ -111.046682314410887, 41.118065 ] ] ] } },
{ "type": "Feature", "properties": { "TYPEPIPE": "Interstate", "Operator": "Questar Pipeline Co", "Status": "Operating", "Shape_Leng": 0.29892461668999998, "STATEFP": "49", "STATENS": "01455989", "AFFGEOID": "0400000US49", "GEOID": "49", "STUSPS": "UT", "NAME": "Utah", "LSAD": "00", "ALAND": 212886221680, "AWATER": 6998824394 }, "geometry": { "type": "MultiLineString", "coordinates": [ [ [ -110.065516, 40.194823 ], [ -110.085632, 39.896576 ] ] ] } },
{ "type": "Feature", "properties": { "TYPEPIPE": "Interstate", "Operator": "Questar Pipeline Co", "Status": "Operating", "Shape_Leng": 0.41750455083, "STATEFP": "49", "STATENS": "01455989", "AFFGEOID": "0400000US49", "GEOID": "49", "STUSPS": "UT", "NAME": "Utah", "LSAD": "00", "ALAND": 212886221680, "AWATER": 6998824394 }, "geometry": { "type": "MultiLineString", "coordinates": [ [ [ -110.393236, 40.453492 ], [ -110.065516, 40.194823 ] ] ] } },
{ "type": "Feature", "properties": { "TYPEPIPE": "Interstate", "Operator": "Questar Pipeline Co", "Status": "Operating", "Shape_Leng": 1.0858093085, "STATEFP": "49", "STATENS": "01455989", "AFFGEOID": "0400000US49", "GEOID": "49", "STUSPS": "UT", "NAME": "Utah", "LSAD": "00", "ALAND": 212886221680, "AWATER": 6998824394 }, "geometry": { "type": "MultiLineString", "coordinates": [ [ [ -109.185872, 40.961552 ], [ -109.131862, 40.894524 ], [ -109.109357, 40.846653 ], [ -109.12511, 40.80904 ], [ -109.169221, 40.757784 ], [ -109.188125, 40.723556 ], [ -109.201628, 40.680814 ], [ -109.235386, 40.660298 ], [ -109.284897, 40.639781 ], [ -109.311903, 40.598749 ], [ -109.350162, 40.511555 ], [ -109.35804, 40.471981 ], [ -109.353539, 40.435121 ], [ -109.355789, 40.332257 ], [ -109.328783, 40.166818 ], [ -109.350601, 40.142736 ], [ -109.382104, 40.117408 ], [ -109.405977, 40.093543 ], [ -109.405725, 40.031152 ] ] ] } },
{ "type": "Feature", "properties": { "TYPEPIPE": "Interstate", "Operator": "Questar Pipeline Co", "Status": "Operating", "Shape_Leng": 0.13244487892000001, "STATEFP": "49", "STATENS": "01455989", "AFFGEOID": "0400000US49", "GEOID": "49", "STUSPS": "UT", "NAME": "Utah", "LSAD": "00", "ALAND": 212886221680, "AWATER": 6998824394 }, "geometry": { "type": "MultiLineString", "coordinates": [ [ [ -111.101939, 41.93963 ], [ -111.210787, 41.864173 ] ] ] } },
{ "type": "Feature", "properties": { "TYPEPIPE": "Interstate", "Operator": "Questar Pipeline Co", "Status": "Operating", "Shape_Leng": 0.28003647765, "STATEFP": "49", "STATENS": "01455989", "AFFGEOID": "0400000US49", "GEOID": "49", "STUSPS": "UT", "NAME": "Utah", "LSAD": "00", "ALAND": 212886221680, "AWATER": 6998824394 }, "geometry": { "type": "MultiLineString", "coordinates": [ [ [ -111.063197, 41.18363 ], [ -111.156819, 41.447553 ] ] ] } },
{ "type": "Feature", "properties": { "TYPEPIPE": "Interstate", "Operator": "Questar Pipeline Co", "Status": "Operating", "Shape_Leng": 0.05221, "STATEFP": "49", "STATENS": "01455989", "AFFGEOID": "0400000US49", "GEOID": "49", "STUSPS": "UT", "NAME": "Utah", "LSAD": "00", "ALAND": 212886221680, "AWATER": 6998824394 }, "geometry": { "type": "MultiLineString", "coordinates": [ [ [ -111.065931, 41.01999 ], [ -111.118141, 41.01999 ] ] ] } },
{ "type": "Feature", "properties": { "TYPEPIPE": "Interstate", "Operator": "Questar Pipeline Co", "Status": "Operating", "Shape_Leng": 0.11124922501, "STATEFP": "49", "STATENS": "01455989", "AFFGEOID": "0400000US49", "GEOID": "49", "STUSPS": "UT", "NAME": "Utah", "LSAD": "00", "ALAND": 212886221680, "AWATER": 6998824394 }, "geometry": { "type": "MultiLineString", "coordinates": [ [ [ -111.156819, 41.447553 ], [ -111.046263476522057, 41.445784867130001 ] ] ] } },
{ "type": "Feature", "properties": { "TYPEPIPE": "Interstate", "Operator": "Questar Pipeline Co", "Status": "Operating", "Shape_Leng": 0.03682236065, "STATEFP": "49", "STATENS": "01455989", "AFFGEOID": "0400000US49", "GEOID": "49", "STUSPS": "UT", "NAME": "Utah", "LSAD": "00", "ALAND": 212886221680, "AWATER": 6998824394 }, "geometry": { "type": "MultiLineString", "coordinates": [ [ [ -111.17244, 39.677923 ], [ -111.199128, 39.652553 ] ] ] } },
{ "type": "Feature", "properties": { "TYPEPIPE": "Interstate", "Operator": "Questar Pipeline Co", "Status": "Operating", "Shape_Leng": 0.90379778635999997, "STATEFP": "49", "STATENS": "01455989", "AFFGEOID": "0400000US49", "GEOID": "49", "STUSPS": "UT", "NAME": "Utah", "LSAD": "00", "ALAND": 212886221680, "AWATER": 6998824394 }, "geometry": { "type": "MultiLineString", "coordinates": [ [ [ -111.720867, 39.997292 ], [ -111.712182, 39.966838 ], [ -111.652625, 39.919255 ], [ -111.617884, 39.895464 ], [ -111.580661, 39.893561 ], [ -111.549642, 39.891657 ], [ -111.527177, 39.879279 ], [ -111.498771, 39.837678 ], [ -111.469614, 39.824319 ], [ -111.442937, 39.818116 ], [ -111.413963, 39.814537 ], [ -111.305213, 39.751318 ], [ -111.249853, 39.726476 ], [ -111.2469, 39.7043 ], [ -111.205952, 39.651599 ], [ -111.199128, 39.652553 ], [ -111.184134, 39.650073 ], [ -111.153728, 39.642891 ], [ -111.096425, 39.662679 ], [ -111.078883, 39.655476 ], [ -110.966615, 39.655476 ] ] ] } },
{ "type": "Feature", "properties": { "TYPEPIPE": "Interstate", "Operator": "Questar Pipeline Co", "Status": "Operating", "Shape_Leng": 0.24083054989, "STATEFP": "49", "STATENS": "01455989", "AFFGEOID": "0400000US49", "GEOID": "49", "STUSPS": "UT", "NAME": "Utah", "LSAD": "00", "ALAND": 212886221680, "AWATER": 6998824394 }, "geometry": { "type": "MultiLineString", "coordinates": [ [ [ -111.956136, 39.95788 ], [ -111.867969, 39.988841 ], [ -111.815314, 39.993532 ], [ -111.720867, 39.997292 ] ] ] } },
{ "type": "Feature", "properties": { "TYPEPIPE": "Interstate", "Operator": "Questar Pipeline Co", "Status": "Operating", "Shape_Leng": 0.10657835386, "STATEFP": "49", "STATENS": "01455989", "AFFGEOID": "0400000US49", "GEOID": "49", "STUSPS": "UT", "NAME": "Utah", "LSAD": "00", "ALAND": 212886221680, "AWATER": 6998824394 }, "geometry": { "type": "MultiLineString", "coordinates": [ [ [ -110.629561, 39.683223 ], [ -110.626453, 39.699067 ], [ -110.61152, 39.711699 ], [ -110.589121, 39.727776 ], [ -110.571202, 39.742704 ], [ -110.564321, 39.761461 ] ] ] } },
{ "type": "Feature", "properties": { "TYPEPIPE": "Interstate", "Operator": "Questar Pipeline Co", "Status": "Operating", "Shape_Leng": 0.63652201483000004, "STATEFP": "49", "STATENS": "01455989", "AFFGEOID": "0400000US49", "GEOID": "49", "STUSPS": "UT", "NAME": "Utah", "LSAD": "00", "ALAND": 212886221680, "AWATER": 6998824394 }, "geometry": { "type": "MultiLineString", "coordinates": [ [ [ -111.372924, 40.921901 ], [ -111.378589, 40.948659 ], [ -111.404083, 40.965784 ], [ -111.426744, 40.971135 ], [ -111.446573, 40.966854 ], [ -111.514556, 41.0193 ], [ -111.532968, 41.023581 ], [ -111.551381, 41.02144 ], [ -111.571209, 41.013948 ], [ -111.623613, 41.046057 ], [ -111.668936, 41.05355 ], [ -111.697262, 41.066394 ], [ -111.735503, 41.096362 ], [ -111.758164, 41.12098 ], [ -111.770911, 41.125261 ], [ -111.773744, 41.134894 ], [ -111.845816, 41.143457 ], [ -111.919597, 41.143457 ] ] ] } },
{ "type": "Feature", "properties": { "TYPEPIPE": "Interstate", "Operator": "Questar Pipeline Co", "Status": "Operating", "Shape_Leng": 0.57448777583, "STATEFP": "49", "STATENS": "01455989", "AFFGEOID": "0400000US49", "GEOID": "49", "STUSPS": "UT", "NAME": "Utah", "LSAD": "00", "ALAND": 212886221680, "AWATER": 6998824394 }, "geometry": { "type": "MultiLineString", "coordinates": [ [ [ -111.372924, 40.921901 ], [ -111.442324, 40.931533 ], [ -111.493312, 40.931533 ], [ -111.544299, 40.937955 ], [ -111.659022, 40.944377 ], [ -111.715675, 40.928323 ], [ -111.731254, 40.916549 ], [ -111.745417, 40.897283 ], [ -111.772328, 40.887651 ], [ -111.806319, 40.882299 ], [ -111.837479, 40.88551 ], [ -111.84456, 40.900494 ], [ -111.918209, 40.906916 ] ] ] } },
{ "type": "Feature", "properties": { "TYPEPIPE": "Interstate", "Operator": "Questar Pipeline Co", "Status": "Operating", "Shape_Leng": 0.51642434919000002, "STATEFP": "49", "STATENS": "01455989", "AFFGEOID": "0400000US49", "GEOID": "49", "STUSPS": "UT", "NAME": "Utah", "LSAD": "00", "ALAND": 212886221680, "AWATER": 6998824394 }, "geometry": { "type": "MultiLineString", "coordinates": [ [ [ -111.372924, 40.921901 ], [ -111.377173, 40.897287 ], [ -111.412581, 40.894075 ], [ -111.415414, 40.880155 ], [ -111.418246, 40.852316 ], [ -111.421079, 40.824477 ], [ -111.425328, 40.807345 ], [ -111.44374, 40.796638 ], [ -111.469234, 40.782718 ], [ -111.479148, 40.772011 ], [ -111.493312, 40.753809 ], [ -111.491895, 40.731323 ], [ -111.511724, 40.728111 ], [ -111.525887, 40.736677 ], [ -111.537218, 40.753809 ], [ -111.551381, 40.761304 ], [ -111.579707, 40.757021 ], [ -111.595287, 40.753809 ], [ -111.608034, 40.746313 ], [ -111.622197, 40.743101 ], [ -111.63636, 40.746313 ], [ -111.642026, 40.75595 ], [ -111.646275, 40.762374 ], [ -111.659022, 40.765587 ], [ -111.687348, 40.768799 ], [ -111.707177, 40.774153 ], [ -111.718507, 40.783789 ] ] ] } },
{ "type": "Feature", "properties": { "TYPEPIPE": "Interstate", "Operator": "Questar Pipeline Co", "Status": "Operating", "Shape_Leng": 0.18478688552, "STATEFP": "49", "STATENS": "01455989", "AFFGEOID": "0400000US49", "GEOID": "49", "STUSPS": "UT", "NAME": "Utah", "LSAD": "00", "ALAND": 212886221680, "AWATER": 6998824394 }, "geometry": { "type": "MultiLineString", "coordinates": [ [ [ -111.894437, 39.822341 ], [ -111.91317, 39.80732 ], [ -111.933221, 39.828479 ], [ -111.951968, 39.914228 ], [ -111.956136, 39.95788 ] ] ] } },
{ "type": "Feature", "properties": { "TYPEPIPE": "Interstate", "Operator": "Wyoming Interstate PL Co", "Status": "Operating", "Shape_Leng": 0.12462687946000001, "STATEFP": "49", "STATENS": "01455989", "AFFGEOID": "0400000US49", "GEOID": "49", "STUSPS": "UT", "NAME": "Utah", "LSAD": "00", "ALAND": 212886221680, "AWATER": 6998824394 }, "geometry": { "type": "MultiLineString", "coordinates": [ [ [ -109.231919, 41.000723 ], [ -109.232001600359368, 41.000976324295991 ] ] ] } },
{ "type": "Feature", "properties": { "TYPEPIPE": "Interstate", "Operator": "Wyoming Interstate PL Co", "Status": "Operating", "Shape_Leng": 1.2242988822600001, "STATEFP": "49", "STATENS": "01455989", "AFFGEOID": "0400000US49", "GEOID": "49", "STUSPS": "UT", "NAME": "Utah", "LSAD": "00", "ALAND": 212886221680, "AWATER": 6998824394 }, "geometry": { "type": "MultiLineString", "coordinates": [ [ [ -109.231490065469075, 41.000975432051803 ], [ -109.206141, 40.971709 ], [ -109.183586, 40.906426 ], [ -109.170694, 40.826636 ], [ -109.177142, 40.78795 ], [ -109.215809, 40.727503 ], [ -109.228696, 40.683981 ], [ -109.26414, 40.667055 ], [ -109.284897, 40.639781 ], [ -109.302806, 40.601773 ], [ -109.30925, 40.531654 ], [ -109.322138, 40.461535 ], [ -109.328582, 40.41076 ], [ -109.32536, 40.343059 ], [ -109.344694, 40.219747 ], [ -109.405914, 40.053919 ], [ -109.492912, 39.988652 ], [ -109.57991, 39.962061 ] ] ] } },
{ "type": "Feature", "properties": { "TYPEPIPE": "Interstate", "Operator": "Ruby Pipeline LLC", "Status": "Operating", "Shape_Leng": 6.4815094466199996, "STATEFP": "49", "STATENS": "01455989", "AFFGEOID": "0400000US49", "GEOID": "49", "STUSPS": "UT", "NAME": "Utah", "LSAD": "00", "ALAND": 212886221680, "AWATER": 6998824394 }, "geometry": { "type": "MultiLineString", "coordinates": [ [ [ -114.040401753758786, 41.451893463819268 ], [ -114.037918, 41.452525 ] ] ] } },
{ "type": "Feature", "properties": { "TYPEPIPE": "Interstate", "Operator": "Ruby Pipeline LLC", "Status": "Operating", "Shape_Leng": 3.2896397236400001, "STATEFP": "49", "STATENS": "01455989", "AFFGEOID": "0400000US49", "GEOID": "49", "STUSPS": "UT", "NAME": "Utah", "LSAD": "00", "ALAND": 212886221680, "AWATER": 6998824394 }, "geometry": { "type": "MultiLineString", "coordinates": [ [ [ -114.037918, 41.452525 ], [ -113.933054, 41.427533 ], [ -113.70371, 41.422537 ], [ -113.631646, 41.492517 ], [ -113.585758, 41.627481 ], [ -113.26467, 41.657473 ], [ -113.218814, 41.667469 ], [ -113.146718, 41.762441 ], [ -112.648734, 41.762441 ], [ -112.56355, 41.727453 ], [ -112.380062, 41.707457 ], [ -112.347294, 41.637477 ], [ -112.249022, 41.587489 ], [ -112.144158, 41.552501 ], [ -112.026206, 41.562497 ], [ -111.809982, 41.497513 ], [ -111.711678, 41.527505 ], [ -111.56099, 41.467521 ], [ -111.285758, 41.492517 ], [ -111.082622, 41.537505 ], [ -111.045858562162763, 41.548023231170284 ] ] ] } },
{ "type": "Feature", "properties": { "TYPEPIPE": "Interstate", "Operator": "Questar Pipeline Co", "Status": "Operating", "Shape_Leng": 0.26202346161000001, "STATEFP": "49", "STATENS": "01455989", "AFFGEOID": "0400000US49", "GEOID": "49", "STUSPS": "UT", "NAME": "Utah", "LSAD": "00", "ALAND": 212886221680, "AWATER": 6998824394 }, "geometry": { "type": "MultiLineString", "coordinates": [ [ [ -109.660783, 39.975672 ], [ -109.602529, 39.997381 ], [ -109.507812, 40.017444 ], [ -109.444298, 40.024675 ], [ -109.405725, 40.031152 ] ] ] } },
{ "type": "Feature", "properties": { "TYPEPIPE": "Interstate", "Operator": "Questar Pipeline Co", "Status": "Operating", "Shape_Leng": 0.36947463344999998, "STATEFP": "49", "STATENS": "01455989", "AFFGEOID": "0400000US49", "GEOID": "49", "STUSPS": "UT", "NAME": "Utah", "LSAD": "00", "ALAND": 212886221680, "AWATER": 6998824394 }, "geometry": { "type": "MultiLineString", "coordinates": [ [ [ -109.405725, 40.031152 ], [ -109.405977, 40.093543 ], [ -109.390229, 40.128465 ], [ -109.349283, 40.160979 ], [ -109.297822, 40.199351 ], [ -109.217792, 40.226816 ], [ -109.161876, 40.188675 ] ] ] } },
{ "type": "Feature", "properties": { "TYPEPIPE": "Interstate", "Operator": "Questar Pipeline Co", "Status": "Operating", "Shape_Leng": 0.37307294620999998, "STATEFP": "49", "STATENS": "01455989", "AFFGEOID": "0400000US49", "GEOID": "49", "STUSPS": "UT", "NAME": "Utah", "LSAD": "00", "ALAND": 212886221680, "AWATER": 6998824394 }, "geometry": { "type": "MultiLineString", "coordinates": [ [ [ -109.405725, 40.031152 ], [ -109.368181, 40.018883 ], [ -109.32566, 40.008045 ], [ -109.209121, 39.994799 ], [ -109.148918, 39.982628 ], [ -109.050682206638669, 39.932496618638716 ] ] ] } },
{ "type": "Feature", "properties": { "TYPEPIPE": "Interstate", "Operator": "Questar Pipeline Co", "Status": "Operating", "Shape_Leng": 0.33971534024, "STATEFP": "49", "STATENS": "01455989", "AFFGEOID": "0400000US49", "GEOID": "49", "STUSPS": "UT", "NAME": "Utah", "LSAD": "00", "ALAND": 212886221680, "AWATER": 6998824394 }, "geometry": { "type": "MultiLineString", "coordinates": [ [ [ -110.35772862016978, 40.996674754797581 ], [ -110.357442, 40.99538 ] ] ] } },
{ "type": "Feature", "properties": { "TYPEPIPE": "Interstate", "Operator": "Questar Pipeline Co", "Status": "Operating", "Shape_Leng": 0.10810301447, "STATEFP": "49", "STATENS": "01455989", "AFFGEOID": "0400000US49", "GEOID": "49", "STUSPS": "UT", "NAME": "Utah", "LSAD": "00", "ALAND": 212886221680, "AWATER": 6998824394 }, "geometry": { "type": "MultiLineString", "coordinates": [ [ [ -111.156819, 41.447553 ], [ -111.163392, 41.555456 ] ] ] } },
{ "type": "Feature", "properties": { "TYPEPIPE": "Interstate", "Operator": "Questar Pipeline Co", "Status": "Operating", "Shape_Leng": 0.27280376678000001, "STATEFP": "49", "STATENS": "01455989", "AFFGEOID": "0400000US49", "GEOID": "49", "STUSPS": "UT", "NAME": "Utah", "LSAD": "00", "ALAND": 212886221680, "AWATER": 6998824394 }, "geometry": { "type": "MultiLineString", "coordinates": [ [ [ -111.163392, 41.555456 ], [ -111.435264, 41.577984 ] ] ] } },
{ "type": "Feature", "properties": { "TYPEPIPE": "Interstate", "Operator": "Questar Pipeline Co", "Status": "Operating", "Shape_Leng": 0.113923164, "STATEFP": "49", "STATENS": "01455989", "AFFGEOID": "0400000US49", "GEOID": "49", "STUSPS": "UT", "NAME": "Utah", "LSAD": "00", "ALAND": 212886221680, "AWATER": 6998824394 }, "geometry": { "type": "MultiLineString", "coordinates": [ [ [ -111.435264, 41.577984 ], [ -111.548928, 41.585664 ] ] ] } },
{ "type": "Feature", "properties": { "TYPEPIPE": "Interstate", "Operator": "Questar Pipeline Co", "Status": "Operating", "Shape_Leng": 0.09983474858, "STATEFP": "49", "STATENS": "01455989", "AFFGEOID": "0400000US49", "GEOID": "49", "STUSPS": "UT", "NAME": "Utah", "LSAD": "00", "ALAND": 212886221680, "AWATER": 6998824394 }, "geometry": { "type": "MultiLineString", "coordinates": [ [ [ -111.548928, 41.585664 ], [ -111.59296, 41.675264 ] ] ] } },
{ "type": "Feature", "properties": { "TYPEPIPE": "Interstate", "Operator": "Questar Pipeline Co", "Status": "Operating", "Shape_Leng": 0.3119280614, "STATEFP": "49", "STATENS": "01455989", "AFFGEOID": "0400000US49", "GEOID": "49", "STUSPS": "UT", "NAME": "Utah", "LSAD": "00", "ALAND": 212886221680, "AWATER": 6998824394 }, "geometry": { "type": "MultiLineString", "coordinates": [ [ [ -111.163392, 41.555456 ], [ -111.092233, 41.859159 ] ] ] } },
{ "type": "Feature", "properties": { "TYPEPIPE": "Interstate", "Operator": "Questar Pipeline Co", "Status": "Operating", "Shape_Leng": 0.11790523045, "STATEFP": "49", "STATENS": "01455989", "AFFGEOID": "0400000US49", "GEOID": "49", "STUSPS": "UT", "NAME": "Utah", "LSAD": "00", "ALAND": 212886221680, "AWATER": 6998824394 }, "geometry": { "type": "MultiLineString", "coordinates": [ [ [ -111.092719, 41.858072 ], [ -111.210461, 41.864274 ] ] ] } },
{ "type": "Feature", "properties": { "TYPEPIPE": "Interstate", "Operator": "Questar Pipeline Co", "Status": "Operating", "Shape_Leng": 0.09065456642, "STATEFP": "49", "STATENS": "01455989", "AFFGEOID": "0400000US49", "GEOID": "49", "STUSPS": "UT", "NAME": "Utah", "LSAD": "00", "ALAND": 212886221680, "AWATER": 6998824394 }, "geometry": { "type": "MultiLineString", "coordinates": [ [ [ -111.046654168036454, 41.201026209889157 ], [ -111.063197, 41.18363 ] ] ] } },
{ "type": "Feature", "properties": { "TYPEPIPE": "Interstate", "Operator": "Questar Pipeline Co", "Status": "Operating", "Shape_Leng": 0.03820628181, "STATEFP": "49", "STATENS": "01455989", "AFFGEOID": "0400000US49", "GEOID": "49", "STUSPS": "UT", "NAME": "Utah", "LSAD": "00", "ALAND": 212886221680, "AWATER": 6998824394 }, "geometry": { "type": "MultiLineString", "coordinates": [ [ [ -111.063197, 41.18363 ], [ -111.070338, 41.146097 ] ] ] } },
{ "type": "Feature", "properties": { "TYPEPIPE": "Interstate", "Operator": "Questar Pipeline Co", "Status": "Operating", "Shape_Leng": 0.14660415154000001, "STATEFP": "49", "STATENS": "01455989", "AFFGEOID": "0400000US49", "GEOID": "49", "STUSPS": "UT", "NAME": "Utah", "LSAD": "00", "ALAND": 212886221680, "AWATER": 6998824394 }, "geometry": { "type": "MultiLineString", "coordinates": [ [ [ -111.070338, 41.146097 ], [ -111.068872, 41.114787 ], [ -111.06728, 41.066399 ], [ -111.066486, 41.039261 ], [ -111.065931, 41.01999 ], [ -111.06529, 40.999583 ] ] ] } },
{ "type": "Feature", "properties": { "TYPEPIPE": "Interstate", "Operator": "Questar Pipeline Co", "Status": "Operating", "Shape_Leng": 0.12979853331, "STATEFP": "49", "STATENS": "01455989", "AFFGEOID": "0400000US49", "GEOID": "49", "STUSPS": "UT", "NAME": "Utah", "LSAD": "00", "ALAND": 212886221680, "AWATER": 6998824394 }, "geometry": { "type": "MultiLineString", "coordinates": [ [ [ -111.247519, 40.955386 ], [ -111.372924, 40.921901 ] ] ] } },
{ "type": "Feature", "properties": { "TYPEPIPE": "Interstate", "Operator": "Questar Pipeline Co", "Status": "Operating", "Shape_Leng": 0.25438981615, "STATEFP": "49", "STATENS": "01455989", "AFFGEOID": "0400000US49", "GEOID": "49", "STUSPS": "UT", "NAME": "Utah", "LSAD": "00", "ALAND": 212886221680, "AWATER": 6998824394 }, "geometry": { "type": "MultiLineString", "coordinates": [ [ [ -111.59296, 41.675264 ], [ -111.838208, 41.742848 ] ] ] } },
{ "type": "Feature", "properties": { "TYPEPIPE": "Interstate", "Operator": "Questar Pipeline Co", "Status": "Operating", "Shape_Leng": 0.02660790289, "STATEFP": "49", "STATENS": "01455989", "AFFGEOID": "0400000US49", "GEOID": "49", "STUSPS": "UT", "NAME": "Utah", "LSAD": "00", "ALAND": 212886221680, "AWATER": 6998824394 }, "geometry": { "type": "MultiLineString", "coordinates": [ [ [ -110.966615, 39.655476 ], [ -110.957416, 39.649818 ], [ -110.943951, 39.641536 ] ] ] } },
{ "type": "Feature", "properties": { "TYPEPIPE": "Interstate", "Operator": "Questar Pipeline Co", "Status": "Operating", "Shape_Leng": 0.05780992491, "STATEFP": "49", "STATENS": "01455989", "AFFGEOID": "0400000US49", "GEOID": "49", "STUSPS": "UT", "NAME": "Utah", "LSAD": "00", "ALAND": 212886221680, "AWATER": 6998824394 }, "geometry": { "type": "MultiLineString", "coordinates": [ [ [ -110.943951, 39.641536 ], [ -110.948002, 39.622003 ], [ -110.95792, 39.617228 ], [ -110.960399, 39.590489 ] ] ] } },
{ "type": "Feature", "properties": { "TYPEPIPE": "Interstate", "Operator": "Questar Pipeline Co", "Status": "Operating", "Shape_Leng": 0.06737577802, "STATEFP": "49", "STATENS": "01455989", "AFFGEOID": "0400000US49", "GEOID": "49", "STUSPS": "UT", "NAME": "Utah", "LSAD": "00", "ALAND": 212886221680, "AWATER": 6998824394 }, "geometry": { "type": "MultiLineString", "coordinates": [ [ [ -110.86118, 39.621126 ], [ -110.867421, 39.590489 ], [ -110.87486, 39.555154 ] ] ] } },
{ "type": "Feature", "properties": { "TYPEPIPE": "Interstate", "Operator": "Questar Pipeline Co", "Status": "Operating", "Shape_Leng": 0.56753363839000004, "STATEFP": "49", "STATENS": "01455989", "AFFGEOID": "0400000US49", "GEOID": "49", "STUSPS": "UT", "NAME": "Utah", "LSAD": "00", "ALAND": 212886221680, "AWATER": 6998824394 }, "geometry": { "type": "MultiLineString", "coordinates": [ [ [ -110.87486, 39.555154 ], [ -110.887716, 39.424009 ], [ -110.964, 39.3267 ], [ -111.056684, 39.206819 ], [ -111.073213, 39.186946 ], [ -111.102599, 39.175589 ], [ -111.120965, 39.152877 ], [ -111.126475, 39.079061 ] ] ] } },
{ "type": "Feature", "properties": { "TYPEPIPE": "Interstate", "Operator": "Questar Pipeline Co", "Status": "Operating", "Shape_Leng": 0.32730848669000001, "STATEFP": "49", "STATENS": "01455989", "AFFGEOID": "0400000US49", "GEOID": "49", "STUSPS": "UT", "NAME": "Utah", "LSAD": "00", "ALAND": 212886221680, "AWATER": 6998824394 }, "geometry": { "type": "MultiLineString", "coordinates": [ [ [ -110.943951, 39.641536 ], [ -110.86118, 39.621126 ], [ -110.765468, 39.630315 ], [ -110.719896, 39.645878 ], [ -110.629561, 39.683223 ] ] ] } },
{ "type": "Feature", "properties": { "TYPEPIPE": "Interstate", "Operator": "Questar Pipeline Co", "Status": "Operating", "Shape_Leng": 0.36540799212000002, "STATEFP": "49", "STATENS": "01455989", "AFFGEOID": "0400000US49", "GEOID": "49", "STUSPS": "UT", "NAME": "Utah", "LSAD": "00", "ALAND": 212886221680, "AWATER": 6998824394 }, "geometry": { "type": "MultiLineString", "coordinates": [ [ [ -110.564321, 39.761461 ], [ -110.552626, 39.776731 ], [ -110.412584, 39.78549 ], [ -110.287238, 39.800588 ], [ -110.253966, 39.811224 ], [ -110.213679, 39.830534 ] ] ] } },
{ "type": "Feature", "properties": { "TYPEPIPE": "Interstate", "Operator": "Questar Pipeline Co", "Status": "Operating", "Shape_Leng": 0.14407491098, "STATEFP": "49", "STATENS": "01455989", "AFFGEOID": "0400000US49", "GEOID": "49", "STUSPS": "UT", "NAME": "Utah", "LSAD": "00", "ALAND": 212886221680, "AWATER": 6998824394 }, "geometry": { "type": "MultiLineString", "coordinates": [ [ [ -110.213679, 39.830534 ], [ -110.085632, 39.896576 ] ] ] } },
{ "type": "Feature", "properties": { "TYPEPIPE": "Interstate", "Operator": "Questar Pipeline Co", "Status": "Operating", "Shape_Leng": 0.09797430146, "STATEFP": "49", "STATENS": "01455989", "AFFGEOID": "0400000US49", "GEOID": "49", "STUSPS": "UT", "NAME": "Utah", "LSAD": "00", "ALAND": 212886221680, "AWATER": 6998824394 }, "geometry": { "type": "MultiLineString", "coordinates": [ [ [ -110.085632, 39.896576 ], [ -110.049668, 39.902099 ], [ -110.037072, 39.911748 ], [ -109.991414, 39.909336 ] ] ] } },
{ "type": "Feature", "properties": { "TYPEPIPE": "Interstate", "Operator": "Questar Pipeline Co", "Status": "Operating", "Shape_Leng": 0.19580752893, "STATEFP": "49", "STATENS": "01455989", "AFFGEOID": "0400000US49", "GEOID": "49", "STUSPS": "UT", "NAME": "Utah", "LSAD": "00", "ALAND": 212886221680, "AWATER": 6998824394 }, "geometry": { "type": "MultiLineString", "coordinates": [ [ [ -110.065516, 40.194823 ], [ -110.047961, 40.389842 ] ] ] } },
{ "type": "Feature", "properties": { "TYPEPIPE": "Interstate", "Operator": "Questar Pipeline Co", "Status": "Operating", "Shape_Leng": 0.09233163136, "STATEFP": "49", "STATENS": "01455989", "AFFGEOID": "0400000US49", "GEOID": "49", "STUSPS": "UT", "NAME": "Utah", "LSAD": "00", "ALAND": 212886221680, "AWATER": 6998824394 }, "geometry": { "type": "MultiLineString", "coordinates": [ [ [ -109.991414, 39.909336 ], [ -109.901671, 39.931046 ] ] ] } }
]
}
