{
"type": "FeatureCollection",
"name": "natural_gas_pipelines_or",
"crs": { "type": "name", "properties": { "name": "urn:ogc:def:crs:OGC:1.3:CRS84" } },
"features": [
{ "type": "Feature", "properties": { "TYPEPIPE": "Intrastate", "Operator": "Coos County Pipeline", "Status": "Operating", "Shape_Leng": 0.9840722982, "STATEFP": "41", "STATENS": "01155107", "AFFGEOID": "0400000US41", "GEOID": "41", "STUSPS": "OR", "NAME": "Oregon", "LSAD": "00", "ALAND": 248606993270, "AWATER": 6192386935 }, "geometry": { "type": "MultiLineString", "coordinates": [ [ [ -123.403714, 43.173395 ], [ -123.544996, 43.17909 ], [ -123.552935, 43.180747 ], [ -123.563747, 43.17774 ], [ -123.603926, 43.153039 ], [ -123.611479, 43.141774 ], [ -123.628272, 43.132179 ], [ -123.678735, 43.135096 ], [ -123.683866, 43.139473 ], [ -123.697943, 43.139618 ], [ -123.700804, 43.141476 ], [ -123.703085, 43.144769 ], [ -123.708239, 43.14566 ], [ -123.709864, 43.14662 ], [ -123.717794, 43.140054 ], [ -123.722603, 43.138475 ], [ -123.725163, 43.137376 ], [ -123.727233, 43.138822 ], [ -123.728319, 43.14044 ], [ -123.730443, 43.141331 ], [ -123.731944, 43.143801 ], [ -123.735224, 43.14412 ], [ -123.737566, 43.143478 ], [ -123.749155, 43.145302 ], [ -123.753312, 43.144458 ], [ -123.764587, 43.14547 ], [ -123.767896, 43.147598 ], [ -123.769363, 43.148536 ], [ -123.771518, 43.149612 ], [ -123.776579, 43.147876 ], [ -123.778516, 43.147648 ], [ -123.779391, 43.146458 ], [ -123.782703, 43.144927 ], [ -123.78392, 43.145934 ], [ -123.785763, 43.146391 ], [ -123.785793, 43.147947 ], [ -123.787605, 43.147879 ], [ -123.78926, 43.148062 ], [ -123.791291, 43.147559 ], [ -123.792977, 43.147971 ], [ -123.793197, 43.144838 ], [ -123.796758, 43.144975 ], [ -123.798194, 43.146051 ], [ -123.800724, 43.146485 ], [ -123.803316, 43.147927 ], [ -123.807127, 43.148521 ], [ -123.81058, 43.152097 ], [ -123.81378, 43.151724 ], [ -123.816154, 43.152821 ], [ -123.820652, 43.150465 ], [ -123.824744, 43.150945 ], [ -123.826993, 43.150671 ], [ -123.828399, 43.151585 ], [ -123.832116, 43.152454 ], [ -123.834458, 43.150532 ], [ -123.836926, 43.150669 ], [ -123.840081, 43.151446 ], [ -123.843392, 43.150896 ], [ -123.846421, 43.149706 ], [ -123.850012, 43.147166 ], [ -123.851074, 43.146891 ], [ -123.854229, 43.148034 ], [ -123.858165, 43.148261 ], [ -123.859383, 43.148077 ], [ -123.861038, 43.147002 ], [ -123.866753, 43.146633 ], [ -123.869346, 43.147318 ], [ -123.869754, 43.148667 ], [ -123.871097, 43.148666 ], [ -123.872657, 43.147614 ], [ -123.873532, 43.147979 ], [ -123.876186, 43.1475 ], [ -123.877302, 43.145932 ], [ -123.878593, 43.1459 ], [ -123.879842, 43.145878 ], [ -123.881778, 43.146679 ], [ -123.882589, 43.147366 ], [ -123.883558, 43.147503 ], [ -123.884775, 43.148167 ], [ -123.887024, 43.148328 ], [ -123.88896, 43.149107 ], [ -123.890803, 43.148856 ], [ -123.892522, 43.147919 ], [ -123.89733, 43.150825 ], [ -123.899298, 43.150849 ], [ -123.900391, 43.150643 ], [ -123.901391, 43.150758 ], [ -123.904138, 43.152337 ], [ -123.908753, 43.154741 ], [ -123.91204, 43.154466 ], [ -123.913945, 43.155839 ], [ -123.913913, 43.158057 ], [ -123.916693, 43.160779 ], [ -123.917849, 43.161511 ], [ -123.919598, 43.162038 ], [ -123.923284, 43.162587 ], [ -123.924253, 43.162313 ], [ -123.925003, 43.161261 ], [ -123.926253, 43.158379 ], [ -123.926847, 43.158059 ], [ -123.930783, 43.157305 ], [ -123.932314, 43.158128 ], [ -123.933188, 43.158997 ], [ -123.938218, 43.160964 ], [ -123.944154, 43.159935 ], [ -123.948183, 43.157007 ], [ -123.958304, 43.156319 ], [ -123.961139, 43.157768 ], [ -123.963966, 43.158107 ], [ -123.967519, 43.156379 ], [ -123.971665, 43.156811 ], [ -123.974626, 43.16041 ], [ -123.981573, 43.163091 ], [ -123.987458, 43.165665 ], [ -123.993084, 43.165305 ], [ -123.999697, 43.169264 ], [ -124.011534, 43.175385 ], [ -124.014009, 43.178156 ], [ -124.016576, 43.180244 ], [ -124.021116, 43.182331 ], [ -124.02295, 43.184359 ], [ -124.03736, 43.185476 ], [ -124.060246, 43.20684 ], [ -124.073881, 43.213475 ], [ -124.086369, 43.219555 ], [ -124.11006, 43.222536 ], [ -124.149245, 43.245662 ], [ -124.164905, 43.271036 ], [ -124.163289, 43.276532 ], [ -124.168246, 43.280083 ], [ -124.168898, 43.291841 ], [ -124.171345, 43.291568 ], [ -124.173397, 43.292734 ], [ -124.177011, 43.292963 ], [ -124.174256, 43.294015 ], [ -124.174475, 43.294587 ], [ -124.180925, 43.293032 ], [ -124.188345, 43.294588 ], [ -124.191319, 43.293307 ], [ -124.195013, 43.29365 ], [ -124.203983, 43.296393 ], [ -124.215829, 43.297011 ], [ -124.216087, 43.299755 ], [ -124.227243, 43.322822 ], [ -124.23389, 43.325844 ], [ -124.233708, 43.339474 ] ] ] } },
{ "type": "Feature", "properties": { "TYPEPIPE": "Intrastate", "Operator": "Coos County Pipeline", "Status": "Operating", "Shape_Leng": 0.12888547912000001, "STATEFP": "41", "STATENS": "01155107", "AFFGEOID": "0400000US41", "GEOID": "41", "STUSPS": "OR", "NAME": "Oregon", "LSAD": "00", "ALAND": 248606993270, "AWATER": 6192386935 }, "geometry": { "type": "MultiLineString", "coordinates": [ [ [ -124.171976, 43.142079 ], [ -124.116266, 43.161318 ], [ -124.107476, 43.172328 ], [ -124.082001, 43.212652 ], [ -124.073881, 43.213475 ] ] ] } },
{ "type": "Feature", "properties": { "TYPEPIPE": "Intrastate", "Operator": "Coos County Pipeline", "Status": "Operating", "Shape_Leng": 0.23798824814, "STATEFP": "41", "STATENS": "01155107", "AFFGEOID": "0400000US41", "GEOID": "41", "STUSPS": "OR", "NAME": "Oregon", "LSAD": "00", "ALAND": 248606993270, "AWATER": 6192386935 }, "geometry": { "type": "MultiLineString", "coordinates": [ [ [ -124.396109, 43.114457 ], [ -124.359319, 43.102645 ], [ -124.332788, 43.104961 ], [ -124.302286, 43.095359 ], [ -124.269381, 43.098069 ], [ -124.231374, 43.111889 ], [ -124.198028, 43.133978 ], [ -124.171976, 43.142079 ] ] ] } },
{ "type": "Feature", "properties": { "TYPEPIPE": "Intrastate", "Operator": "Coos County Pipeline", "Status": "Operating", "Shape_Leng": 0.08705807683, "STATEFP": "41", "STATENS": "01155107", "AFFGEOID": "0400000US41", "GEOID": "41", "STUSPS": "OR", "NAME": "Oregon", "LSAD": "00", "ALAND": 248606993270, "AWATER": 6192386935 }, "geometry": { "type": "MultiLineString", "coordinates": [ [ [ -124.171976, 43.142079 ], [ -124.159409, 43.107334 ], [ -124.123837, 43.07204 ] ] ] } },
{ "type": "Feature", "properties": { "TYPEPIPE": "Intrastate", "Operator": "Coos County Pipeline", "Status": "Operating", "Shape_Leng": 0.03503387625, "STATEFP": "41", "STATENS": "01155107", "AFFGEOID": "0400000US41", "GEOID": "41", "STUSPS": "OR", "NAME": "Oregon", "LSAD": "00", "ALAND": 248606993270, "AWATER": 6192386935 }, "geometry": { "type": "MultiLineString", "coordinates": [ [ [ -124.183942, 43.175006 ], [ -124.171976, 43.142079 ] ] ] } },
{ "type": "Feature", "properties": { "TYPEPIPE": "Interstate", "Operator": "Northwest Pipeline", "Status": "Operating", "Shape_Leng": 0.26401114912000001, "STATEFP": "41", "STATENS": "01155107", "AFFGEOID": "0400000US41", "GEOID": "41", "STUSPS": "OR", "NAME": "Oregon", "LSAD": "00", "ALAND": 248606993270, "AWATER": 6192386935 }, "geometry": { "type": "MultiLineString", "coordinates": [ [ [ -121.686927, 42.206308 ], [ -121.657167, 42.212397 ], [ -121.576096, 42.211636 ], [ -121.51126, 42.189778 ], [ -121.48579, 42.181191 ], [ -121.429605, 42.192235 ] ] ] } },
{ "type": "Feature", "properties": { "TYPEPIPE": "Interstate", "Operator": "Northwest Pipeline", "Status": "Operating", "Shape_Leng": 0.10603801373000001, "STATEFP": "41", "STATENS": "01155107", "AFFGEOID": "0400000US41", "GEOID": "41", "STUSPS": "OR", "NAME": "Oregon", "LSAD": "00", "ALAND": 248606993270, "AWATER": 6192386935 }, "geometry": { "type": "MultiLineString", "coordinates": [ [ [ -117.343302, 44.488218 ], [ -117.288868, 44.397218 ] ] ] } },
{ "type": "Feature", "properties": { "TYPEPIPE": "Interstate", "Operator": "Northwest Pipeline", "Status": "Operating", "Shape_Leng": 0.56512497071000001, "STATEFP": "41", "STATENS": "01155107", "AFFGEOID": "0400000US41", "GEOID": "41", "STUSPS": "OR", "NAME": "Oregon", "LSAD": "00", "ALAND": 248606993270, "AWATER": 6192386935 }, "geometry": { "type": "MultiLineString", "coordinates": [ [ [ -117.841177, 44.755588 ], [ -117.343302, 44.488218 ] ] ] } },
{ "type": "Feature", "properties": { "TYPEPIPE": "Interstate", "Operator": "Northwest Pipeline", "Status": "Operating", "Shape_Leng": 0.29495408363999998, "STATEFP": "41", "STATENS": "01155107", "AFFGEOID": "0400000US41", "GEOID": "41", "STUSPS": "OR", "NAME": "Oregon", "LSAD": "00", "ALAND": 248606993270, "AWATER": 6192386935 }, "geometry": { "type": "MultiLineString", "coordinates": [ [ [ -117.93356, 45.035701 ], [ -117.841177, 44.755588 ] ] ] } },
{ "type": "Feature", "properties": { "TYPEPIPE": "Interstate", "Operator": "Northwest Pipeline", "Status": "Operating", "Shape_Leng": 0.22145292745, "STATEFP": "41", "STATENS": "01155107", "AFFGEOID": "0400000US41", "GEOID": "41", "STUSPS": "OR", "NAME": "Oregon", "LSAD": "00", "ALAND": 248606993270, "AWATER": 6192386935 }, "geometry": { "type": "MultiLineString", "coordinates": [ [ [ -118.003134, 45.245941 ], [ -117.93356, 45.035701 ] ] ] } },
{ "type": "Feature", "properties": { "TYPEPIPE": "Interstate", "Operator": "Northwest Pipeline", "Status": "Operating", "Shape_Leng": 0.15955686291000001, "STATEFP": "41", "STATENS": "01155107", "AFFGEOID": "0400000US41", "GEOID": "41", "STUSPS": "OR", "NAME": "Oregon", "LSAD": "00", "ALAND": 248606993270, "AWATER": 6192386935 }, "geometry": { "type": "MultiLineString", "coordinates": [ [ [ -118.153528, 45.299233 ], [ -118.003134, 45.245941 ] ] ] } },
{ "type": "Feature", "properties": { "TYPEPIPE": "Interstate", "Operator": "Northwest Pipeline", "Status": "Operating", "Shape_Leng": 0.30460055651000001, "STATEFP": "41", "STATENS": "01155107", "AFFGEOID": "0400000US41", "GEOID": "41", "STUSPS": "OR", "NAME": "Oregon", "LSAD": "00", "ALAND": 248606993270, "AWATER": 6192386935 }, "geometry": { "type": "MultiLineString", "coordinates": [ [ [ -118.389996, 45.491234 ], [ -118.207794, 45.343294 ], [ -118.153528, 45.299233 ] ] ] } },
{ "type": "Feature", "properties": { "TYPEPIPE": "Interstate", "Operator": "Northwest Pipeline", "Status": "Operating", "Shape_Leng": 0.18930945158000001, "STATEFP": "41", "STATENS": "01155107", "AFFGEOID": "0400000US41", "GEOID": "41", "STUSPS": "OR", "NAME": "Oregon", "LSAD": "00", "ALAND": 248606993270, "AWATER": 6192386935 }, "geometry": { "type": "MultiLineString", "coordinates": [ [ [ -118.51783, 45.630864 ], [ -118.389996, 45.491234 ] ] ] } },
{ "type": "Feature", "properties": { "TYPEPIPE": "Interstate", "Operator": "Northwest Pipeline", "Status": "Operating", "Shape_Leng": 0.22879684296, "STATEFP": "41", "STATENS": "01155107", "AFFGEOID": "0400000US41", "GEOID": "41", "STUSPS": "OR", "NAME": "Oregon", "LSAD": "00", "ALAND": 248606993270, "AWATER": 6192386935 }, "geometry": { "type": "MultiLineString", "coordinates": [ [ [ -123.057473, 43.949143 ], [ -123.102235, 43.816582 ], [ -123.105292, 43.80753 ], [ -123.110576, 43.792908 ], [ -123.130669, 43.732375 ] ] ] } },
{ "type": "Feature", "properties": { "TYPEPIPE": "Interstate", "Operator": "Northwest Pipeline", "Status": "Operating", "Shape_Leng": 0.11039741918, "STATEFP": "41", "STATENS": "01155107", "AFFGEOID": "0400000US41", "GEOID": "41", "STUSPS": "OR", "NAME": "Oregon", "LSAD": "00", "ALAND": 248606993270, "AWATER": 6192386935 }, "geometry": { "type": "MultiLineString", "coordinates": [ [ [ -122.619715, 45.200907 ], [ -122.659882, 45.167626 ], [ -122.700594, 45.133892 ], [ -122.704723, 45.130471 ] ] ] } },
{ "type": "Feature", "properties": { "TYPEPIPE": "Interstate", "Operator": "Northwest Pipeline", "Status": "Operating", "Shape_Leng": 0.28610099675, "STATEFP": "41", "STATENS": "01155107", "AFFGEOID": "0400000US41", "GEOID": "41", "STUSPS": "OR", "NAME": "Oregon", "LSAD": "00", "ALAND": 248606993270, "AWATER": 6192386935 }, "geometry": { "type": "MultiLineString", "coordinates": [ [ [ -122.432441, 45.417199 ], [ -122.484634, 45.356919 ], [ -122.553425, 45.277468 ], [ -122.59675, 45.22743 ], [ -122.619715, 45.200907 ] ] ] } },
{ "type": "Feature", "properties": { "TYPEPIPE": "Interstate", "Operator": "Northwest Pipeline", "Status": "Operating", "Shape_Leng": 0.04614423121, "STATEFP": "41", "STATENS": "01155107", "AFFGEOID": "0400000US41", "GEOID": "41", "STUSPS": "OR", "NAME": "Oregon", "LSAD": "00", "ALAND": 248606993270, "AWATER": 6192386935 }, "geometry": { "type": "MultiLineString", "coordinates": [ [ [ -122.38645, 45.420956 ], [ -122.421915, 45.418036 ], [ -122.432441, 45.417199 ] ] ] } },
{ "type": "Feature", "properties": { "TYPEPIPE": "Interstate", "Operator": "Northwest Pipeline", "Status": "Operating", "Shape_Leng": 0.34698529765000002, "STATEFP": "41", "STATENS": "01155107", "AFFGEOID": "0400000US41", "GEOID": "41", "STUSPS": "OR", "NAME": "Oregon", "LSAD": "00", "ALAND": 248606993270, "AWATER": 6192386935 }, "geometry": { "type": "MultiLineString", "coordinates": [ [ [ -116.974432, 44.069746 ], [ -116.953170512031505, 44.051532513476182 ] ] ] } },
{ "type": "Feature", "properties": { "TYPEPIPE": "Interstate", "Operator": "Northwest Pipeline", "Status": "Operating", "Shape_Leng": 0.22166177082, "STATEFP": "41", "STATENS": "01155107", "AFFGEOID": "0400000US41", "GEOID": "41", "STUSPS": "OR", "NAME": "Oregon", "LSAD": "00", "ALAND": 248606993270, "AWATER": 6192386935 }, "geometry": { "type": "MultiLineString", "coordinates": [ [ [ -117.144463, 44.211955 ], [ -116.974432, 44.069746 ] ] ] } },
{ "type": "Feature", "properties": { "TYPEPIPE": "Interstate", "Operator": "Northwest Pipeline", "Status": "Operating", "Shape_Leng": 0.09127780394, "STATEFP": "41", "STATENS": "01155107", "AFFGEOID": "0400000US41", "GEOID": "41", "STUSPS": "OR", "NAME": "Oregon", "LSAD": "00", "ALAND": 248606993270, "AWATER": 6192386935 }, "geometry": { "type": "MultiLineString", "coordinates": [ [ [ -122.834220739695795, 45.986645412076719 ], [ -122.869041, 45.977698 ] ] ] } },
{ "type": "Feature", "properties": { "TYPEPIPE": "Interstate", "Operator": "Northwest Pipeline", "Status": "Operating", "Shape_Leng": 1.47503860354, "STATEFP": "41", "STATENS": "01155107", "AFFGEOID": "0400000US41", "GEOID": "41", "STUSPS": "OR", "NAME": "Oregon", "LSAD": "00", "ALAND": 248606993270, "AWATER": 6192386935 }, "geometry": { "type": "MultiLineString", "coordinates": [ [ [ -119.416407171867903, 45.915158969126736 ], [ -119.410096, 45.910581 ] ] ] } },
{ "type": "Feature", "properties": { "TYPEPIPE": "Interstate", "Operator": "Northwest Pipeline", "Status": "Operating", "Shape_Leng": 1.20384333232, "STATEFP": "41", "STATENS": "01155107", "AFFGEOID": "0400000US41", "GEOID": "41", "STUSPS": "OR", "NAME": "Oregon", "LSAD": "00", "ALAND": 248606993270, "AWATER": 6192386935 }, "geometry": { "type": "MultiLineString", "coordinates": [ [ [ -119.410096, 45.910581 ], [ -119.425060749528768, 45.914086410945409 ] ] ] } },
{ "type": "Feature", "properties": { "TYPEPIPE": "Interstate", "Operator": "Northwest Pipeline", "Status": "Operating", "Shape_Leng": 0.51599956853999995, "STATEFP": "41", "STATENS": "01155107", "AFFGEOID": "0400000US41", "GEOID": "41", "STUSPS": "OR", "NAME": "Oregon", "LSAD": "00", "ALAND": 248606993270, "AWATER": 6192386935 }, "geometry": { "type": "MultiLineString", "coordinates": [ [ [ -121.143073633524921, 45.612807510495024 ], [ -121.136467, 45.601095 ] ] ] } },
{ "type": "Feature", "properties": { "TYPEPIPE": "Interstate", "Operator": "Northwest Pipeline", "Status": "Operating", "Shape_Leng": 1.1447420230500001, "STATEFP": "41", "STATENS": "01155107", "AFFGEOID": "0400000US41", "GEOID": "41", "STUSPS": "OR", "NAME": "Oregon", "LSAD": "00", "ALAND": 248606993270, "AWATER": 6192386935 }, "geometry": { "type": "MultiLineString", "coordinates": [ [ [ -122.704723, 45.130471 ], [ -122.771876, 45.078222 ], [ -122.787842, 45.065799 ], [ -122.828641, 45.039027 ], [ -122.849789, 45.000657 ], [ -122.863678, 44.975458 ], [ -122.901866, 44.906171 ], [ -122.906858, 44.897114 ], [ -122.91722, 44.878313 ], [ -122.923611, 44.813344 ], [ -122.92632, 44.78581 ], [ -122.928695, 44.761672 ], [ -122.931781, 44.730299 ], [ -122.95445, 44.695663 ], [ -122.961562, 44.684796 ], [ -122.968882, 44.673611 ], [ -122.977998, 44.659683 ], [ -122.985833, 44.636626 ], [ -123.00292, 44.586345 ], [ -123.058906, 44.421594 ], [ -123.072847, 44.403427 ], [ -123.073396, 44.398441 ], [ -123.093185, 44.218656 ], [ -123.075587, 44.141003 ], [ -123.048607, 44.161901 ] ] ] } },
{ "type": "Feature", "properties": { "TYPEPIPE": "Interstate", "Operator": "Northwest Pipeline", "Status": "Operating", "Shape_Leng": 0.20161397997, "STATEFP": "41", "STATENS": "01155107", "AFFGEOID": "0400000US41", "GEOID": "41", "STUSPS": "OR", "NAME": "Oregon", "LSAD": "00", "ALAND": 248606993270, "AWATER": 6192386935 }, "geometry": { "type": "MultiLineString", "coordinates": [ [ [ -123.075587, 44.141003 ], [ -123.051407, 44.107947 ], [ -123.043131, 44.018206 ], [ -123.057473, 43.949143 ] ] ] } },
{ "type": "Feature", "properties": { "TYPEPIPE": "Interstate", "Operator": "Northwest Pipeline", "Status": "Operating", "Shape_Leng": 1.22552918994, "STATEFP": "41", "STATENS": "01155107", "AFFGEOID": "0400000US41", "GEOID": "41", "STUSPS": "OR", "NAME": "Oregon", "LSAD": "00", "ALAND": 248606993270, "AWATER": 6192386935 }, "geometry": { "type": "MultiLineString", "coordinates": [ [ [ -123.127688, 43.731148 ], [ -123.190799, 43.669545 ], [ -123.194041, 43.625677 ], [ -123.225343, 43.598719 ], [ -123.260562, 43.512493 ], [ -123.29651, 43.482583 ], [ -123.326224, 43.457859 ], [ -123.358521, 43.380792 ], [ -123.398803, 43.274675 ], [ -123.388035, 43.231266 ], [ -123.412987, 43.19797 ], [ -123.402924, 43.173395 ], [ -123.389091, 43.139611 ], [ -123.37179, 43.123012 ], [ -123.368906, 43.113108 ], [ -123.354392, 43.063271 ], [ -123.324836, 43.059459 ], [ -123.324892, 43.049096 ], [ -123.325111, 43.008629 ], [ -123.273926, 42.946196 ], [ -123.263932, 42.934006 ], [ -123.253554, 42.921348 ], [ -123.241941, 42.907182 ], [ -123.357087, 42.778395 ], [ -123.343448, 42.75342 ], [ -123.358285, 42.729919 ] ] ] } },
{ "type": "Feature", "properties": { "TYPEPIPE": "Interstate", "Operator": "Northwest Pipeline", "Status": "Operating", "Shape_Leng": 0.90767911634999998, "STATEFP": "41", "STATENS": "01155107", "AFFGEOID": "0400000US41", "GEOID": "41", "STUSPS": "OR", "NAME": "Oregon", "LSAD": "00", "ALAND": 248606993270, "AWATER": 6192386935 }, "geometry": { "type": "MultiLineString", "coordinates": [ [ [ -118.55237, 45.653258 ], [ -118.65855, 45.686442 ], [ -118.845297, 45.741138 ], [ -119.180684, 45.841699 ], [ -119.325431, 45.88516 ], [ -119.410096, 45.910581 ], [ -119.404945133190594, 45.916579587012514 ] ] ] } },
{ "type": "Feature", "properties": { "TYPEPIPE": "Interstate", "Operator": "Northwest Pipeline", "Status": "Operating", "Shape_Leng": 2.0116759069399999, "STATEFP": "41", "STATENS": "01155107", "AFFGEOID": "0400000US41", "GEOID": "41", "STUSPS": "OR", "NAME": "Oregon", "LSAD": "00", "ALAND": 248606993270, "AWATER": 6192386935 }, "geometry": { "type": "MultiLineString", "coordinates": [ [ [ -119.404945133190594, 45.916579587012514 ], [ -119.410096, 45.910581 ], [ -119.404947186679777, 45.916579332504028 ] ] ] } },
{ "type": "Feature", "properties": { "TYPEPIPE": "Interstate", "Operator": "Northwest Pipeline", "Status": "Operating", "Shape_Leng": 0.45002073137999998, "STATEFP": "41", "STATENS": "01155107", "AFFGEOID": "0400000US41", "GEOID": "41", "STUSPS": "OR", "NAME": "Oregon", "LSAD": "00", "ALAND": 248606993270, "AWATER": 6192386935 }, "geometry": { "type": "MultiLineString", "coordinates": [ [ [ -118.347998442816561, 46.000598978785632 ], [ -118.35542, 45.940818 ], [ -118.43804, 45.820188 ], [ -118.455196, 45.795139 ], [ -118.55237, 45.653258 ], [ -118.51783, 45.630864 ] ] ] } },
{ "type": "Feature", "properties": { "TYPEPIPE": "Interstate", "Operator": "Northwest Pipeline", "Status": "Operating", "Shape_Leng": 0.1621046506, "STATEFP": "41", "STATENS": "01155107", "AFFGEOID": "0400000US41", "GEOID": "41", "STUSPS": "OR", "NAME": "Oregon", "LSAD": "00", "ALAND": 248606993270, "AWATER": 6192386935 }, "geometry": { "type": "MultiLineString", "coordinates": [ [ [ -122.339323313393024, 45.552681476013085 ], [ -122.359475, 45.545988 ], [ -122.373114, 45.541431 ], [ -122.376281, 45.540373 ], [ -122.383816, 45.447712 ], [ -122.385955, 45.421413 ] ] ] } },
{ "type": "Feature", "properties": { "TYPEPIPE": "Interstate", "Operator": "Northwest Pipeline", "Status": "Operating", "Shape_Leng": 0.05658558397, "STATEFP": "41", "STATENS": "01155107", "AFFGEOID": "0400000US41", "GEOID": "41", "STUSPS": "OR", "NAME": "Oregon", "LSAD": "00", "ALAND": 248606993270, "AWATER": 6192386935 }, "geometry": { "type": "MultiLineString", "coordinates": [ [ [ -117.240474, 44.302292 ], [ -117.203602, 44.259369 ] ] ] } },
{ "type": "Feature", "properties": { "TYPEPIPE": "Interstate", "Operator": "Northwest Pipeline", "Status": "Operating", "Shape_Leng": 0.07579913401, "STATEFP": "41", "STATENS": "01155107", "AFFGEOID": "0400000US41", "GEOID": "41", "STUSPS": "OR", "NAME": "Oregon", "LSAD": "00", "ALAND": 248606993270, "AWATER": 6192386935 }, "geometry": { "type": "MultiLineString", "coordinates": [ [ [ -117.203602, 44.259369 ], [ -117.144463, 44.211955 ] ] ] } },
{ "type": "Feature", "properties": { "TYPEPIPE": "Interstate", "Operator": "Northwest Pipeline", "Status": "Operating", "Shape_Leng": 0.10655010423, "STATEFP": "41", "STATENS": "01155107", "AFFGEOID": "0400000US41", "GEOID": "41", "STUSPS": "OR", "NAME": "Oregon", "LSAD": "00", "ALAND": 248606993270, "AWATER": 6192386935 }, "geometry": { "type": "MultiLineString", "coordinates": [ [ [ -117.288868, 44.397218 ], [ -117.240474, 44.302292 ] ] ] } },
{ "type": "Feature", "properties": { "TYPEPIPE": "Interstate", "Operator": "Northwest Pipeline", "Status": "Operating", "Shape_Leng": 0.2545242013, "STATEFP": "41", "STATENS": "01155107", "AFFGEOID": "0400000US41", "GEOID": "41", "STUSPS": "OR", "NAME": "Oregon", "LSAD": "00", "ALAND": 248606993270, "AWATER": 6192386935 }, "geometry": { "type": "MultiLineString", "coordinates": [ [ [ -122.74924550586779, 45.655243706623196 ], [ -122.751928, 45.652604 ], [ -122.766358, 45.616993 ] ] ] } },
{ "type": "Feature", "properties": { "TYPEPIPE": "Interstate", "Operator": "Northwest Pipeline", "Status": "Operating", "Shape_Leng": 0.29217651679000001, "STATEFP": "41", "STATENS": "01155107", "AFFGEOID": "0400000US41", "GEOID": "41", "STUSPS": "OR", "NAME": "Oregon", "LSAD": "00", "ALAND": 248606993270, "AWATER": 6192386935 }, "geometry": { "type": "MultiLineString", "coordinates": [ [ [ -123.358285, 42.729919 ], [ -123.352351, 42.708016 ], [ -123.297239, 42.504571 ], [ -123.281889, 42.447907 ] ] ] } },
{ "type": "Feature", "properties": { "TYPEPIPE": "Interstate", "Operator": "Gas Transmission - Northwest", "Status": "Operating", "Shape_Leng": 0.04801508081, "STATEFP": "41", "STATENS": "01155107", "AFFGEOID": "0400000US41", "GEOID": "41", "STUSPS": "OR", "NAME": "Oregon", "LSAD": "00", "ALAND": 248606993270, "AWATER": 6192386935 }, "geometry": { "type": "MultiLineString", "coordinates": [ [ [ -120.442545, 45.175936 ], [ -120.488416, 45.161748 ] ] ] } },
{ "type": "Feature", "properties": { "TYPEPIPE": "Interstate", "Operator": "Gas Transmission - Northwest", "Status": "Operating", "Shape_Leng": 0.41831640607999998, "STATEFP": "41", "STATENS": "01155107", "AFFGEOID": "0400000US41", "GEOID": "41", "STUSPS": "OR", "NAME": "Oregon", "LSAD": "00", "ALAND": 248606993270, "AWATER": 6192386935 }, "geometry": { "type": "MultiLineString", "coordinates": [ [ [ -120.074836, 45.375382 ], [ -120.442545, 45.175936 ] ] ] } },
{ "type": "Feature", "properties": { "TYPEPIPE": "Interstate", "Operator": "Gas Transmission - Northwest", "Status": "Operating", "Shape_Leng": 0.26878908529000001, "STATEFP": "41", "STATENS": "01155107", "AFFGEOID": "0400000US41", "GEOID": "41", "STUSPS": "OR", "NAME": "Oregon", "LSAD": "00", "ALAND": 248606993270, "AWATER": 6192386935 }, "geometry": { "type": "MultiLineString", "coordinates": [ [ [ -119.844277, 45.513549 ], [ -120.074836, 45.375382 ] ] ] } },
{ "type": "Feature", "properties": { "TYPEPIPE": "Interstate", "Operator": "Gas Transmission - Northwest", "Status": "Operating", "Shape_Leng": 0.34250086954999998, "STATEFP": "41", "STATENS": "01155107", "AFFGEOID": "0400000US41", "GEOID": "41", "STUSPS": "OR", "NAME": "Oregon", "LSAD": "00", "ALAND": 248606993270, "AWATER": 6192386935 }, "geometry": { "type": "MultiLineString", "coordinates": [ [ [ -121.545565, 42.507643 ], [ -121.427407, 42.186169 ] ] ] } },
{ "type": "Feature", "properties": { "TYPEPIPE": "Interstate", "Operator": "Gas Transmission - Northwest", "Status": "Operating", "Shape_Leng": 0.40231638333000003, "STATEFP": "41", "STATENS": "01155107", "AFFGEOID": "0400000US41", "GEOID": "41", "STUSPS": "OR", "NAME": "Oregon", "LSAD": "00", "ALAND": 248606993270, "AWATER": 6192386935 }, "geometry": { "type": "MultiLineString", "coordinates": [ [ [ -121.832715, 42.789429 ], [ -121.545565, 42.507643 ] ] ] } },
{ "type": "Feature", "properties": { "TYPEPIPE": "Interstate", "Operator": "Gas Transmission - Northwest", "Status": "Operating", "Shape_Leng": 0.29777721495999998, "STATEFP": "41", "STATENS": "01155107", "AFFGEOID": "0400000US41", "GEOID": "41", "STUSPS": "OR", "NAME": "Oregon", "LSAD": "00", "ALAND": 248606993270, "AWATER": 6192386935 }, "geometry": { "type": "MultiLineString", "coordinates": [ [ [ -121.653236, 43.455556 ], [ -121.751459, 43.29473 ], [ -121.808443, 43.201426 ] ] ] } },
{ "type": "Feature", "properties": { "TYPEPIPE": "Interstate", "Operator": "Gas Transmission - Northwest", "Status": "Operating", "Shape_Leng": 0.25779483048000001, "STATEFP": "41", "STATENS": "01155107", "AFFGEOID": "0400000US41", "GEOID": "41", "STUSPS": "OR", "NAME": "Oregon", "LSAD": "00", "ALAND": 248606993270, "AWATER": 6192386935 }, "geometry": { "type": "MultiLineString", "coordinates": [ [ [ -121.484536, 43.650488 ], [ -121.613403, 43.501583 ], [ -121.653236, 43.455556 ] ] ] } },
{ "type": "Feature", "properties": { "TYPEPIPE": "Interstate", "Operator": "Gas Transmission - Northwest", "Status": "Operating", "Shape_Leng": 0.31799810619000002, "STATEFP": "41", "STATENS": "01155107", "AFFGEOID": "0400000US41", "GEOID": "41", "STUSPS": "OR", "NAME": "Oregon", "LSAD": "00", "ALAND": 248606993270, "AWATER": 6192386935 }, "geometry": { "type": "MultiLineString", "coordinates": [ [ [ -121.31302, 43.918266 ], [ -121.333607, 43.886125 ], [ -121.432565, 43.731628 ], [ -121.484536, 43.650488 ] ] ] } },
{ "type": "Feature", "properties": { "TYPEPIPE": "Interstate", "Operator": "Gas Transmission - Northwest", "Status": "Operating", "Shape_Leng": 0.63182492096999998, "STATEFP": "41", "STATENS": "01155107", "AFFGEOID": "0400000US41", "GEOID": "41", "STUSPS": "OR", "NAME": "Oregon", "LSAD": "00", "ALAND": 248606993270, "AWATER": 6192386935 }, "geometry": { "type": "MultiLineString", "coordinates": [ [ [ -121.016612, 44.476249 ], [ -121.116568, 44.288083 ], [ -121.205841, 44.120029 ], [ -121.31302, 43.918266 ] ] ] } },
{ "type": "Feature", "properties": { "TYPEPIPE": "Interstate", "Operator": "Gas Transmission - Northwest", "Status": "Operating", "Shape_Leng": 0.27219281194, "STATEFP": "41", "STATENS": "01155107", "AFFGEOID": "0400000US41", "GEOID": "41", "STUSPS": "OR", "NAME": "Oregon", "LSAD": "00", "ALAND": 248606993270, "AWATER": 6192386935 }, "geometry": { "type": "MultiLineString", "coordinates": [ [ [ -120.960342, 44.742562 ], [ -121.016612, 44.476249 ] ] ] } },
{ "type": "Feature", "properties": { "TYPEPIPE": "Interstate", "Operator": "Gas Transmission - Northwest", "Status": "Operating", "Shape_Leng": 0.24993781504000001, "STATEFP": "41", "STATENS": "01155107", "AFFGEOID": "0400000US41", "GEOID": "41", "STUSPS": "OR", "NAME": "Oregon", "LSAD": "00", "ALAND": 248606993270, "AWATER": 6192386935 }, "geometry": { "type": "MultiLineString", "coordinates": [ [ [ -120.834694, 44.958621 ], [ -120.960342, 44.742562 ] ] ] } },
{ "type": "Feature", "properties": { "TYPEPIPE": "Interstate", "Operator": "Gas Transmission - Northwest", "Status": "Operating", "Shape_Leng": 0.09230261036, "STATEFP": "41", "STATENS": "01155107", "AFFGEOID": "0400000US41", "GEOID": "41", "STUSPS": "OR", "NAME": "Oregon", "LSAD": "00", "ALAND": 248606993270, "AWATER": 6192386935 }, "geometry": { "type": "MultiLineString", "coordinates": [ [ [ -120.488416, 45.161748 ], [ -120.58069, 45.15945 ] ] ] } },
{ "type": "Feature", "properties": { "TYPEPIPE": "Interstate", "Operator": "Gas Transmission - Northwest", "Status": "Operating", "Shape_Leng": 0.15260398316000001, "STATEFP": "41", "STATENS": "01155107", "AFFGEOID": "0400000US41", "GEOID": "41", "STUSPS": "OR", "NAME": "Oregon", "LSAD": "00", "ALAND": 248606993270, "AWATER": 6192386935 }, "geometry": { "type": "MultiLineString", "coordinates": [ [ [ -120.7321, 45.071592 ], [ -120.834694, 44.958621 ] ] ] } },
{ "type": "Feature", "properties": { "TYPEPIPE": "Interstate", "Operator": "Gas Transmission - Northwest", "Status": "Operating", "Shape_Leng": 0.17505432375, "STATEFP": "41", "STATENS": "01155107", "AFFGEOID": "0400000US41", "GEOID": "41", "STUSPS": "OR", "NAME": "Oregon", "LSAD": "00", "ALAND": 248606993270, "AWATER": 6192386935 }, "geometry": { "type": "MultiLineString", "coordinates": [ [ [ -120.58069, 45.15945 ], [ -120.7321, 45.071592 ] ] ] } },
{ "type": "Feature", "properties": { "TYPEPIPE": "Interstate", "Operator": "Gas Transmission - Northwest", "Status": "Operating", "Shape_Leng": 0.41271134949, "STATEFP": "41", "STATENS": "01155107", "AFFGEOID": "0400000US41", "GEOID": "41", "STUSPS": "OR", "NAME": "Oregon", "LSAD": "00", "ALAND": 248606993270, "AWATER": 6192386935 }, "geometry": { "type": "MultiLineString", "coordinates": [ [ [ -121.808443, 43.201426 ], [ -121.812765, 43.128072 ], [ -121.832715, 42.789429 ] ] ] } },
{ "type": "Feature", "properties": { "TYPEPIPE": "Interstate", "Operator": "Gas Transmission - Northwest", "Status": "Operating", "Shape_Leng": 0.20119380307000001, "STATEFP": "41", "STATENS": "01155107", "AFFGEOID": "0400000US41", "GEOID": "41", "STUSPS": "OR", "NAME": "Oregon", "LSAD": "00", "ALAND": 248606993270, "AWATER": 6192386935 }, "geometry": { "type": "MultiLineString", "coordinates": [ [ [ -121.427407, 42.186169 ], [ -121.359604750212597, 41.997287959531626 ] ] ] } },
{ "type": "Feature", "properties": { "TYPEPIPE": "Interstate", "Operator": "Gas Transmission - Northwest", "Status": "Operating", "Shape_Leng": 0.54721029816, "STATEFP": "41", "STATENS": "01155107", "AFFGEOID": "0400000US41", "GEOID": "41", "STUSPS": "OR", "NAME": "Oregon", "LSAD": "00", "ALAND": 248606993270, "AWATER": 6192386935 }, "geometry": { "type": "MultiLineString", "coordinates": [ [ [ -118.89199733818613, 46.000187222793983 ], [ -118.983442, 45.949103 ], [ -119.07662, 45.898963 ], [ -119.14834, 45.860756 ], [ -119.281353, 45.788792 ], [ -119.372148, 45.739934 ] ] ] } },
{ "type": "Feature", "properties": { "TYPEPIPE": "Interstate", "Operator": "Gas Transmission - Northwest", "Status": "Operating", "Shape_Leng": 0.5235990459, "STATEFP": "41", "STATENS": "01155107", "AFFGEOID": "0400000US41", "GEOID": "41", "STUSPS": "OR", "NAME": "Oregon", "LSAD": "00", "ALAND": 248606993270, "AWATER": 6192386935 }, "geometry": { "type": "MultiLineString", "coordinates": [ [ [ -119.372148, 45.739934 ], [ -119.844277, 45.513549 ] ] ] } },
{ "type": "Feature", "properties": { "TYPEPIPE": "Interstate", "Operator": "Tuscarora Pipeline Co", "Status": "Operating", "Shape_Leng": 0.07939445548, "STATEFP": "41", "STATENS": "01155107", "AFFGEOID": "0400000US41", "GEOID": "41", "STUSPS": "OR", "NAME": "Oregon", "LSAD": "00", "ALAND": 248606993270, "AWATER": 6192386935 }, "geometry": { "type": "MultiLineString", "coordinates": [ [ [ -121.38587, 42.070357 ], [ -121.377782, 42.036268 ], [ -121.365653, 42.01459 ], [ -121.355691, 41.997805 ] ] ] } },
{ "type": "Feature", "properties": { "TYPEPIPE": "Interstate", "Operator": "Tuscarora Pipeline Co", "Status": "Operating", "Shape_Leng": 1.0542576851800001, "STATEFP": "41", "STATENS": "01155107", "AFFGEOID": "0400000US41", "GEOID": "41", "STUSPS": "OR", "NAME": "Oregon", "LSAD": "00", "ALAND": 248606993270, "AWATER": 6192386935 }, "geometry": { "type": "MultiLineString", "coordinates": [ [ [ -121.355691, 41.997805 ], [ -121.355376802667749, 41.997298949316431 ] ] ] } },
{ "type": "Feature", "properties": { "TYPEPIPE": "Interstate", "Operator": "Tuscarora Pipeline Co", "Status": "Operating", "Shape_Leng": 0.13210202996000001, "STATEFP": "41", "STATENS": "01155107", "AFFGEOID": "0400000US41", "GEOID": "41", "STUSPS": "OR", "NAME": "Oregon", "LSAD": "00", "ALAND": 248606993270, "AWATER": 6192386935 }, "geometry": { "type": "MultiLineString", "coordinates": [ [ [ -121.503387, 42.024284 ], [ -121.477831, 42.024269 ], [ -121.472768, 42.024263 ], [ -121.44993, 42.02425 ], [ -121.439788, 42.024242 ], [ -121.424574, 42.02423 ], [ -121.409351, 42.024221 ], [ -121.396649, 42.024217 ], [ -121.376372, 42.0242 ], [ -121.371285, 42.0242 ] ] ] } },
{ "type": "Feature", "properties": { "TYPEPIPE": "Interstate", "Operator": "Ruby Pipeline LLC", "Status": "Operating", "Shape_Leng": 1.49094951384, "STATEFP": "41", "STATENS": "01155107", "AFFGEOID": "0400000US41", "GEOID": "41", "STUSPS": "OR", "NAME": "Oregon", "LSAD": "00", "ALAND": 248606993270, "AWATER": 6192386935 }, "geometry": { "type": "MultiLineString", "coordinates": [ [ [ -121.078725373812674, 41.994179299199203 ], [ -120.525098, 41.997377 ], [ -120.472678, 42.047365 ], [ -120.30231, 42.132341 ], [ -120.210566, 42.142341 ], [ -120.145038, 42.122345 ], [ -120.125382, 42.107349 ], [ -119.994326, 41.997377 ], [ -120.000878, 41.997377 ] ] ] } },
{ "type": "Feature", "properties": { "TYPEPIPE": "Interstate", "Operator": "Kelso-Beaver Pipeline", "Status": "Operating", "Shape_Leng": 0.018524432, "STATEFP": "41", "STATENS": "01155107", "AFFGEOID": "0400000US41", "GEOID": "41", "STUSPS": "OR", "NAME": "Oregon", "LSAD": "00", "ALAND": 248606993270, "AWATER": 6192386935 }, "geometry": { "type": "MultiLineString", "coordinates": [ [ [ -123.190147501997799, 46.179766332206924 ], [ -123.190367, 46.176049 ], [ -123.188836, 46.17113 ], [ -123.187986, 46.163573 ] ] ] } }
]
}
