{
"type": "FeatureCollection",
"name": "natural_gas_pipelines_nd",
"crs": { "type": "name", "properties": { "name": "urn:ogc:def:crs:OGC:1.3:CRS84" } },
"features": [
{ "type": "Feature", "properties": { "TYPEPIPE": "Interstate", "Operator": "Alliance Pipeline System", "Status": "Operating", "Shape_Leng": 6.00436757745, "STATEFP": "38", "STATENS": "01779797", "AFFGEOID": "0400000US38", "GEOID": "38", "STUSPS": "ND", "NAME": "North Dakota", "LSAD": "00", "ALAND": 178707534813, "AWATER": 4403267548 }, "geometry": { "type": "MultiLineString", "coordinates": [ [ [ -101.603322, 48.995713 ], [ -100.596038, 48.388518 ], [ -100.496061, 48.323201 ], [ -100.471426, 48.307106 ], [ -100.450656, 48.252831 ], [ -100.398734, 48.198557 ], [ -100.300082, 48.195165 ], [ -98.550964, 47.270738 ], [ -98.428964, 47.188366 ], [ -98.109132, 46.972421 ], [ -98.041482, 46.872225 ], [ -97.989558, 46.804382 ], [ -97.84937, 46.739931 ], [ -97.662454, 46.634774 ], [ -97.532646, 46.529618 ], [ -97.413226, 46.438029 ], [ -97.418418, 46.380363 ], [ -96.810933, 46.171569 ], [ -96.667371, 46.020773 ], [ -96.563800205701114, 45.936229769851856 ] ] ] } },
{ "type": "Feature", "properties": { "TYPEPIPE": "Interstate", "Operator": "Northern Border PL Co", "Status": "Operating", "Shape_Leng": 0.04805917333, "STATEFP": "38", "STATENS": "01779797", "AFFGEOID": "0400000US38", "GEOID": "38", "STUSPS": "ND", "NAME": "North Dakota", "LSAD": "00", "ALAND": 178707534813, "AWATER": 4403267548 }, "geometry": { "type": "MultiLineString", "coordinates": [ [ [ -104.044691813958693, 48.088084178788741 ], [ -104.044156, 48.087914 ] ] ] } },
{ "type": "Feature", "properties": { "TYPEPIPE": "Interstate", "Operator": "Northern Border PL Co", "Status": "Operating", "Shape_Leng": 0.08147451421, "STATEFP": "38", "STATENS": "01779797", "AFFGEOID": "0400000US38", "GEOID": "38", "STUSPS": "ND", "NAME": "North Dakota", "LSAD": "00", "ALAND": 178707534813, "AWATER": 4403267548 }, "geometry": { "type": "MultiLineString", "coordinates": [ [ [ -104.044156, 48.087914 ], [ -103.965985, 48.064949 ] ] ] } },
{ "type": "Feature", "properties": { "TYPEPIPE": "Interstate", "Operator": "Northern Border PL Co", "Status": "Operating", "Shape_Leng": 0.15935572908000001, "STATEFP": "38", "STATENS": "01779797", "AFFGEOID": "0400000US38", "GEOID": "38", "STUSPS": "ND", "NAME": "North Dakota", "LSAD": "00", "ALAND": 178707534813, "AWATER": 4403267548 }, "geometry": { "type": "MultiLineString", "coordinates": [ [ [ -103.965985, 48.064949 ], [ -103.953907, 48.064801 ], [ -103.936361, 48.041356 ], [ -103.917817, 48.029283 ], [ -103.919959, 47.984733 ], [ -103.918253, 47.978257 ], [ -103.908666, 47.957376 ], [ -103.894777, 47.940846 ] ] ] } },
{ "type": "Feature", "properties": { "TYPEPIPE": "Interstate", "Operator": "Northern Border PL Co", "Status": "Operating", "Shape_Leng": 0.06054126762, "STATEFP": "38", "STATENS": "01779797", "AFFGEOID": "0400000US38", "GEOID": "38", "STUSPS": "ND", "NAME": "North Dakota", "LSAD": "00", "ALAND": 178707534813, "AWATER": 4403267548 }, "geometry": { "type": "MultiLineString", "coordinates": [ [ [ -103.894777, 47.940846 ], [ -103.891266, 47.939122 ], [ -103.840437, 47.914155 ] ] ] } },
{ "type": "Feature", "properties": { "TYPEPIPE": "Interstate", "Operator": "Northern Border PL Co", "Status": "Operating", "Shape_Leng": 0.81451408234, "STATEFP": "38", "STATENS": "01779797", "AFFGEOID": "0400000US38", "GEOID": "38", "STUSPS": "ND", "NAME": "North Dakota", "LSAD": "00", "ALAND": 178707534813, "AWATER": 4403267548 }, "geometry": { "type": "MultiLineString", "coordinates": [ [ [ -103.840437, 47.914155 ], [ -103.766562, 47.880204 ], [ -103.766169, 47.876046 ], [ -103.700215, 47.850745 ], [ -103.700259, 47.84739 ], [ -103.675565, 47.837672 ], [ -103.675474, 47.833099 ], [ -103.647366, 47.828946 ], [ -103.587855, 47.807787 ], [ -103.587612, 47.803718 ], [ -103.555306, 47.791085 ], [ -103.518048, 47.777261 ], [ -103.508724, 47.770881 ], [ -103.495519, 47.769249 ], [ -103.485163, 47.761236 ], [ -103.453213, 47.753644 ], [ -103.433617, 47.744325 ], [ -103.406803, 47.72649 ], [ -103.37391, 47.723338 ], [ -103.358562, 47.717879 ], [ -103.325314, 47.714356 ], [ -103.261379, 47.694135 ], [ -103.254554, 47.688703 ], [ -103.24649, 47.683399 ], [ -103.232375, 47.676526 ], [ -103.200564, 47.661227 ], [ -103.17553, 47.647857 ], [ -103.135598, 47.62833 ], [ -103.125538, 47.629821 ], [ -103.118644, 47.632079 ], [ -103.11233, 47.629612 ], [ -103.100056, 47.624815 ] ] ] } },
{ "type": "Feature", "properties": { "TYPEPIPE": "Interstate", "Operator": "Northern Border PL Co", "Status": "Operating", "Shape_Leng": 0.19907337347000001, "STATEFP": "38", "STATENS": "01779797", "AFFGEOID": "0400000US38", "GEOID": "38", "STUSPS": "ND", "NAME": "North Dakota", "LSAD": "00", "ALAND": 178707534813, "AWATER": 4403267548 }, "geometry": { "type": "MultiLineString", "coordinates": [ [ [ -103.100056, 47.624815 ], [ -103.072981, 47.613073 ], [ -103.0583, 47.610769 ], [ -103.051595, 47.58906 ], [ -103.016682, 47.570938 ], [ -103.006238, 47.565321 ], [ -102.993952, 47.5523 ], [ -102.976074, 47.543742 ], [ -102.961028, 47.541187 ], [ -102.943942, 47.529715 ], [ -102.937324, 47.526826 ] ] ] } },
{ "type": "Feature", "properties": { "TYPEPIPE": "Interstate", "Operator": "Northern Border PL Co", "Status": "Operating", "Shape_Leng": 0.26143983042000002, "STATEFP": "38", "STATENS": "01779797", "AFFGEOID": "0400000US38", "GEOID": "38", "STUSPS": "ND", "NAME": "North Dakota", "LSAD": "00", "ALAND": 178707534813, "AWATER": 4403267548 }, "geometry": { "type": "MultiLineString", "coordinates": [ [ [ -102.937324, 47.526826 ], [ -102.930039, 47.51258 ], [ -102.9065, 47.499334 ], [ -102.895207, 47.500127 ], [ -102.890757, 47.491171 ], [ -102.855334, 47.480228 ], [ -102.839048, 47.448678 ], [ -102.814335, 47.420967 ], [ -102.785959, 47.370263 ], [ -102.778887, 47.341836 ] ] ] } },
{ "type": "Feature", "properties": { "TYPEPIPE": "Interstate", "Operator": "Northern Border PL Co", "Status": "Operating", "Shape_Leng": 0.12125667324, "STATEFP": "38", "STATENS": "01779797", "AFFGEOID": "0400000US38", "GEOID": "38", "STUSPS": "ND", "NAME": "North Dakota", "LSAD": "00", "ALAND": 178707534813, "AWATER": 4403267548 }, "geometry": { "type": "MultiLineString", "coordinates": [ [ [ -102.778887, 47.341836 ], [ -102.765363, 47.329841 ], [ -102.763498, 47.296684 ], [ -102.753508, 47.293302 ], [ -102.728826, 47.269629 ], [ -102.710437, 47.252364 ] ] ] } },
{ "type": "Feature", "properties": { "TYPEPIPE": "Interstate", "Operator": "Northern Border PL Co", "Status": "Operating", "Shape_Leng": 0.06532080076000001, "STATEFP": "38", "STATENS": "01779797", "AFFGEOID": "0400000US38", "GEOID": "38", "STUSPS": "ND", "NAME": "North Dakota", "LSAD": "00", "ALAND": 178707534813, "AWATER": 4403267548 }, "geometry": { "type": "MultiLineString", "coordinates": [ [ [ -102.710437, 47.252364 ], [ -102.663661, 47.20677 ] ] ] } },
{ "type": "Feature", "properties": { "TYPEPIPE": "Interstate", "Operator": "Northern Border PL Co", "Status": "Operating", "Shape_Leng": 0.44948315337, "STATEFP": "38", "STATENS": "01779797", "AFFGEOID": "0400000US38", "GEOID": "38", "STUSPS": "ND", "NAME": "North Dakota", "LSAD": "00", "ALAND": 178707534813, "AWATER": 4403267548 }, "geometry": { "type": "MultiLineString", "coordinates": [ [ [ -102.663661, 47.20677 ], [ -102.62869, 47.192554 ], [ -102.627568, 47.189541 ], [ -102.611293, 47.182168 ], [ -102.494583, 47.142688 ], [ -102.493957, 47.138603 ], [ -102.337803, 47.075699 ], [ -102.331978, 47.075496 ], [ -102.250702, 47.0389 ] ] ] } },
{ "type": "Feature", "properties": { "TYPEPIPE": "Interstate", "Operator": "Northern Border PL Co", "Status": "Operating", "Shape_Leng": 0.02298518795, "STATEFP": "38", "STATENS": "01779797", "AFFGEOID": "0400000US38", "GEOID": "38", "STUSPS": "ND", "NAME": "North Dakota", "LSAD": "00", "ALAND": 178707534813, "AWATER": 4403267548 }, "geometry": { "type": "MultiLineString", "coordinates": [ [ [ -102.250702, 47.0389 ], [ -102.227906, 47.035957 ] ] ] } },
{ "type": "Feature", "properties": { "TYPEPIPE": "Interstate", "Operator": "Northern Border PL Co", "Status": "Operating", "Shape_Leng": 0.15683294513000001, "STATEFP": "38", "STATENS": "01779797", "AFFGEOID": "0400000US38", "GEOID": "38", "STUSPS": "ND", "NAME": "North Dakota", "LSAD": "00", "ALAND": 178707534813, "AWATER": 4403267548 }, "geometry": { "type": "MultiLineString", "coordinates": [ [ [ -102.227906, 47.035957 ], [ -102.176023, 47.026367 ], [ -102.168806, 47.009687 ], [ -102.160844, 46.992807 ], [ -102.142718, 46.991257 ], [ -102.116039, 46.98295 ], [ -102.095944, 46.97652 ] ] ] } },
{ "type": "Feature", "properties": { "TYPEPIPE": "Interstate", "Operator": "Northern Border PL Co", "Status": "Operating", "Shape_Leng": 0.15842570056, "STATEFP": "38", "STATENS": "01779797", "AFFGEOID": "0400000US38", "GEOID": "38", "STUSPS": "ND", "NAME": "North Dakota", "LSAD": "00", "ALAND": 178707534813, "AWATER": 4403267548 }, "geometry": { "type": "MultiLineString", "coordinates": [ [ [ -102.095944, 46.97652 ], [ -102.068066, 46.968294 ], [ -102.038163, 46.949562 ], [ -102.034005, 46.935138 ], [ -101.999106, 46.911559 ], [ -101.968266, 46.891217 ] ] ] } },
{ "type": "Feature", "properties": { "TYPEPIPE": "Interstate", "Operator": "Northern Border PL Co", "Status": "Operating", "Shape_Leng": 0.14021892893, "STATEFP": "38", "STATENS": "01779797", "AFFGEOID": "0400000US38", "GEOID": "38", "STUSPS": "ND", "NAME": "North Dakota", "LSAD": "00", "ALAND": 178707534813, "AWATER": 4403267548 }, "geometry": { "type": "MultiLineString", "coordinates": [ [ [ -101.968266, 46.891217 ], [ -101.932174, 46.872177 ], [ -101.927635, 46.862506 ], [ -101.915521, 46.857245 ], [ -101.910363, 46.833371 ], [ -101.862164, 46.816406 ] ] ] } },
{ "type": "Feature", "properties": { "TYPEPIPE": "Interstate", "Operator": "Northern Border PL Co", "Status": "Operating", "Shape_Leng": 0.24528154009, "STATEFP": "38", "STATENS": "01779797", "AFFGEOID": "0400000US38", "GEOID": "38", "STUSPS": "ND", "NAME": "North Dakota", "LSAD": "00", "ALAND": 178707534813, "AWATER": 4403267548 }, "geometry": { "type": "MultiLineString", "coordinates": [ [ [ -101.862164, 46.816406 ], [ -101.827056, 46.816542 ], [ -101.793138, 46.818442 ], [ -101.784113, 46.819392 ], [ -101.758724, 46.820682 ], [ -101.744839, 46.82455 ], [ -101.713544, 46.804734 ], [ -101.6986, 46.800739 ], [ -101.69513, 46.795387 ], [ -101.681554, 46.787543 ], [ -101.67497, 46.777351 ], [ -101.65985, 46.761996 ], [ -101.641052, 46.758965 ] ] ] } },
{ "type": "Feature", "properties": { "TYPEPIPE": "Interstate", "Operator": "Northern Border PL Co", "Status": "Operating", "Shape_Leng": 0.17360093306, "STATEFP": "38", "STATENS": "01779797", "AFFGEOID": "0400000US38", "GEOID": "38", "STUSPS": "ND", "NAME": "North Dakota", "LSAD": "00", "ALAND": 178707534813, "AWATER": 4403267548 }, "geometry": { "type": "MultiLineString", "coordinates": [ [ [ -101.641052, 46.758965 ], [ -101.61369, 46.744461 ], [ -101.602953, 46.738927 ], [ -101.594584, 46.726331 ], [ -101.577062, 46.717978 ], [ -101.561547, 46.714408 ], [ -101.553543, 46.705682 ], [ -101.51568, 46.686936 ], [ -101.489672, 46.686786 ] ] ] } },
{ "type": "Feature", "properties": { "TYPEPIPE": "Interstate", "Operator": "Northern Border PL Co", "Status": "Operating", "Shape_Leng": 0.15923583524000001, "STATEFP": "38", "STATENS": "01779797", "AFFGEOID": "0400000US38", "GEOID": "38", "STUSPS": "ND", "NAME": "North Dakota", "LSAD": "00", "ALAND": 178707534813, "AWATER": 4403267548 }, "geometry": { "type": "MultiLineString", "coordinates": [ [ [ -101.489672, 46.686786 ], [ -101.469548, 46.679048 ], [ -101.451811, 46.668828 ], [ -101.414993, 46.65444 ], [ -101.377277, 46.652263 ], [ -101.337423, 46.650423 ] ] ] } },
{ "type": "Feature", "properties": { "TYPEPIPE": "Interstate", "Operator": "Northern Border PL Co", "Status": "Operating", "Shape_Leng": 0.13754958261, "STATEFP": "38", "STATENS": "01779797", "AFFGEOID": "0400000US38", "GEOID": "38", "STUSPS": "ND", "NAME": "North Dakota", "LSAD": "00", "ALAND": 178707534813, "AWATER": 4403267548 }, "geometry": { "type": "MultiLineString", "coordinates": [ [ [ -101.337423, 46.650423 ], [ -101.337241, 46.647155 ], [ -101.253982, 46.644563 ], [ -101.233597, 46.648794 ], [ -101.203575, 46.645936 ] ] ] } },
{ "type": "Feature", "properties": { "TYPEPIPE": "Interstate", "Operator": "Northern Border PL Co", "Status": "Operating", "Shape_Leng": 0.69402389766000006, "STATEFP": "38", "STATENS": "01779797", "AFFGEOID": "0400000US38", "GEOID": "38", "STUSPS": "ND", "NAME": "North Dakota", "LSAD": "00", "ALAND": 178707534813, "AWATER": 4403267548 }, "geometry": { "type": "MultiLineString", "coordinates": [ [ [ -101.203575, 46.645936 ], [ -101.187438, 46.65272 ], [ -101.09459, 46.649503 ], [ -101.068983, 46.636556 ], [ -101.015664, 46.63668 ], [ -100.979632, 46.608763 ], [ -100.950281, 46.598318 ], [ -100.917032, 46.573106 ], [ -100.906754, 46.5572 ], [ -100.889286, 46.551975 ], [ -100.865956, 46.540328 ], [ -100.811837, 46.521681 ], [ -100.794669, 46.505541 ], [ -100.7808, 46.504783 ], [ -100.685572, 46.467121 ], [ -100.667155, 46.466599 ], [ -100.637825, 46.450252 ], [ -100.630466, 46.450325 ], [ -100.609262, 46.434607 ], [ -100.585874, 46.437725 ], [ -100.572886, 46.441192 ] ] ] } },
{ "type": "Feature", "properties": { "TYPEPIPE": "Interstate", "Operator": "Northern Border PL Co", "Status": "Operating", "Shape_Leng": 0.3393497993, "STATEFP": "38", "STATENS": "01779797", "AFFGEOID": "0400000US38", "GEOID": "38", "STUSPS": "ND", "NAME": "North Dakota", "LSAD": "00", "ALAND": 178707534813, "AWATER": 4403267548 }, "geometry": { "type": "MultiLineString", "coordinates": [ [ [ -100.572886, 46.441192 ], [ -100.544597, 46.439521 ], [ -100.530608, 46.439141 ], [ -100.490932, 46.409652 ], [ -100.454714, 46.395442 ], [ -100.427087, 46.377487 ], [ -100.36331, 46.347926 ], [ -100.356292, 46.339068 ], [ -100.315803, 46.331067 ], [ -100.26381, 46.321533 ] ] ] } },
{ "type": "Feature", "properties": { "TYPEPIPE": "Interstate", "Operator": "Northern Border PL Co", "Status": "Operating", "Shape_Leng": 0.1368686881, "STATEFP": "38", "STATENS": "01779797", "AFFGEOID": "0400000US38", "GEOID": "38", "STUSPS": "ND", "NAME": "North Dakota", "LSAD": "00", "ALAND": 178707534813, "AWATER": 4403267548 }, "geometry": { "type": "MultiLineString", "coordinates": [ [ [ -100.26381, 46.321533 ], [ -100.220315, 46.301773 ], [ -100.196857, 46.298823 ], [ -100.165709, 46.282858 ], [ -100.140364, 46.265978 ] ] ] } },
{ "type": "Feature", "properties": { "TYPEPIPE": "Interstate", "Operator": "Northern Border PL Co", "Status": "Operating", "Shape_Leng": 0.28962478082999998, "STATEFP": "38", "STATENS": "01779797", "AFFGEOID": "0400000US38", "GEOID": "38", "STUSPS": "ND", "NAME": "North Dakota", "LSAD": "00", "ALAND": 178707534813, "AWATER": 4403267548 }, "geometry": { "type": "MultiLineString", "coordinates": [ [ [ -100.140364, 46.265978 ], [ -100.103139, 46.214657 ], [ -100.052556, 46.189623 ], [ -100.04064, 46.189713 ], [ -99.98081, 46.156729 ], [ -99.962772, 46.144037 ], [ -99.931629, 46.127031 ], [ -99.903402, 46.111934 ] ] ] } },
{ "type": "Feature", "properties": { "TYPEPIPE": "Interstate", "Operator": "Northern Border PL Co", "Status": "Operating", "Shape_Leng": 0.02581709713, "STATEFP": "38", "STATENS": "01779797", "AFFGEOID": "0400000US38", "GEOID": "38", "STUSPS": "ND", "NAME": "North Dakota", "LSAD": "00", "ALAND": 178707534813, "AWATER": 4403267548 }, "geometry": { "type": "MultiLineString", "coordinates": [ [ [ -99.903402, 46.111934 ], [ -99.879, 46.103504 ] ] ] } },
{ "type": "Feature", "properties": { "TYPEPIPE": "Interstate", "Operator": "Northern Border PL Co", "Status": "Operating", "Shape_Leng": 0.17957355275, "STATEFP": "38", "STATENS": "01779797", "AFFGEOID": "0400000US38", "GEOID": "38", "STUSPS": "ND", "NAME": "North Dakota", "LSAD": "00", "ALAND": 178707534813, "AWATER": 4403267548 }, "geometry": { "type": "MultiLineString", "coordinates": [ [ [ -99.879, 46.103504 ], [ -99.854609, 46.095268 ], [ -99.801438, 46.068108 ], [ -99.759779, 46.052184 ], [ -99.718156, 46.025347 ] ] ] } },
{ "type": "Feature", "properties": { "TYPEPIPE": "Interstate", "Operator": "Northern Border PL Co", "Status": "Operating", "Shape_Leng": 0.19203701852, "STATEFP": "38", "STATENS": "01779797", "AFFGEOID": "0400000US38", "GEOID": "38", "STUSPS": "ND", "NAME": "North Dakota", "LSAD": "00", "ALAND": 178707534813, "AWATER": 4403267548 }, "geometry": { "type": "MultiLineString", "coordinates": [ [ [ -99.718156, 46.025347 ], [ -99.625802, 45.982174 ], [ -99.612927, 45.976679 ], [ -99.605302, 45.97731 ], [ -99.548277139629661, 45.940715209751254 ] ] ] } },
{ "type": "Feature", "properties": { "TYPEPIPE": "Interstate", "Operator": "Northern Border PL Co", "Status": "Operating", "Shape_Leng": 0.03781158978, "STATEFP": "38", "STATENS": "01779797", "AFFGEOID": "0400000US38", "GEOID": "38", "STUSPS": "ND", "NAME": "North Dakota", "LSAD": "00", "ALAND": 178707534813, "AWATER": 4403267548 }, "geometry": { "type": "MultiLineString", "coordinates": [ [ [ -99.546706, 45.940991 ], [ -99.54631977220555, 45.940703294519892 ] ] ] } },
{ "type": "Feature", "properties": { "TYPEPIPE": "Interstate", "Operator": "WBI Energy Transmission", "Status": "Operating", "Shape_Leng": 0.73962179124000005, "STATEFP": "38", "STATENS": "01779797", "AFFGEOID": "0400000US38", "GEOID": "38", "STUSPS": "ND", "NAME": "North Dakota", "LSAD": "00", "ALAND": 178707534813, "AWATER": 4403267548 }, "geometry": { "type": "MultiLineString", "coordinates": [ [ [ -102.905260497999961, 48.404268903000066 ], [ -102.797537172999967, 48.655478981000044 ], [ -102.549671417999932, 48.842349068000026 ], [ -102.579987, 48.995246 ] ] ] } },
{ "type": "Feature", "properties": { "TYPEPIPE": "Interstate", "Operator": "WBI Energy Transmission", "Status": "Operating", "Shape_Leng": 1.5109792873900001, "STATEFP": "38", "STATENS": "01779797", "AFFGEOID": "0400000US38", "GEOID": "38", "STUSPS": "ND", "NAME": "North Dakota", "LSAD": "00", "ALAND": 178707534813, "AWATER": 4403267548 }, "geometry": { "type": "MultiLineString", "coordinates": [ [ [ -102.905260497999961, 48.404268903000066 ], [ -102.777127325999956, 48.398647221000033 ], [ -102.594145695999927, 48.31156852700007 ], [ -102.180369533999951, 48.29531967500003 ], [ -102.033160612999936, 48.289538830000019 ], [ -101.696718355999948, 48.276326855000036 ], [ -101.418443053999965, 48.230899357000055 ] ] ] } },
{ "type": "Feature", "properties": { "TYPEPIPE": "Interstate", "Operator": "WBI Energy Transmission", "Status": "Operating", "Shape_Leng": 0.34211964823000002, "STATEFP": "38", "STATENS": "01779797", "AFFGEOID": "0400000US38", "GEOID": "38", "STUSPS": "ND", "NAME": "North Dakota", "LSAD": "00", "ALAND": 178707534813, "AWATER": 4403267548 }, "geometry": { "type": "MultiLineString", "coordinates": [ [ [ -101.222915167999986, 47.939885784000062 ], [ -100.891213421999964, 48.023670063000061 ] ] ] } },
{ "type": "Feature", "properties": { "TYPEPIPE": "Interstate", "Operator": "WBI Energy Transmission", "Status": "Operating", "Shape_Leng": 0.26950085389, "STATEFP": "38", "STATENS": "01779797", "AFFGEOID": "0400000US38", "GEOID": "38", "STUSPS": "ND", "NAME": "North Dakota", "LSAD": "00", "ALAND": 178707534813, "AWATER": 4403267548 }, "geometry": { "type": "MultiLineString", "coordinates": [ [ [ -101.418443053999965, 48.230899357000055 ], [ -101.304832, 48.263518291000025 ], [ -101.304832, 48.41481818700003 ] ] ] } },
{ "type": "Feature", "properties": { "TYPEPIPE": "Interstate", "Operator": "WBI Energy Transmission", "Status": "Operating", "Shape_Leng": 0.46290975384, "STATEFP": "38", "STATENS": "01779797", "AFFGEOID": "0400000US38", "GEOID": "38", "STUSPS": "ND", "NAME": "North Dakota", "LSAD": "00", "ALAND": 178707534813, "AWATER": 4403267548 }, "geometry": { "type": "MultiLineString", "coordinates": [ [ [ -101.418443053999965, 48.230899357000055 ], [ -101.222915167999986, 47.939885784000062 ], [ -101.169152, 47.84128 ] ] ] } },
{ "type": "Feature", "properties": { "TYPEPIPE": "Interstate", "Operator": "WBI Energy Transmission", "Status": "Operating", "Shape_Leng": 0.1610205405, "STATEFP": "38", "STATENS": "01779797", "AFFGEOID": "0400000US38", "GEOID": "38", "STUSPS": "ND", "NAME": "North Dakota", "LSAD": "00", "ALAND": 178707534813, "AWATER": 4403267548 }, "geometry": { "type": "MultiLineString", "coordinates": [ [ [ -101.169152, 47.84128 ], [ -101.062144, 47.72096 ] ] ] } },
{ "type": "Feature", "properties": { "TYPEPIPE": "Interstate", "Operator": "WBI Energy Transmission", "Status": "Operating", "Shape_Leng": 0.23874192714, "STATEFP": "38", "STATENS": "01779797", "AFFGEOID": "0400000US38", "GEOID": "38", "STUSPS": "ND", "NAME": "North Dakota", "LSAD": "00", "ALAND": 178707534813, "AWATER": 4403267548 }, "geometry": { "type": "MultiLineString", "coordinates": [ [ [ -101.062144, 47.72096 ], [ -101.295104, 47.668736 ] ] ] } },
{ "type": "Feature", "properties": { "TYPEPIPE": "Interstate", "Operator": "WBI Energy Transmission", "Status": "Operating", "Shape_Leng": 0.23719032048, "STATEFP": "38", "STATENS": "01779797", "AFFGEOID": "0400000US38", "GEOID": "38", "STUSPS": "ND", "NAME": "North Dakota", "LSAD": "00", "ALAND": 178707534813, "AWATER": 4403267548 }, "geometry": { "type": "MultiLineString", "coordinates": [ [ [ -101.062144, 47.72096 ], [ -100.916736, 47.533568 ] ] ] } },
{ "type": "Feature", "properties": { "TYPEPIPE": "Interstate", "Operator": "WBI Energy Transmission", "Status": "Operating", "Shape_Leng": 0.116224, "STATEFP": "38", "STATENS": "01779797", "AFFGEOID": "0400000US38", "GEOID": "38", "STUSPS": "ND", "NAME": "North Dakota", "LSAD": "00", "ALAND": 178707534813, "AWATER": 4403267548 }, "geometry": { "type": "MultiLineString", "coordinates": [ [ [ -100.916736, 47.533568 ], [ -100.800512, 47.533568 ] ] ] } },
{ "type": "Feature", "properties": { "TYPEPIPE": "Interstate", "Operator": "WBI Energy Transmission", "Status": "Operating", "Shape_Leng": 0.15112241819, "STATEFP": "38", "STATENS": "01779797", "AFFGEOID": "0400000US38", "GEOID": "38", "STUSPS": "ND", "NAME": "North Dakota", "LSAD": "00", "ALAND": 178707534813, "AWATER": 4403267548 }, "geometry": { "type": "MultiLineString", "coordinates": [ [ [ -100.916736, 47.533568 ], [ -100.849152, 47.3984 ] ] ] } },
{ "type": "Feature", "properties": { "TYPEPIPE": "Interstate", "Operator": "WBI Energy Transmission", "Status": "Operating", "Shape_Leng": 0.338944, "STATEFP": "38", "STATENS": "01779797", "AFFGEOID": "0400000US38", "GEOID": "38", "STUSPS": "ND", "NAME": "North Dakota", "LSAD": "00", "ALAND": 178707534813, "AWATER": 4403267548 }, "geometry": { "type": "MultiLineString", "coordinates": [ [ [ -100.849152, 47.3984 ], [ -101.188096, 47.3984 ] ] ] } },
{ "type": "Feature", "properties": { "TYPEPIPE": "Interstate", "Operator": "WBI Energy Transmission", "Status": "Operating", "Shape_Leng": 0.24500470605, "STATEFP": "38", "STATENS": "01779797", "AFFGEOID": "0400000US38", "GEOID": "38", "STUSPS": "ND", "NAME": "North Dakota", "LSAD": "00", "ALAND": 178707534813, "AWATER": 4403267548 }, "geometry": { "type": "MultiLineString", "coordinates": [ [ [ -100.849152, 47.3984 ], [ -100.800512, 47.158272 ] ] ] } },
{ "type": "Feature", "properties": { "TYPEPIPE": "Interstate", "Operator": "WBI Energy Transmission", "Status": "Operating", "Shape_Leng": 0.32255187290999998, "STATEFP": "38", "STATENS": "01779797", "AFFGEOID": "0400000US38", "GEOID": "38", "STUSPS": "ND", "NAME": "North Dakota", "LSAD": "00", "ALAND": 178707534813, "AWATER": 4403267548 }, "geometry": { "type": "MultiLineString", "coordinates": [ [ [ -100.800512, 47.158272 ], [ -100.732928, 46.84288 ] ] ] } },
{ "type": "Feature", "properties": { "TYPEPIPE": "Interstate", "Operator": "WBI Energy Transmission", "Status": "Operating", "Shape_Leng": 0.63031275903999995, "STATEFP": "38", "STATENS": "01779797", "AFFGEOID": "0400000US38", "GEOID": "38", "STUSPS": "ND", "NAME": "North Dakota", "LSAD": "00", "ALAND": 178707534813, "AWATER": 4403267548 }, "geometry": { "type": "MultiLineString", "coordinates": [ [ [ -100.732928, 46.84288 ], [ -100.102656, 46.835712 ] ] ] } },
{ "type": "Feature", "properties": { "TYPEPIPE": "Interstate", "Operator": "WBI Energy Transmission", "Status": "Operating", "Shape_Leng": 0.659968, "STATEFP": "38", "STATENS": "01779797", "AFFGEOID": "0400000US38", "GEOID": "38", "STUSPS": "ND", "NAME": "North Dakota", "LSAD": "00", "ALAND": 178707534813, "AWATER": 4403267548 }, "geometry": { "type": "MultiLineString", "coordinates": [ [ [ -100.102656, 46.835712 ], [ -99.854591, 46.835712 ], [ -99.442688, 46.835712 ] ] ] } },
{ "type": "Feature", "properties": { "TYPEPIPE": "Interstate", "Operator": "WBI Energy Transmission", "Status": "Operating", "Shape_Leng": 0.27136, "STATEFP": "38", "STATENS": "01779797", "AFFGEOID": "0400000US38", "GEOID": "38", "STUSPS": "ND", "NAME": "North Dakota", "LSAD": "00", "ALAND": 178707534813, "AWATER": 4403267548 }, "geometry": { "type": "MultiLineString", "coordinates": [ [ [ -99.442688, 46.835712 ], [ -99.171328, 46.835712 ] ] ] } },
{ "type": "Feature", "properties": { "TYPEPIPE": "Interstate", "Operator": "WBI Energy Transmission", "Status": "Operating", "Shape_Leng": 0.495104, "STATEFP": "38", "STATENS": "01779797", "AFFGEOID": "0400000US38", "GEOID": "38", "STUSPS": "ND", "NAME": "North Dakota", "LSAD": "00", "ALAND": 178707534813, "AWATER": 4403267548 }, "geometry": { "type": "MultiLineString", "coordinates": [ [ [ -99.171328, 46.835712 ], [ -99.171328, 47.330816 ] ] ] } },
{ "type": "Feature", "properties": { "TYPEPIPE": "Interstate", "Operator": "WBI Energy Transmission", "Status": "Operating", "Shape_Leng": 0.255488, "STATEFP": "38", "STATENS": "01779797", "AFFGEOID": "0400000US38", "GEOID": "38", "STUSPS": "ND", "NAME": "North Dakota", "LSAD": "00", "ALAND": 178707534813, "AWATER": 4403267548 }, "geometry": { "type": "MultiLineString", "coordinates": [ [ [ -99.171328, 47.330816 ], [ -99.171328, 47.586304 ] ] ] } },
{ "type": "Feature", "properties": { "TYPEPIPE": "Interstate", "Operator": "WBI Energy Transmission", "Status": "Operating", "Shape_Leng": 0.27991466585000002, "STATEFP": "38", "STATENS": "01779797", "AFFGEOID": "0400000US38", "GEOID": "38", "STUSPS": "ND", "NAME": "North Dakota", "LSAD": "00", "ALAND": 178707534813, "AWATER": 4403267548 }, "geometry": { "type": "MultiLineString", "coordinates": [ [ [ -99.171328, 47.586304 ], [ -99.109607, 47.753833 ], [ -99.07456, 47.84896 ] ] ] } },
{ "type": "Feature", "properties": { "TYPEPIPE": "Interstate", "Operator": "WBI Energy Transmission", "Status": "Operating", "Shape_Leng": 0.17992265716, "STATEFP": "38", "STATENS": "01779797", "AFFGEOID": "0400000US38", "GEOID": "38", "STUSPS": "ND", "NAME": "North Dakota", "LSAD": "00", "ALAND": 178707534813, "AWATER": 4403267548 }, "geometry": { "type": "MultiLineString", "coordinates": [ [ [ -99.07456, 47.84896 ], [ -98.987008, 48.006144 ] ] ] } },
{ "type": "Feature", "properties": { "TYPEPIPE": "Interstate", "Operator": "WBI Energy Transmission", "Status": "Operating", "Shape_Leng": 0.23278945846, "STATEFP": "38", "STATENS": "01779797", "AFFGEOID": "0400000US38", "GEOID": "38", "STUSPS": "ND", "NAME": "North Dakota", "LSAD": "00", "ALAND": 178707534813, "AWATER": 4403267548 }, "geometry": { "type": "MultiLineString", "coordinates": [ [ [ -98.987008, 48.006144 ], [ -98.8032, 48.148992 ] ] ] } },
{ "type": "Feature", "properties": { "TYPEPIPE": "Interstate", "Operator": "WBI Energy Transmission", "Status": "Operating", "Shape_Leng": 0.55577193180999995, "STATEFP": "38", "STATENS": "01779797", "AFFGEOID": "0400000US38", "GEOID": "38", "STUSPS": "ND", "NAME": "North Dakota", "LSAD": "00", "ALAND": 178707534813, "AWATER": 4403267548 }, "geometry": { "type": "MultiLineString", "coordinates": [ [ [ -98.8032, 48.148992 ], [ -98.415104, 48.546816 ] ] ] } },
{ "type": "Feature", "properties": { "TYPEPIPE": "Interstate", "Operator": "WBI Energy Transmission", "Status": "Operating", "Shape_Leng": 0.09594093116000001, "STATEFP": "38", "STATENS": "01779797", "AFFGEOID": "0400000US38", "GEOID": "38", "STUSPS": "ND", "NAME": "North Dakota", "LSAD": "00", "ALAND": 178707534813, "AWATER": 4403267548 }, "geometry": { "type": "MultiLineString", "coordinates": [ [ [ -98.415104, 48.546816 ], [ -98.347008, 48.6144 ] ] ] } },
{ "type": "Feature", "properties": { "TYPEPIPE": "Interstate", "Operator": "WBI Energy Transmission", "Status": "Operating", "Shape_Leng": 0.20298523958, "STATEFP": "38", "STATENS": "01779797", "AFFGEOID": "0400000US38", "GEOID": "38", "STUSPS": "ND", "NAME": "North Dakota", "LSAD": "00", "ALAND": 178707534813, "AWATER": 4403267548 }, "geometry": { "type": "MultiLineString", "coordinates": [ [ [ -98.347008, 48.6144 ], [ -98.33728, 48.817152 ] ] ] } },
{ "type": "Feature", "properties": { "TYPEPIPE": "Interstate", "Operator": "WBI Energy Transmission", "Status": "Operating", "Shape_Leng": 0.41970542233000002, "STATEFP": "38", "STATENS": "01779797", "AFFGEOID": "0400000US38", "GEOID": "38", "STUSPS": "ND", "NAME": "North Dakota", "LSAD": "00", "ALAND": 178707534813, "AWATER": 4403267548 }, "geometry": { "type": "MultiLineString", "coordinates": [ [ [ -98.347008, 48.6144 ], [ -97.929728, 48.659456 ] ] ] } },
{ "type": "Feature", "properties": { "TYPEPIPE": "Interstate", "Operator": "WBI Energy Transmission", "Status": "Operating", "Shape_Leng": 0.10708636365, "STATEFP": "38", "STATENS": "01779797", "AFFGEOID": "0400000US38", "GEOID": "38", "STUSPS": "ND", "NAME": "North Dakota", "LSAD": "00", "ALAND": 178707534813, "AWATER": 4403267548 }, "geometry": { "type": "MultiLineString", "coordinates": [ [ [ -97.929728, 48.659456 ], [ -97.871872, 48.749568 ] ] ] } },
{ "type": "Feature", "properties": { "TYPEPIPE": "Interstate", "Operator": "WBI Energy Transmission", "Status": "Operating", "Shape_Leng": 0.31463639357000001, "STATEFP": "38", "STATENS": "01779797", "AFFGEOID": "0400000US38", "GEOID": "38", "STUSPS": "ND", "NAME": "North Dakota", "LSAD": "00", "ALAND": 178707534813, "AWATER": 4403267548 }, "geometry": { "type": "MultiLineString", "coordinates": [ [ [ -97.871872, 48.749568 ], [ -97.5616, 48.801792 ] ] ] } },
{ "type": "Feature", "properties": { "TYPEPIPE": "Interstate", "Operator": "WBI Energy Transmission", "Status": "Operating", "Shape_Leng": 0.18764433284000001, "STATEFP": "38", "STATENS": "01779797", "AFFGEOID": "0400000US38", "GEOID": "38", "STUSPS": "ND", "NAME": "North Dakota", "LSAD": "00", "ALAND": 178707534813, "AWATER": 4403267548 }, "geometry": { "type": "MultiLineString", "coordinates": [ [ [ -97.871872, 48.749568 ], [ -97.8816, 48.93696 ] ] ] } },
{ "type": "Feature", "properties": { "TYPEPIPE": "Interstate", "Operator": "WBI Energy Transmission", "Status": "Operating", "Shape_Leng": 0.16897241166, "STATEFP": "38", "STATENS": "01779797", "AFFGEOID": "0400000US38", "GEOID": "38", "STUSPS": "ND", "NAME": "North Dakota", "LSAD": "00", "ALAND": 178707534813, "AWATER": 4403267548 }, "geometry": { "type": "MultiLineString", "coordinates": [ [ [ -97.929728, 48.659456 ], [ -97.803776, 48.546816 ] ] ] } },
{ "type": "Feature", "properties": { "TYPEPIPE": "Interstate", "Operator": "WBI Energy Transmission", "Status": "Operating", "Shape_Leng": 0.17174528488, "STATEFP": "38", "STATENS": "01779797", "AFFGEOID": "0400000US38", "GEOID": "38", "STUSPS": "ND", "NAME": "North Dakota", "LSAD": "00", "ALAND": 178707534813, "AWATER": 4403267548 }, "geometry": { "type": "MultiLineString", "coordinates": [ [ [ -97.803776, 48.546816 ], [ -97.649152, 48.472064 ] ] ] } },
{ "type": "Feature", "properties": { "TYPEPIPE": "Interstate", "Operator": "WBI Energy Transmission", "Status": "Operating", "Shape_Leng": 0.39444109157000001, "STATEFP": "38", "STATENS": "01779797", "AFFGEOID": "0400000US38", "GEOID": "38", "STUSPS": "ND", "NAME": "North Dakota", "LSAD": "00", "ALAND": 178707534813, "AWATER": 4403267548 }, "geometry": { "type": "MultiLineString", "coordinates": [ [ [ -97.649152, 48.472064 ], [ -97.260544, 48.40448 ] ] ] } },
{ "type": "Feature", "properties": { "TYPEPIPE": "Interstate", "Operator": "WBI Energy Transmission", "Status": "Operating", "Shape_Leng": 0.73731999892, "STATEFP": "38", "STATENS": "01779797", "AFFGEOID": "0400000US38", "GEOID": "38", "STUSPS": "ND", "NAME": "North Dakota", "LSAD": "00", "ALAND": 178707534813, "AWATER": 4403267548 }, "geometry": { "type": "MultiLineString", "coordinates": [ [ [ -99.171328, 46.835712 ], [ -99.028495, 46.834224 ], [ -98.849133, 46.832356 ], [ -98.632144, 46.830096 ], [ -98.576116, 46.829512 ], [ -98.51537, 46.828879 ], [ -98.434048, 46.828032 ] ] ] } },
{ "type": "Feature", "properties": { "TYPEPIPE": "Interstate", "Operator": "WBI Energy Transmission", "Status": "Operating", "Shape_Leng": 0.45721026648000002, "STATEFP": "38", "STATENS": "01779797", "AFFGEOID": "0400000US38", "GEOID": "38", "STUSPS": "ND", "NAME": "North Dakota", "LSAD": "00", "ALAND": 178707534813, "AWATER": 4403267548 }, "geometry": { "type": "MultiLineString", "coordinates": [ [ [ -98.434048, 46.828032 ], [ -98.30902, 46.838287 ], [ -98.07839, 46.857204 ], [ -97.978368, 46.865408 ] ] ] } },
{ "type": "Feature", "properties": { "TYPEPIPE": "Interstate", "Operator": "WBI Energy Transmission", "Status": "Operating", "Shape_Leng": 0.15479045741, "STATEFP": "38", "STATENS": "01779797", "AFFGEOID": "0400000US38", "GEOID": "38", "STUSPS": "ND", "NAME": "North Dakota", "LSAD": "00", "ALAND": 178707534813, "AWATER": 4403267548 }, "geometry": { "type": "MultiLineString", "coordinates": [ [ [ -100.732928, 46.84288 ], [ -100.861202, 46.837015 ], [ -100.876404, 46.83632 ], [ -100.87663, 46.836308 ], [ -100.887552, 46.835712 ] ] ] } },
{ "type": "Feature", "properties": { "TYPEPIPE": "Interstate", "Operator": "WBI Energy Transmission", "Status": "Operating", "Shape_Leng": 0.339968, "STATEFP": "38", "STATENS": "01779797", "AFFGEOID": "0400000US38", "GEOID": "38", "STUSPS": "ND", "NAME": "North Dakota", "LSAD": "00", "ALAND": 178707534813, "AWATER": 4403267548 }, "geometry": { "type": "MultiLineString", "coordinates": [ [ [ -100.887552, 46.835712 ], [ -101.22752, 46.835712 ] ] ] } },
{ "type": "Feature", "properties": { "TYPEPIPE": "Interstate", "Operator": "WBI Energy Transmission", "Status": "Operating", "Shape_Leng": 0.475136, "STATEFP": "38", "STATENS": "01779797", "AFFGEOID": "0400000US38", "GEOID": "38", "STUSPS": "ND", "NAME": "North Dakota", "LSAD": "00", "ALAND": 178707534813, "AWATER": 4403267548 }, "geometry": { "type": "MultiLineString", "coordinates": [ [ [ -102.09024, 46.835712 ], [ -102.30891, 46.835712 ], [ -102.418486, 46.835712 ], [ -102.565376, 46.835712 ] ] ] } },
{ "type": "Feature", "properties": { "TYPEPIPE": "Interstate", "Operator": "WBI Energy Transmission", "Status": "Operating", "Shape_Leng": 0.210432, "STATEFP": "38", "STATENS": "01779797", "AFFGEOID": "0400000US38", "GEOID": "38", "STUSPS": "ND", "NAME": "North Dakota", "LSAD": "00", "ALAND": 178707534813, "AWATER": 4403267548 }, "geometry": { "type": "MultiLineString", "coordinates": [ [ [ -102.565376, 46.835712 ], [ -102.565376, 46.62528 ] ] ] } },
{ "type": "Feature", "properties": { "TYPEPIPE": "Interstate", "Operator": "WBI Energy Transmission", "Status": "Operating", "Shape_Leng": 0.09728, "STATEFP": "38", "STATENS": "01779797", "AFFGEOID": "0400000US38", "GEOID": "38", "STUSPS": "ND", "NAME": "North Dakota", "LSAD": "00", "ALAND": 178707534813, "AWATER": 4403267548 }, "geometry": { "type": "MultiLineString", "coordinates": [ [ [ -102.565376, 46.62528 ], [ -102.565376, 46.528 ] ] ] } },
{ "type": "Feature", "properties": { "TYPEPIPE": "Interstate", "Operator": "WBI Energy Transmission", "Status": "Operating", "Shape_Leng": 0.137984, "STATEFP": "38", "STATENS": "01779797", "AFFGEOID": "0400000US38", "GEOID": "38", "STUSPS": "ND", "NAME": "North Dakota", "LSAD": "00", "ALAND": 178707534813, "AWATER": 4403267548 }, "geometry": { "type": "MultiLineString", "coordinates": [ [ [ -102.565376, 46.835712 ], [ -102.70336, 46.835712 ] ] ] } },
{ "type": "Feature", "properties": { "TYPEPIPE": "Interstate", "Operator": "WBI Energy Transmission", "Status": "Operating", "Shape_Leng": 0.14529708446, "STATEFP": "38", "STATENS": "01779797", "AFFGEOID": "0400000US38", "GEOID": "38", "STUSPS": "ND", "NAME": "North Dakota", "LSAD": "00", "ALAND": 178707534813, "AWATER": 4403267548 }, "geometry": { "type": "MultiLineString", "coordinates": [ [ [ -103.031296, 46.835712 ], [ -103.002112, 46.978048 ] ] ] } },
{ "type": "Feature", "properties": { "TYPEPIPE": "Interstate", "Operator": "WBI Energy Transmission", "Status": "Operating", "Shape_Leng": 0.15120739199, "STATEFP": "38", "STATENS": "01779797", "AFFGEOID": "0400000US38", "GEOID": "38", "STUSPS": "ND", "NAME": "North Dakota", "LSAD": "00", "ALAND": 178707534813, "AWATER": 4403267548 }, "geometry": { "type": "MultiLineString", "coordinates": [ [ [ -103.002112, 46.978048 ], [ -103.021056, 47.128064 ] ] ] } },
{ "type": "Feature", "properties": { "TYPEPIPE": "Interstate", "Operator": "WBI Energy Transmission", "Status": "Operating", "Shape_Leng": 0.194048, "STATEFP": "38", "STATENS": "01779797", "AFFGEOID": "0400000US38", "GEOID": "38", "STUSPS": "ND", "NAME": "North Dakota", "LSAD": "00", "ALAND": 178707534813, "AWATER": 4403267548 }, "geometry": { "type": "MultiLineString", "coordinates": [ [ [ -103.021056, 47.128064 ], [ -103.215104, 47.128064 ] ] ] } },
{ "type": "Feature", "properties": { "TYPEPIPE": "Interstate", "Operator": "WBI Energy Transmission", "Status": "Operating", "Shape_Leng": 0.18257161891000001, "STATEFP": "38", "STATENS": "01779797", "AFFGEOID": "0400000US38", "GEOID": "38", "STUSPS": "ND", "NAME": "North Dakota", "LSAD": "00", "ALAND": 178707534813, "AWATER": 4403267548 }, "geometry": { "type": "MultiLineString", "coordinates": [ [ [ -103.021056, 47.128064 ], [ -102.991872, 47.308288 ] ] ] } },
{ "type": "Feature", "properties": { "TYPEPIPE": "Interstate", "Operator": "WBI Energy Transmission", "Status": "Operating", "Shape_Leng": 0.25617173223, "STATEFP": "38", "STATENS": "01779797", "AFFGEOID": "0400000US38", "GEOID": "38", "STUSPS": "ND", "NAME": "North Dakota", "LSAD": "00", "ALAND": 178707534813, "AWATER": 4403267548 }, "geometry": { "type": "MultiLineString", "coordinates": [ [ [ -102.991872, 47.308288 ], [ -102.745335, 47.377883 ] ] ] } },
{ "type": "Feature", "properties": { "TYPEPIPE": "Interstate", "Operator": "WBI Energy Transmission", "Status": "Operating", "Shape_Leng": 0.19368832101, "STATEFP": "38", "STATENS": "01779797", "AFFGEOID": "0400000US38", "GEOID": "38", "STUSPS": "ND", "NAME": "North Dakota", "LSAD": "00", "ALAND": 178707534813, "AWATER": 4403267548 }, "geometry": { "type": "MultiLineString", "coordinates": [ [ [ -103.031296, 46.835712 ], [ -103.134323, 46.831624 ], [ -103.224832, 46.828032 ] ] ] } },
{ "type": "Feature", "properties": { "TYPEPIPE": "Interstate", "Operator": "WBI Energy Transmission", "Status": "Operating", "Shape_Leng": 0.10929970891, "STATEFP": "38", "STATENS": "01779797", "AFFGEOID": "0400000US38", "GEOID": "38", "STUSPS": "ND", "NAME": "North Dakota", "LSAD": "00", "ALAND": 178707534813, "AWATER": 4403267548 }, "geometry": { "type": "MultiLineString", "coordinates": [ [ [ -102.565376, 46.528 ], [ -102.536704, 46.422528 ] ] ] } },
{ "type": "Feature", "properties": { "TYPEPIPE": "Interstate", "Operator": "WBI Energy Transmission", "Status": "Operating", "Shape_Leng": 0.20579661509, "STATEFP": "38", "STATENS": "01779797", "AFFGEOID": "0400000US38", "GEOID": "38", "STUSPS": "ND", "NAME": "North Dakota", "LSAD": "00", "ALAND": 178707534813, "AWATER": 4403267548 }, "geometry": { "type": "MultiLineString", "coordinates": [ [ [ -102.536704, 46.422528 ], [ -102.342144, 46.355456 ] ] ] } },
{ "type": "Feature", "properties": { "TYPEPIPE": "Interstate", "Operator": "WBI Energy Transmission", "Status": "Operating", "Shape_Leng": 0.26225647587000001, "STATEFP": "38", "STATENS": "01779797", "AFFGEOID": "0400000US38", "GEOID": "38", "STUSPS": "ND", "NAME": "North Dakota", "LSAD": "00", "ALAND": 178707534813, "AWATER": 4403267548 }, "geometry": { "type": "MultiLineString", "coordinates": [ [ [ -102.565376, 46.528 ], [ -102.82752, 46.52032 ] ] ] } },
{ "type": "Feature", "properties": { "TYPEPIPE": "Interstate", "Operator": "WBI Energy Transmission", "Status": "Operating", "Shape_Leng": 0.14097694698, "STATEFP": "38", "STATENS": "01779797", "AFFGEOID": "0400000US38", "GEOID": "38", "STUSPS": "ND", "NAME": "North Dakota", "LSAD": "00", "ALAND": 178707534813, "AWATER": 4403267548 }, "geometry": { "type": "MultiLineString", "coordinates": [ [ [ -104.043239680546122, 47.69133536978385 ], [ -104.01387, 47.687403 ] ] ] } },
{ "type": "Feature", "properties": { "TYPEPIPE": "Interstate", "Operator": "WBI Energy Transmission", "Status": "Operating", "Shape_Leng": 0.17251437134, "STATEFP": "38", "STATENS": "01779797", "AFFGEOID": "0400000US38", "GEOID": "38", "STUSPS": "ND", "NAME": "North Dakota", "LSAD": "00", "ALAND": 178707534813, "AWATER": 4403267548 }, "geometry": { "type": "MultiLineString", "coordinates": [ [ [ -104.042610225560168, 47.827863675514756 ], [ -104.037376, 47.8336 ] ] ] } },
{ "type": "Feature", "properties": { "TYPEPIPE": "Interstate", "Operator": "WBI Energy Transmission", "Status": "Operating", "Shape_Leng": 0.15244902099, "STATEFP": "38", "STATENS": "01779797", "AFFGEOID": "0400000US38", "GEOID": "38", "STUSPS": "ND", "NAME": "North Dakota", "LSAD": "00", "ALAND": 178707534813, "AWATER": 4403267548 }, "geometry": { "type": "MultiLineString", "coordinates": [ [ [ -104.037376, 47.8336 ], [ -103.92064, 47.931648 ] ] ] } },
{ "type": "Feature", "properties": { "TYPEPIPE": "Interstate", "Operator": "WBI Energy Transmission", "Status": "Operating", "Shape_Leng": 0.20310401765, "STATEFP": "38", "STATENS": "01779797", "AFFGEOID": "0400000US38", "GEOID": "38", "STUSPS": "ND", "NAME": "North Dakota", "LSAD": "00", "ALAND": 178707534813, "AWATER": 4403267548 }, "geometry": { "type": "MultiLineString", "coordinates": [ [ [ -103.863296, 47.94624 ], [ -103.76291, 47.896893 ], [ -103.681024, 47.85664 ] ] ] } },
{ "type": "Feature", "properties": { "TYPEPIPE": "Interstate", "Operator": "WBI Energy Transmission", "Status": "Operating", "Shape_Leng": 0.20036477455000001, "STATEFP": "38", "STATENS": "01779797", "AFFGEOID": "0400000US38", "GEOID": "38", "STUSPS": "ND", "NAME": "North Dakota", "LSAD": "00", "ALAND": 178707534813, "AWATER": 4403267548 }, "geometry": { "type": "MultiLineString", "coordinates": [ [ [ -103.681024, 47.85664 ], [ -103.593472, 47.676416 ] ] ] } },
{ "type": "Feature", "properties": { "TYPEPIPE": "Interstate", "Operator": "WBI Energy Transmission", "Status": "Operating", "Shape_Leng": 0.44317378464000001, "STATEFP": "38", "STATENS": "01779797", "AFFGEOID": "0400000US38", "GEOID": "38", "STUSPS": "ND", "NAME": "North Dakota", "LSAD": "00", "ALAND": 178707534813, "AWATER": 4403267548 }, "geometry": { "type": "MultiLineString", "coordinates": [ [ [ -103.681024, 47.85664 ], [ -103.406682, 47.809362 ], [ -103.244288, 47.781376 ] ] ] } },
{ "type": "Feature", "properties": { "TYPEPIPE": "Interstate", "Operator": "WBI Energy Transmission", "Status": "Operating", "Shape_Leng": 0.26273932402, "STATEFP": "38", "STATENS": "01779797", "AFFGEOID": "0400000US38", "GEOID": "38", "STUSPS": "ND", "NAME": "North Dakota", "LSAD": "00", "ALAND": 178707534813, "AWATER": 4403267548 }, "geometry": { "type": "MultiLineString", "coordinates": [ [ [ -103.863296, 47.94624 ], [ -103.622656, 48.051712 ] ] ] } },
{ "type": "Feature", "properties": { "TYPEPIPE": "Interstate", "Operator": "WBI Energy Transmission", "Status": "Operating", "Shape_Leng": 0.05395469507, "STATEFP": "38", "STATENS": "01779797", "AFFGEOID": "0400000US38", "GEOID": "38", "STUSPS": "ND", "NAME": "North Dakota", "LSAD": "00", "ALAND": 178707534813, "AWATER": 4403267548 }, "geometry": { "type": "MultiLineString", "coordinates": [ [ [ -103.622656, 48.051712 ], [ -103.661568, 48.089088 ] ] ] } },
{ "type": "Feature", "properties": { "TYPEPIPE": "Interstate", "Operator": "WBI Energy Transmission", "Status": "Operating", "Shape_Leng": 0.09218844089, "STATEFP": "38", "STATENS": "01779797", "AFFGEOID": "0400000US38", "GEOID": "38", "STUSPS": "ND", "NAME": "North Dakota", "LSAD": "00", "ALAND": 178707534813, "AWATER": 4403267548 }, "geometry": { "type": "MultiLineString", "coordinates": [ [ [ -103.661568, 48.089088 ], [ -103.664371, 48.102091 ], [ -103.681024, 48.1792 ] ] ] } },
{ "type": "Feature", "properties": { "TYPEPIPE": "Interstate", "Operator": "WBI Energy Transmission", "Status": "Operating", "Shape_Leng": 0.81903991588000002, "STATEFP": "38", "STATENS": "01779797", "AFFGEOID": "0400000US38", "GEOID": "38", "STUSPS": "ND", "NAME": "North Dakota", "LSAD": "00", "ALAND": 178707534813, "AWATER": 4403267548 }, "geometry": { "type": "MultiLineString", "coordinates": [ [ [ -103.681024, 48.1792 ], [ -103.621614109999939, 48.229327917000035 ], [ -103.123803003999953, 48.321946935000028 ], [ -102.974308040999972, 48.390869451000064 ], [ -102.905260497999961, 48.404268903000066 ] ] ] } },
{ "type": "Feature", "properties": { "TYPEPIPE": "Interstate", "Operator": "WBI Energy Transmission", "Status": "Operating", "Shape_Leng": 0.18478164411, "STATEFP": "38", "STATENS": "01779797", "AFFGEOID": "0400000US38", "GEOID": "38", "STUSPS": "ND", "NAME": "North Dakota", "LSAD": "00", "ALAND": 178707534813, "AWATER": 4403267548 }, "geometry": { "type": "MultiLineString", "coordinates": [ [ [ -103.224832, 46.828032 ], [ -103.387237, 46.747081 ], [ -103.390208, 46.7456 ] ] ] } },
{ "type": "Feature", "properties": { "TYPEPIPE": "Interstate", "Operator": "WBI Energy Transmission", "Status": "Operating", "Shape_Leng": 0.212992, "STATEFP": "38", "STATENS": "01779797", "AFFGEOID": "0400000US38", "GEOID": "38", "STUSPS": "ND", "NAME": "North Dakota", "LSAD": "00", "ALAND": 178707534813, "AWATER": 4403267548 }, "geometry": { "type": "MultiLineString", "coordinates": [ [ [ -103.390208, 46.7456 ], [ -103.6032, 46.7456 ] ] ] } },
{ "type": "Feature", "properties": { "TYPEPIPE": "Interstate", "Operator": "WBI Energy Transmission", "Status": "Operating", "Shape_Leng": 0.32, "STATEFP": "38", "STATENS": "01779797", "AFFGEOID": "0400000US38", "GEOID": "38", "STUSPS": "ND", "NAME": "North Dakota", "LSAD": "00", "ALAND": 178707534813, "AWATER": 4403267548 }, "geometry": { "type": "MultiLineString", "coordinates": [ [ [ -103.6032, 46.7456 ], [ -103.627036, 46.7456 ], [ -103.9232, 46.7456 ] ] ] } },
{ "type": "Feature", "properties": { "TYPEPIPE": "Interstate", "Operator": "WBI Energy Transmission", "Status": "Operating", "Shape_Leng": 0.164864, "STATEFP": "38", "STATENS": "01779797", "AFFGEOID": "0400000US38", "GEOID": "38", "STUSPS": "ND", "NAME": "North Dakota", "LSAD": "00", "ALAND": 178707534813, "AWATER": 4403267548 }, "geometry": { "type": "MultiLineString", "coordinates": [ [ [ -103.9232, 46.7456 ], [ -103.9232, 46.863431 ], [ -103.9232, 46.910464 ] ] ] } },
{ "type": "Feature", "properties": { "TYPEPIPE": "Interstate", "Operator": "WBI Energy Transmission", "Status": "Operating", "Shape_Leng": 0.12952385714, "STATEFP": "38", "STATENS": "01779797", "AFFGEOID": "0400000US38", "GEOID": "38", "STUSPS": "ND", "NAME": "North Dakota", "LSAD": "00", "ALAND": 178707534813, "AWATER": 4403267548 }, "geometry": { "type": "MultiLineString", "coordinates": [ [ [ -103.9232, 46.910464 ], [ -104.045519001169808, 46.939800909600358 ] ] ] } },
{ "type": "Feature", "properties": { "TYPEPIPE": "Interstate", "Operator": "WBI Energy Transmission", "Status": "Operating", "Shape_Leng": 0.13589718469000001, "STATEFP": "38", "STATENS": "01779797", "AFFGEOID": "0400000US38", "GEOID": "38", "STUSPS": "ND", "NAME": "North Dakota", "LSAD": "00", "ALAND": 178707534813, "AWATER": 4403267548 }, "geometry": { "type": "MultiLineString", "coordinates": [ [ [ -103.9232, 46.910464 ], [ -103.793818, 46.917788 ], [ -103.78752, 46.918144 ] ] ] } },
{ "type": "Feature", "properties": { "TYPEPIPE": "Interstate", "Operator": "WBI Energy Transmission", "Status": "Operating", "Shape_Leng": 0.1364900198, "STATEFP": "38", "STATENS": "01779797", "AFFGEOID": "0400000US38", "GEOID": "38", "STUSPS": "ND", "NAME": "North Dakota", "LSAD": "00", "ALAND": 178707534813, "AWATER": 4403267548 }, "geometry": { "type": "MultiLineString", "coordinates": [ [ [ -103.9232, 46.7456 ], [ -104.045569505502726, 46.732208801031248 ] ] ] } },
{ "type": "Feature", "properties": { "TYPEPIPE": "Interstate", "Operator": "WBI Energy Transmission", "Status": "Operating", "Shape_Leng": 0.08838490369, "STATEFP": "38", "STATENS": "01779797", "AFFGEOID": "0400000US38", "GEOID": "38", "STUSPS": "ND", "NAME": "North Dakota", "LSAD": "00", "ALAND": 178707534813, "AWATER": 4403267548 }, "geometry": { "type": "MultiLineString", "coordinates": [ [ [ -104.045465475836679, 46.273162652373657 ], [ -104.022595, 46.277199 ], [ -103.962112, 46.287872 ] ] ] } },
{ "type": "Feature", "properties": { "TYPEPIPE": "Interstate", "Operator": "WBI Energy Transmission", "Status": "Operating", "Shape_Leng": 0.09245109583, "STATEFP": "38", "STATENS": "01779797", "AFFGEOID": "0400000US38", "GEOID": "38", "STUSPS": "ND", "NAME": "North Dakota", "LSAD": "00", "ALAND": 178707534813, "AWATER": 4403267548 }, "geometry": { "type": "MultiLineString", "coordinates": [ [ [ -103.962112, 46.287872 ], [ -103.90949, 46.30572 ], [ -103.87456, 46.317568 ] ] ] } },
{ "type": "Feature", "properties": { "TYPEPIPE": "Interstate", "Operator": "WBI Energy Transmission", "Status": "Operating", "Shape_Leng": 0.06093660443, "STATEFP": "38", "STATENS": "01779797", "AFFGEOID": "0400000US38", "GEOID": "38", "STUSPS": "ND", "NAME": "North Dakota", "LSAD": "00", "ALAND": 178707534813, "AWATER": 4403267548 }, "geometry": { "type": "MultiLineString", "coordinates": [ [ [ -103.87456, 46.317568 ], [ -103.826432, 46.280192 ] ] ] } },
{ "type": "Feature", "properties": { "TYPEPIPE": "Interstate", "Operator": "WBI Energy Transmission", "Status": "Operating", "Shape_Leng": 0.40488097593, "STATEFP": "38", "STATENS": "01779797", "AFFGEOID": "0400000US38", "GEOID": "38", "STUSPS": "ND", "NAME": "North Dakota", "LSAD": "00", "ALAND": 178707534813, "AWATER": 4403267548 }, "geometry": { "type": "MultiLineString", "coordinates": [ [ [ -103.826432, 46.280192 ], [ -103.65016, 46.246843 ], [ -103.428608, 46.204928 ] ] ] } },
{ "type": "Feature", "properties": { "TYPEPIPE": "Interstate", "Operator": "WBI Energy Transmission", "Status": "Operating", "Shape_Leng": 0.12697455957000001, "STATEFP": "38", "STATENS": "01779797", "AFFGEOID": "0400000US38", "GEOID": "38", "STUSPS": "ND", "NAME": "North Dakota", "LSAD": "00", "ALAND": 178707534813, "AWATER": 4403267548 }, "geometry": { "type": "MultiLineString", "coordinates": [ [ [ -104.04494, 46.052288 ], [ -104.037014, 46.039647 ], [ -104.021002, 46.011527 ], [ -103.98329046789452, 45.945298851250755 ] ] ] } },
{ "type": "Feature", "properties": { "TYPEPIPE": "Interstate", "Operator": "WBI Energy Transmission", "Status": "Operating", "Shape_Leng": 0.13529318683, "STATEFP": "38", "STATENS": "01779797", "AFFGEOID": "0400000US38", "GEOID": "38", "STUSPS": "ND", "NAME": "North Dakota", "LSAD": "00", "ALAND": 178707534813, "AWATER": 4403267548 }, "geometry": { "type": "MultiLineString", "coordinates": [ [ [ -104.045450411540983, 46.053636872302683 ], [ -104.04494, 46.052288 ] ] ] } },
{ "type": "Feature", "properties": { "TYPEPIPE": "Interstate", "Operator": "WBI Energy Transmission", "Status": "Operating", "Shape_Leng": 0.327936, "STATEFP": "38", "STATENS": "01779797", "AFFGEOID": "0400000US38", "GEOID": "38", "STUSPS": "ND", "NAME": "North Dakota", "LSAD": "00", "ALAND": 178707534813, "AWATER": 4403267548 }, "geometry": { "type": "MultiLineString", "coordinates": [ [ [ -102.70336, 46.835712 ], [ -102.823993, 46.835712 ], [ -102.925773, 46.835712 ], [ -103.031296, 46.835712 ] ] ] } },
{ "type": "Feature", "properties": { "TYPEPIPE": "Interstate", "Operator": "WBI Energy Transmission", "Status": "Operating", "Shape_Leng": 0.682850563, "STATEFP": "38", "STATENS": "01779797", "AFFGEOID": "0400000US38", "GEOID": "38", "STUSPS": "ND", "NAME": "North Dakota", "LSAD": "00", "ALAND": 178707534813, "AWATER": 4403267548 }, "geometry": { "type": "MultiLineString", "coordinates": [ [ [ -101.22752, 46.835712 ], [ -101.451644, 46.834237 ], [ -101.576765, 46.833414 ], [ -101.910363, 46.833371 ] ] ] } },
{ "type": "Feature", "properties": { "TYPEPIPE": "Interstate", "Operator": "WBI Energy Transmission", "Status": "Operating", "Shape_Leng": 0.17989223277, "STATEFP": "38", "STATENS": "01779797", "AFFGEOID": "0400000US38", "GEOID": "38", "STUSPS": "ND", "NAME": "North Dakota", "LSAD": "00", "ALAND": 178707534813, "AWATER": 4403267548 }, "geometry": { "type": "MultiLineString", "coordinates": [ [ [ -101.910363, 46.833371 ], [ -101.958663, 46.834 ], [ -102.09024, 46.835712 ] ] ] } },
{ "type": "Feature", "properties": { "TYPEPIPE": "Interstate", "Operator": "WBI Energy Transmission", "Status": "Operating", "Shape_Leng": 0.05917145258, "STATEFP": "38", "STATENS": "01779797", "AFFGEOID": "0400000US38", "GEOID": "38", "STUSPS": "ND", "NAME": "North Dakota", "LSAD": "00", "ALAND": 178707534813, "AWATER": 4403267548 }, "geometry": { "type": "MultiLineString", "coordinates": [ [ [ -103.92064, 47.931648 ], [ -103.863296, 47.94624 ] ] ] } },
{ "type": "Feature", "properties": { "TYPEPIPE": "Interstate", "Operator": "WBI Energy Transmission", "Status": "Operating", "Shape_Leng": 0.93898662250999998, "STATEFP": "38", "STATENS": "01779797", "AFFGEOID": "0400000US38", "GEOID": "38", "STUSPS": "ND", "NAME": "North Dakota", "LSAD": "00", "ALAND": 178707534813, "AWATER": 4403267548 }, "geometry": { "type": "MultiLineString", "coordinates": [ [ [ -97.978368, 46.865408 ], [ -97.519215, 46.874782 ], [ -97.46938, 46.875799 ], [ -97.346942, 46.878299 ], [ -97.167258, 46.881967 ], [ -97.039577, 46.884574 ] ] ] } },
{ "type": "Feature", "properties": { "TYPEPIPE": "Interstate", "Operator": "WBI Energy Transmission", "Status": "Operating", "Shape_Leng": 0.00020955429, "STATEFP": "38", "STATENS": "01779797", "AFFGEOID": "0400000US38", "GEOID": "38", "STUSPS": "ND", "NAME": "North Dakota", "LSAD": "00", "ALAND": 178707534813, "AWATER": 4403267548 }, "geometry": { "type": "MultiLineString", "coordinates": [ [ [ -100.87663, 46.836308 ], [ -100.876682, 46.836511 ] ] ] } },
{ "type": "Feature", "properties": { "TYPEPIPE": "Interstate", "Operator": "WBI Energy Transmission", "Status": "Operating", "Shape_Leng": 0.03647143718, "STATEFP": "38", "STATENS": "01779797", "AFFGEOID": "0400000US38", "GEOID": "38", "STUSPS": "ND", "NAME": "North Dakota", "LSAD": "00", "ALAND": 178707534813, "AWATER": 4403267548 }, "geometry": { "type": "MultiLineString", "coordinates": [ [ [ -100.876682, 46.836511 ], [ -100.884745, 46.87208 ] ] ] } },
{ "type": "Feature", "properties": { "TYPEPIPE": "Interstate", "Operator": "WBI Energy Transmission", "Status": "Operating", "Shape_Leng": 0.00027986068, "STATEFP": "38", "STATENS": "01779797", "AFFGEOID": "0400000US38", "GEOID": "38", "STUSPS": "ND", "NAME": "North Dakota", "LSAD": "00", "ALAND": 178707534813, "AWATER": 4403267548 }, "geometry": { "type": "MultiLineString", "coordinates": [ [ [ -103.664371, 48.102091 ], [ -103.664632, 48.10199 ] ] ] } },
{ "type": "Feature", "properties": { "TYPEPIPE": "Interstate", "Operator": "WBI Energy Transmission", "Status": "Operating", "Shape_Leng": 0.11672756554, "STATEFP": "38", "STATENS": "01779797", "AFFGEOID": "0400000US38", "GEOID": "38", "STUSPS": "ND", "NAME": "North Dakota", "LSAD": "00", "ALAND": 178707534813, "AWATER": 4403267548 }, "geometry": { "type": "MultiLineString", "coordinates": [ [ [ -103.664632, 48.10199 ], [ -103.70433, 48.092782 ], [ -103.778341, 48.075616 ] ] ] } },
{ "type": "Feature", "properties": { "TYPEPIPE": "Interstate", "Operator": "Viking Gas Transmission Co", "Status": "Operating", "Shape_Leng": 0.31029501292, "STATEFP": "38", "STATENS": "01779797", "AFFGEOID": "0400000US38", "GEOID": "38", "STUSPS": "ND", "NAME": "North Dakota", "LSAD": "00", "ALAND": 178707534813, "AWATER": 4403267548 }, "geometry": { "type": "MultiLineString", "coordinates": [ [ [ -97.045752836135321, 47.957984453057108 ], [ -97.05258, 47.957943 ] ] ] } },
{ "type": "Feature", "properties": { "TYPEPIPE": "Interstate", "Operator": "Viking Gas Transmission Co", "Status": "Operating", "Shape_Leng": 0.0176730625, "STATEFP": "38", "STATENS": "01779797", "AFFGEOID": "0400000US38", "GEOID": "38", "STUSPS": "ND", "NAME": "North Dakota", "LSAD": "00", "ALAND": 178707534813, "AWATER": 4403267548 }, "geometry": { "type": "MultiLineString", "coordinates": [ [ [ -97.070253, 47.95799 ], [ -97.05258, 47.957943 ] ] ] } },
{ "type": "Feature", "properties": { "TYPEPIPE": "Interstate", "Operator": "Viking Gas Transmission Co", "Status": "Operating", "Shape_Leng": 0.35065185396999998, "STATEFP": "38", "STATENS": "01779797", "AFFGEOID": "0400000US38", "GEOID": "38", "STUSPS": "ND", "NAME": "North Dakota", "LSAD": "00", "ALAND": 178707534813, "AWATER": 4403267548 }, "geometry": { "type": "MultiLineString", "coordinates": [ [ [ -96.768627340157522, 46.88724004201449 ], [ -96.77322, 46.887204 ] ] ] } },
{ "type": "Feature", "properties": { "TYPEPIPE": "Interstate", "Operator": "Viking Gas Transmission Co", "Status": "Operating", "Shape_Leng": 0.00302200066, "STATEFP": "38", "STATENS": "01779797", "AFFGEOID": "0400000US38", "GEOID": "38", "STUSPS": "ND", "NAME": "North Dakota", "LSAD": "00", "ALAND": 178707534813, "AWATER": 4403267548 }, "geometry": { "type": "MultiLineString", "coordinates": [ [ [ -96.778834, 46.845176 ], [ -96.781856, 46.845174 ] ] ] } },
{ "type": "Feature", "properties": { "TYPEPIPE": "Interstate", "Operator": "Grasslands Pipeline", "Status": "Operating", "Shape_Leng": 2.3400539515899998, "STATEFP": "38", "STATENS": "01779797", "AFFGEOID": "0400000US38", "GEOID": "38", "STUSPS": "ND", "NAME": "North Dakota", "LSAD": "00", "ALAND": 178707534813, "AWATER": 4403267548 }, "geometry": { "type": "MultiLineString", "coordinates": [ [ [ -104.045377898459876, 46.638713183686228 ], [ -104.04474, 46.638783 ] ] ] } },
{ "type": "Feature", "properties": { "TYPEPIPE": "Interstate", "Operator": "Grasslands Pipeline", "Status": "Operating", "Shape_Leng": 1.5666478289800001, "STATEFP": "38", "STATENS": "01779797", "AFFGEOID": "0400000US38", "GEOID": "38", "STUSPS": "ND", "NAME": "North Dakota", "LSAD": "00", "ALAND": 178707534813, "AWATER": 4403267548 }, "geometry": { "type": "MultiLineString", "coordinates": [ [ [ -102.765126, 47.301872 ], [ -102.803634, 47.206817 ], [ -102.784964, 47.135928 ], [ -103.041687, 46.936151 ], [ -103.221341, 46.846254 ], [ -103.396766, 46.750194 ], [ -103.634954, 46.747209 ], [ -103.933329, 46.689807 ], [ -104.04474, 46.638783 ] ] ] } },
{ "type": "Feature", "properties": { "TYPEPIPE": "Interstate", "Operator": "Grasslands Pipeline", "Status": "Operating", "Shape_Leng": 0.02220605886, "STATEFP": "38", "STATENS": "01779797", "AFFGEOID": "0400000US38", "GEOID": "38", "STUSPS": "ND", "NAME": "North Dakota", "LSAD": "00", "ALAND": 178707534813, "AWATER": 4403267548 }, "geometry": { "type": "MultiLineString", "coordinates": [ [ [ -102.765126, 47.301872 ], [ -102.742971, 47.300367 ] ] ] } },
{ "type": "Feature", "properties": { "TYPEPIPE": "Interstate", "Operator": "Bison Pipeline", "Status": "Operating", "Shape_Leng": 2.4261834327799998, "STATEFP": "38", "STATENS": "01779797", "AFFGEOID": "0400000US38", "GEOID": "38", "STUSPS": "ND", "NAME": "North Dakota", "LSAD": "00", "ALAND": 178707534813, "AWATER": 4403267548 }, "geometry": { "type": "MultiLineString", "coordinates": [ [ [ -104.045448379962167, 46.023964473235424 ], [ -103.984565, 46.062678 ], [ -102.535027, 46.509437 ], [ -101.758724, 46.820682 ] ] ] } },
{ "type": "Feature", "properties": { "TYPEPIPE": "Interstate", "Operator": "Alliance Pipeline System", "Status": "Operating", "Shape_Leng": 1.48537932754, "STATEFP": "38", "STATENS": "01779797", "AFFGEOID": "0400000US38", "GEOID": "38", "STUSPS": "ND", "NAME": "North Dakota", "LSAD": "00", "ALAND": 178707534813, "AWATER": 4403267548 }, "geometry": { "type": "MultiLineString", "coordinates": [ [ [ -102.905260497999961, 48.404268903000066 ], [ -102.700988302999974, 48.595627275000027 ], [ -102.537626343999989, 48.639285173000076 ], [ -102.440304325999975, 48.717315613000039 ], [ -102.141386697999948, 48.804383095000048 ], [ -102.009306816, 48.824982238000075 ], [ -101.74862283799996, 48.909578687000085 ], [ -101.626970314999923, 48.939267816000054 ], [ -101.570606667999982, 48.976107064000075 ] ] ] } }
]
}
