{
"type": "FeatureCollection",
"name": "transmission_co_345kV",
"crs": { "type": "name", "properties": { "name": "urn:ogc:def:crs:OGC:1.3:CRS84" } },
"features": [
{ "type": "Feature", "properties": { "objectid": "73158", "id": "205302", "type": "AC; OVERHEAD", "status": "NOT AVAILABLE", "naics_code": "221121", "naics_desc": "ELECTRIC BULK POWER TRANSMISSION AND CONTROL", "source": "IMAGERY", "sourcedate": "2015-09-13T20:00:00-06:00", "val_method": "IMAGERY", "val_date": "2015-09-13T20:00:00-06:00", "owner": "PUBLIC SERVICE CO OF COLORADO", "voltage": 345.0, "volt_class": "345", "inferred": "Y", "sub_1": "RIFLE UTE", "sub_2": "UNKNOWN201522", "shape_lengt": 170.56110536099999, "globalid": "99a43244-b963-4986-8859-f0ca6ec5e4a7", "STATEFP": "08", "STATENS": "01779779", "AFFGEOID": "0400000US08", "GEOID": "08", "STUSPS": "CO", "NAME": "Colorado", "LSAD": "00", "ALAND": 268422891711, "AWATER": 1181621593 }, "geometry": { "type": "MultiLineString", "coordinates": [ [ [ -107.741773096, 39.520390381 ], [ -107.741224168, 39.5208168180001 ], [ -107.741176779, 39.521396619 ] ] ] } },
{ "type": "Feature", "properties": { "objectid": "68491", "id": "200192", "type": "AC; OVERHEAD", "status": "NOT AVAILABLE", "naics_code": "221121", "naics_desc": "ELECTRIC BULK POWER TRANSMISSION AND CONTROL", "source": "IMAGERY", "sourcedate": "2014-06-29T20:00:00-06:00", "val_method": "IMAGERY", "val_date": "2014-06-29T20:00:00-06:00", "owner": "TRI-STATE G & T ASSN, INC", "voltage": 345.0, "volt_class": "345", "inferred": "Y", "sub_1": "CRAIG", "sub_2": "BEARS EARS", "shape_lengt": 1216.3890991180001, "globalid": "69e9c4c1-971a-47b2-a5a1-59343505139d", "STATEFP": "08", "STATENS": "01779779", "AFFGEOID": "0400000US08", "GEOID": "08", "STUSPS": "CO", "NAME": "Colorado", "LSAD": "00", "ALAND": 268422891711, "AWATER": 1181621593 }, "geometry": { "type": "MultiLineString", "coordinates": [ [ [ -107.591734929, 40.472360787000099 ], [ -107.592676207, 40.472922750000102 ], [ -107.593615042, 40.47928682 ], [ -107.593586486, 40.4802842510001 ] ] ] } },
{ "type": "Feature", "properties": { "objectid": "74985", "id": "207348", "type": "AC; OVERHEAD", "status": "NOT AVAILABLE", "naics_code": "221121", "naics_desc": "ELECTRIC BULK POWER TRANSMISSION AND CONTROL", "source": "Regional Map", "sourcedate": "2015-07-20T20:00:00-06:00", "val_method": "IMAGERY/OTHER", "val_date": "2015-07-20T20:00:00-06:00", "owner": "WAPA-- WESTERN AREA POWER ADMINISTRATION", "voltage": 345.0, "volt_class": "345", "inferred": "N", "sub_1": "TAP203975", "sub_2": "RIFLE UTE", "shape_lengt": 7705.2867729785003, "globalid": "4a29420d-8966-426a-abee-609259ea928d", "STATEFP": "08", "STATENS": "01779779", "AFFGEOID": "0400000US08", "GEOID": "08", "STUSPS": "CO", "NAME": "Colorado", "LSAD": "00", "ALAND": 268422891711, "AWATER": 1181621593 }, "geometry": { "type": "MultiLineString", "coordinates": [ [ [ -107.678028643, 39.525296612 ], [ -107.6796615, 39.5230382 ], [ -107.689457, 39.5200679000001 ], [ -107.698203233, 39.519186663 ], [ -107.7089939, 39.518077700000099 ], [ -107.7124531, 39.517438 ], [ -107.722358168, 39.516451936000102 ], [ -107.7317993, 39.5155089 ], [ -107.735406873, 39.516688944000101 ], [ -107.7388469, 39.520113400000099 ], [ -107.7410867, 39.520081500000103 ], [ -107.741773096, 39.520390381 ] ] ] } },
{ "type": "Feature", "properties": { "objectid": "68490", "id": "200191", "type": "AC; OVERHEAD", "status": "NOT AVAILABLE", "naics_code": "221121", "naics_desc": "ELECTRIC BULK POWER TRANSMISSION AND CONTROL", "source": "http://www.oasis.oati.com/PPW/PPWdocs/Transmission_Network_Diagram.pdf", "sourcedate": "2014-06-29T20:00:00-06:00", "val_method": "IMAGERY/OTHER", "val_date": "2014-06-29T20:00:00-06:00", "owner": "PACIFICORP", "voltage": 345.0, "volt_class": "345", "inferred": "N", "sub_1": "PINTO", "sub_2": "FOUR CORNERS", "shape_lengt": 204767.84112778801, "globalid": "f99d5946-c328-4873-a430-3dbb6834afaa", "STATEFP": "08", "STATENS": "01779779", "AFFGEOID": "0400000US08", "GEOID": "08", "STUSPS": "CO", "NAME": "Colorado", "LSAD": "00", "ALAND": 268422891711, "AWATER": 1181621593 }, "geometry": { "type": "MultiLineString", "coordinates": [ [ [ -109.044270979518828, 37.319708323772105 ], [ -109.038040607, 37.314799077 ], [ -109.027995523, 37.306876607000099 ], [ -109.014979017, 37.292818867000101 ], [ -109.004621152, 37.281649273 ], [ -108.995514409, 37.271751264 ], [ -108.976290403, 37.257955059 ], [ -108.960699469, 37.246646222 ], [ -108.959364134, 37.244663889 ], [ -108.959147594, 37.222701511 ], [ -108.959051354, 37.207171696 ], [ -108.958906993, 37.196909343000101 ], [ -108.958846842, 37.175028914 ], [ -108.958714512, 37.15446531 ], [ -108.958618271, 37.144521833000098 ], [ -108.948019805, 37.131316178000098 ], [ -108.938504042, 37.119326478000097 ], [ -108.927941665, 37.1062699330001 ], [ -108.912507122, 37.086858433 ], [ -108.911460508, 37.085534086000102 ], [ -108.899598887, 37.0737962910001 ], [ -108.885247047, 37.059570298 ], [ -108.878534284, 37.052907545 ], [ -108.876982408, 37.051304174 ], [ -108.858287723, 37.039042538 ], [ -108.848002038, 37.032253137000097 ], [ -108.837559962, 37.025338273 ], [ -108.817060771, 37.011775628000102 ], [ -108.797969994666062, 36.999202123573433 ] ] ] } },
{ "type": "Feature", "properties": { "objectid": "68495", "id": "200196", "type": "AC; OVERHEAD", "status": "NOT AVAILABLE", "naics_code": "221121", "naics_desc": "ELECTRIC BULK POWER TRANSMISSION AND CONTROL", "source": "Regional Map", "sourcedate": "2014-06-29T20:00:00-06:00", "val_method": "IMAGERY/OTHER", "val_date": "2014-06-29T20:00:00-06:00", "owner": "TRI-STATE G & T ASSN, INC", "voltage": 345.0, "volt_class": "345", "inferred": "N", "sub_1": "MEEKER", "sub_2": "RIFLE UTE", "shape_lengt": 81695.063989632894, "globalid": "8335f9c8-1ada-4489-9857-4e27ab57be8b", "STATEFP": "08", "STATENS": "01779779", "AFFGEOID": "0400000US08", "GEOID": "08", "STUSPS": "CO", "NAME": "Colorado", "LSAD": "00", "ALAND": 268422891711, "AWATER": 1181621593 }, "geometry": { "type": "MultiLineString", "coordinates": [ [ [ -107.980316515, 40.008499483 ], [ -107.980593984, 40.008204781000103 ], [ -107.982314625, 40.008059421 ], [ -107.982580311, 40.006092186 ], [ -107.980758458, 39.999065886 ], [ -107.981770599, 39.991399125 ], [ -107.9832129, 39.979553209000102 ], [ -107.984427469, 39.969528137000097 ], [ -107.985262486, 39.963186568 ], [ -107.9864391, 39.953993158000102 ], [ -107.983681015, 39.945322291 ], [ -107.981555519, 39.938561356 ], [ -107.979683058, 39.9325661660001 ], [ -107.976355643, 39.9221752 ], [ -107.97339513, 39.912685153 ], [ -107.971737748, 39.906804157000103 ], [ -107.968486245, 39.896807248000101 ], [ -107.964247904, 39.883275127 ], [ -107.962868861, 39.87884797 ], [ -107.964159341, 39.869041190000097 ], [ -107.966006499, 39.857611124000101 ], [ -107.964880492, 39.842575309 ], [ -107.963615315, 39.827128117 ], [ -107.962324835, 39.811084621000099 ], [ -107.961173525, 39.797069005 ], [ -107.959794482, 39.779793406000103 ], [ -107.955416971, 39.761219973 ], [ -107.954543999, 39.749042417000098 ], [ -107.953152305, 39.727697324000097 ], [ -107.94215792, 39.709810612000098 ], [ -107.934731334, 39.69776999 ], [ -107.926861936, 39.684919152000099 ], [ -107.916778479, 39.675454733 ], [ -107.901102941, 39.663515252 ], [ -107.893182936, 39.6568726570001 ], [ -107.887514945, 39.651963349 ], [ -107.885718394, 39.646771183 ], [ -107.88368146, 39.644676671000099 ], [ -107.865361703, 39.638324555000104 ], [ -107.859276203, 39.634612389 ], [ -107.853519651, 39.631942624 ], [ -107.839855744, 39.6242055700001 ], [ -107.828848708, 39.617949033000102 ], [ -107.82535682, 39.616428667 ], [ -107.817512726, 39.61210129 ], [ -107.811945948, 39.608767856 ], [ -107.798370604, 39.600657778 ], [ -107.791854945, 39.595851719000102 ], [ -107.781189507, 39.58801313 ], [ -107.775939024, 39.584434773 ], [ -107.771384388, 39.581373035000098 ], [ -107.759896585, 39.573601073000098 ], [ -107.756670385, 39.571484842000103 ], [ -107.753077283, 39.56838352 ], [ -107.746169419, 39.5539771360001 ], [ -107.74581517, 39.537674904 ], [ -107.745764563, 39.526960760000101 ], [ -107.745625393, 39.520461211000097 ], [ -107.743917405, 39.520412413 ], [ -107.742513059, 39.520705200000101 ], [ -107.741773096, 39.520390381 ] ] ] } },
{ "type": "Feature", "properties": { "objectid": "69895", "id": "201652", "type": "AC; OVERHEAD", "status": "NOT AVAILABLE", "naics_code": "221121", "naics_desc": "ELECTRIC BULK POWER TRANSMISSION AND CONTROL", "source": "Regional Map", "sourcedate": "2014-06-17T20:00:00-06:00", "val_method": "IMAGERY/OTHER", "val_date": "2014-06-17T20:00:00-06:00", "owner": "TRI-STATE G & T ASSN, INC", "voltage": 345.0, "volt_class": "345", "inferred": "N", "sub_1": "CRAIG", "sub_2": "TAP203975", "shape_lengt": 198972.70758830899, "globalid": "35d306b9-b4e9-4b20-b508-0c2d265a195e", "STATEFP": "08", "STATENS": "01779779", "AFFGEOID": "0400000US08", "GEOID": "08", "STUSPS": "CO", "NAME": "Colorado", "LSAD": "00", "ALAND": 268422891711, "AWATER": 1181621593 }, "geometry": { "type": "MultiLineString", "coordinates": [ [ [ -107.591734929, 40.472360787000099 ], [ -107.5902551, 40.473251800000099 ], [ -107.5902633, 40.479518400000103 ], [ -107.580685, 40.4798759 ], [ -107.5677554, 40.47984 ], [ -107.5587543, 40.477280800000102 ], [ -107.505936098, 40.433189571000099 ], [ -107.500357, 40.4284358 ], [ -107.443263, 40.4019221 ], [ -107.440023036, 40.396108505 ], [ -107.4355888, 40.388178400000101 ], [ -107.434267475, 40.384811566 ], [ -107.433012065, 40.3829778570001 ], [ -107.436264922, 40.381725633 ], [ -107.4466208, 40.377869700000097 ], [ -107.4565988, 40.3678302000001 ], [ -107.4974484, 40.3465602 ], [ -107.524405187, 40.325606192000102 ], [ -107.5260975, 40.3242851 ], [ -107.5302247, 40.3226893 ], [ -107.5612756, 40.323989100000098 ], [ -107.6046311, 40.3126134 ], [ -107.6379792, 40.282083100000101 ], [ -107.6515268, 40.2313477000001 ], [ -107.6606777, 40.2152364 ], [ -107.6962294, 40.193085300000099 ], [ -107.7274322, 40.168004300000099 ], [ -107.742026, 40.1627510000001 ], [ -107.7498186, 40.1572302000001 ], [ -107.7566442, 40.1423425 ], [ -107.7714655, 40.1224746 ], [ -107.7923413, 40.106892200000097 ], [ -107.7963756, 40.099488700000101 ], [ -107.8072988, 40.085951200000103 ], [ -107.8225085, 40.070788100000101 ], [ -107.8463694, 40.046844700000101 ], [ -107.8864402, 40.0252498 ], [ -107.9151857, 40.018660700000098 ], [ -107.9190662, 40.017785800000098 ], [ -107.9508264, 40.014487600000102 ], [ -107.9623682, 40.015487500000098 ], [ -107.9711558, 40.014720000000104 ], [ -107.9745367, 40.013022400000096 ], [ -107.9791871, 40.007735 ], [ -107.97989, 40.0021131 ], [ -107.9859893, 39.954017100000101 ], [ -107.96847873, 39.8985405540001 ], [ -107.9620808, 39.8782402000001 ], [ -107.9654717, 39.857468100000098 ], [ -107.962060666, 39.815286053000101 ], [ -107.9592484, 39.7801044 ], [ -107.9548285, 39.7608569000001 ], [ -107.9526389, 39.7277779 ], [ -107.930916709, 39.692385098 ], [ -107.9264841, 39.685133300000103 ], [ -107.922236473, 39.681226179000099 ], [ -107.916398, 39.6757386 ], [ -107.899939309, 39.663191261000101 ], [ -107.8941841, 39.658387800000099 ], [ -107.886648, 39.6518192 ], [ -107.885309, 39.646932 ], [ -107.8834035, 39.644998800000103 ], [ -107.865809299, 39.638887412 ], [ -107.8651683, 39.6386669 ], [ -107.860291387, 39.635697952 ], [ -107.8589969, 39.634919 ], [ -107.856634833, 39.633779929000099 ], [ -107.8525182, 39.6318426 ], [ -107.8290247, 39.6185039000001 ], [ -107.8124429, 39.6127602 ], [ -107.8091844, 39.610473500000097 ], [ -107.8059142, 39.6089823 ], [ -107.8024337, 39.608707900000098 ], [ -107.7944418, 39.6056268 ], [ -107.7909269, 39.6046282 ], [ -107.7742796, 39.5952172 ], [ -107.7698893, 39.593742200000101 ], [ -107.753762154, 39.586122496 ], [ -107.7466295, 39.5827454000001 ], [ -107.7435459, 39.581279000000102 ], [ -107.7339584, 39.575905400000103 ], [ -107.7276381, 39.572695800000098 ], [ -107.6970502, 39.5714003000001 ], [ -107.6939929, 39.569839300000098 ], [ -107.688893, 39.565233600000099 ], [ -107.677874, 39.525510500000102 ], [ -107.678028643, 39.525296612 ] ] ] } },
{ "type": "Feature", "properties": { "objectid": "68505", "id": "200206", "type": "AC; OVERHEAD", "status": "NOT AVAILABLE", "naics_code": "221121", "naics_desc": "ELECTRIC BULK POWER TRANSMISSION AND CONTROL", "source": "Regional Map", "sourcedate": "2014-06-29T20:00:00-06:00", "val_method": "IMAGERY/OTHER", "val_date": "2014-06-29T20:00:00-06:00", "owner": "PUBLIC SERVICE CO OF COLORADO", "voltage": 345.0, "volt_class": "345", "inferred": "N", "sub_1": "DANIELS PARK", "sub_2": "COMANCHE", "shape_lengt": 236955.77413768601, "globalid": "a6f93a8a-2ea9-4c51-9517-6a77adbd4f95", "STATEFP": "08", "STATENS": "01779779", "AFFGEOID": "0400000US08", "GEOID": "08", "STUSPS": "CO", "NAME": "Colorado", "LSAD": "00", "ALAND": 268422891711, "AWATER": 1181621593 }, "geometry": { "type": "MultiLineString", "coordinates": [ [ [ -104.90505142, 39.494246447000101 ], [ -104.904171577, 39.493760058000099 ], [ -104.903845172, 39.49321309 ], [ -104.903665915, 39.492920340000097 ], [ -104.903430789, 39.492310262 ], [ -104.902483802, 39.491225842000098 ], [ -104.900104353, 39.48841179 ], [ -104.896384665, 39.484009328000099 ], [ -104.893170047, 39.480221153000102 ], [ -104.889533547, 39.47594201 ], [ -104.881826782, 39.466869174000102 ], [ -104.875363819, 39.459260886 ], [ -104.868671648, 39.451369220000103 ], [ -104.861865406, 39.44332984 ], [ -104.855424191, 39.435730041 ], [ -104.846306107, 39.424980841 ], [ -104.839978964, 39.417502414000097 ], [ -104.834868578, 39.411480316000102 ], [ -104.829081371, 39.404629181000097 ], [ -104.824142631, 39.395983628000103 ], [ -104.818077312, 39.385741006 ], [ -104.81183382, 39.374995854000097 ], [ -104.806077032, 39.365125081 ], [ -104.799133904, 39.353159528 ], [ -104.79473076, 39.345567543000101 ], [ -104.7888599, 39.335445573000101 ], [ -104.782418686, 39.3243926600001 ], [ -104.778144822, 39.316962285 ], [ -104.773931796, 39.309719411000103 ], [ -104.766395498, 39.305194441 ], [ -104.759399137, 39.3010163800001 ], [ -104.747338019, 39.293742428 ], [ -104.733984096, 39.285720197 ], [ -104.720668196, 39.277738253 ], [ -104.706865592, 39.269431592000103 ], [ -104.693580111, 39.26145368 ], [ -104.678195722, 39.252214653000102 ], [ -104.668568121, 39.246413878000098 ], [ -104.65804316, 39.225910033 ], [ -104.646339466, 39.203096076000101 ], [ -104.63217944, 39.175611681000099 ], [ -104.626384627, 39.164162082000097 ], [ -104.626323789, 39.134904672 ], [ -104.626300975, 39.11013754 ], [ -104.626255347, 39.077280228000099 ], [ -104.626506303, 39.070721099 ], [ -104.626483489, 39.064480209000102 ], [ -104.616969959, 39.055569600000098 ], [ -104.617129658, 39.039428437 ], [ -104.617167682, 39.030378796 ], [ -104.617144868, 39.020778531000097 ], [ -104.626780073, 39.020689906 ], [ -104.626833307, 39.013109197000098 ], [ -104.626938082, 38.996725988 ], [ -104.627001833, 38.981357716 ], [ -104.627041029, 38.973049179 ], [ -104.627119423, 38.953614826 ], [ -104.627197821, 38.940556649 ], [ -104.627156915, 38.93827272 ], [ -104.627077744, 38.936136167 ], [ -104.627093716, 38.929551139000097 ], [ -104.627112731, 38.919373754 ], [ -104.627131746, 38.911798939 ], [ -104.627198296, 38.899288367 ], [ -104.627218146, 38.88852575 ], [ -104.627290593, 38.870202417 ], [ -104.627445271, 38.8577112420001 ], [ -104.627412126, 38.853942813000103 ], [ -104.626826558, 38.845131825000102 ], [ -104.62646196, 38.840028868 ], [ -104.62745632, 38.834650146000101 ], [ -104.627489465, 38.819794153 ], [ -104.627566803, 38.803566078000102 ], [ -104.627588901, 38.795721901 ], [ -104.627622046, 38.780005117 ], [ -104.627622046, 38.773631298000097 ], [ -104.616131667, 38.764818984 ], [ -104.608994374, 38.759296735000099 ], [ -104.609049616, 38.748673174 ], [ -104.621368628, 38.736729472 ], [ -104.627831966, 38.730446594000099 ], [ -104.62780987, 38.713275747000097 ], [ -104.627765676, 38.697687390000098 ], [ -104.627743579, 38.684924480000099 ], [ -104.627721482, 38.676109844000102 ], [ -104.627622046, 38.658744769000101 ], [ -104.627588901, 38.637414386 ], [ -104.62752261, 38.615740978000098 ], [ -104.627511562, 38.607289077000097 ], [ -104.610940794, 38.607293675 ], [ -104.599779733, 38.607293675 ], [ -104.58978609, 38.587528470000102 ], [ -104.580873718, 38.570101111 ], [ -104.573482117, 38.555509032 ], [ -104.57023269, 38.549156087 ], [ -104.562617135, 38.513061123000099 ], [ -104.554985899, 38.497988536 ], [ -104.551461692, 38.490599267 ], [ -104.546463517, 38.479627879000098 ], [ -104.541470991, 38.468622827 ], [ -104.530508214, 38.457654964 ], [ -104.522868746, 38.450074142000098 ], [ -104.511472053, 38.438728130000101 ], [ -104.501299413, 38.428599921000099 ], [ -104.491411959, 38.418721658 ], [ -104.480431124, 38.407771074 ], [ -104.472896729, 38.400255627 ], [ -104.464138223, 38.391491207000101 ], [ -104.453181143, 38.380564431 ], [ -104.444398893, 38.371797647 ], [ -104.433620179, 38.361035734 ], [ -104.424778079, 38.352172958 ], [ -104.416994507, 38.344596187 ], [ -104.406895127, 38.334385868 ], [ -104.403778425, 38.331265523000098 ], [ -104.396827117, 38.324348902 ], [ -104.38673704, 38.3143395210001 ], [ -104.38673704, 38.298935595 ], [ -104.386808405, 38.288779058 ], [ -104.386225751, 38.286576402 ], [ -104.385952664, 38.278057768 ], [ -104.385584262, 38.266115589 ], [ -104.385310916, 38.257250492 ], [ -104.385001951, 38.250345057000096 ], [ -104.384859393, 38.242769244 ], [ -104.385156434, 38.234603508000099 ], [ -104.385382251, 38.227228034000099 ], [ -104.385524867, 38.217751147000101 ], [ -104.385631827, 38.208880372000102 ], [ -104.38569125, 38.201278464 ], [ -104.38569125, 38.19340493 ], [ -104.385655886, 38.18304656 ], [ -104.405964962, 38.182972224 ], [ -104.431788797, 38.1828881530001 ], [ -104.459751901, 38.182813422 ], [ -104.48477958, 38.182701326 ], [ -104.505361827, 38.18264528 ], [ -104.53422747, 38.182860126 ], [ -104.556498437, 38.182981566000102 ], [ -104.57080567, 38.183009379 ], [ -104.570758889, 38.188285832000098 ], [ -104.570593548, 38.198184189000102 ], [ -104.570580618, 38.207508241 ], [ -104.570540751, 38.2104839570001 ], [ -104.570797963, 38.212688497 ], [ -104.575529109, 38.212764946 ], [ -104.577546534, 38.212653913 ], [ -104.577562779, 38.212114621000097 ], [ -104.576305422, 38.211333365 ] ] ] } },
{ "type": "Feature", "properties": { "objectid": "68511", "id": "200212", "type": "AC; OVERHEAD", "status": "NOT AVAILABLE", "naics_code": "221121", "naics_desc": "ELECTRIC BULK POWER TRANSMISSION AND CONTROL", "source": "Regional Map", "sourcedate": "2014-07-08T20:00:00-06:00", "val_method": "IMAGERY/OTHER", "val_date": "2014-07-08T20:00:00-06:00", "owner": "PUBLIC SERVICE CO OF COLORADO", "voltage": 345.0, "volt_class": "345", "inferred": "N", "sub_1": "SMOKY HILL", "sub_2": "MISSLE SITE", "shape_lengt": 87891.401615263996, "globalid": "2880b311-a0a8-4ca6-8eb9-80bace92ef50", "STATEFP": "08", "STATENS": "01779779", "AFFGEOID": "0400000US08", "GEOID": "08", "STUSPS": "CO", "NAME": "Colorado", "LSAD": "00", "ALAND": 268422891711, "AWATER": 1181621593 }, "geometry": { "type": "MultiLineString", "coordinates": [ [ [ -104.714750262, 39.631247289 ], [ -104.714096432, 39.629965193 ], [ -104.712939201, 39.630133591000103 ], [ -104.712709887, 39.6317600450001 ], [ -104.706127655, 39.631736903 ], [ -104.703312911, 39.631809674000102 ], [ -104.700523031, 39.631805843000102 ], [ -104.697446744, 39.631816910000097 ], [ -104.673934622, 39.631813438 ], [ -104.673859963, 39.637485187 ], [ -104.663599529, 39.637530362000099 ], [ -104.647920905, 39.637559109 ], [ -104.639750955, 39.637567323 ], [ -104.626354797, 39.637555003 ], [ -104.610660174, 39.637513935000101 ], [ -104.595418845, 39.637259312 ], [ -104.58134008, 39.6370046870001 ], [ -104.563805618, 39.637021115 ], [ -104.54817499, 39.636869161 ], [ -104.534568336, 39.636782388 ], [ -104.524912584, 39.636703282 ], [ -104.514550626, 39.636584624000101 ], [ -104.513086855, 39.635378248000102 ], [ -104.510679612, 39.633255034000101 ], [ -104.510775638, 39.626062740000101 ], [ -104.510871596, 39.622111657000097 ], [ -104.496596312, 39.621844203000101 ], [ -104.485599146, 39.621676236 ], [ -104.468125071, 39.621533585000101 ], [ -104.452135416, 39.621499602 ], [ -104.374065832, 39.621871841 ], [ -104.35216552, 39.622062364 ], [ -104.326583765, 39.6222389960001 ], [ -104.301087335, 39.622386874 ], [ -104.297871617, 39.622382766 ], [ -104.293797308, 39.622772998000102 ], [ -104.28985632, 39.622403305 ], [ -104.270929981, 39.622440274 ], [ -104.258568399, 39.622534752 ], [ -104.251043726, 39.628963013 ], [ -104.243689704, 39.635275683 ], [ -104.241556558, 39.637090931000103 ], [ -104.228203575, 39.637157186 ], [ -104.212897739, 39.637267525 ], [ -104.198676249, 39.63729657 ], [ -104.170064852, 39.63731052 ], [ -104.141253805, 39.637395789 ], [ -104.107394256, 39.637479336000098 ], [ -104.10640686, 39.653929446 ], [ -104.106295462, 39.666630069000099 ], [ -104.042145772, 39.666985799 ], [ -104.023308532, 39.667093625000099 ], [ -104.02295147, 39.680098970000103 ], [ -104.022537711, 39.68294804 ], [ -104.022435903, 39.685298511 ], [ -104.020331797, 39.685770963 ] ] ] } },
{ "type": "Feature", "properties": { "objectid": "68496", "id": "200197", "type": "AC; OVERHEAD", "status": "NOT AVAILABLE", "naics_code": "221121", "naics_desc": "ELECTRIC BULK POWER TRANSMISSION AND CONTROL", "source": "Regional Map", "sourcedate": "2014-06-29T20:00:00-06:00", "val_method": "IMAGERY/OTHER", "val_date": "2014-06-29T20:00:00-06:00", "owner": "TRI-STATE G & T ASSN, INC", "voltage": 345.0, "volt_class": "345", "inferred": "N", "sub_1": "RIFLE UTE", "sub_2": "GRAND JUNCTION", "shape_lengt": 117726.423499739, "globalid": "085035b7-ac51-4bfc-853e-2428bf09f768", "STATEFP": "08", "STATENS": "01779779", "AFFGEOID": "0400000US08", "GEOID": "08", "STUSPS": "CO", "NAME": "Colorado", "LSAD": "00", "ALAND": 268422891711, "AWATER": 1181621593 }, "geometry": { "type": "MultiLineString", "coordinates": [ [ [ -107.741773096, 39.520390381 ], [ -107.742404677, 39.520356011 ], [ -107.743791732, 39.520081659 ], [ -107.745309193, 39.517685603000103 ], [ -107.747739502, 39.513890154000102 ], [ -107.748166288, 39.513131039 ], [ -107.760448242, 39.5099938870001 ], [ -107.785687892, 39.503417298000102 ], [ -107.786351781, 39.5002980020001 ], [ -107.788639828, 39.489923738000101 ], [ -107.78978978, 39.48453473 ], [ -107.789991317, 39.477205375 ], [ -107.790192855, 39.471138172 ], [ -107.815408795, 39.46503383 ], [ -107.830488567, 39.461418562000098 ], [ -107.844359113, 39.458031939000101 ], [ -107.860007933, 39.454233232 ], [ -107.868828178, 39.452063758000101 ], [ -107.87932, 39.448585134 ], [ -107.888080969, 39.445637323 ], [ -107.916497804, 39.445646477 ], [ -107.920492995, 39.445628167 ], [ -107.937196926, 39.446305626 ], [ -107.955845103, 39.447120399 ], [ -107.971636185, 39.447724606000101 ], [ -107.976745762, 39.441581588000098 ], [ -107.983455787, 39.433670855000102 ], [ -107.996366063, 39.4336159160001 ], [ -108.000942158, 39.422792128 ], [ -108.026798277, 39.422325075000103 ], [ -108.048019026, 39.421912966 ], [ -108.060727765, 39.421665699000101 ], [ -108.066513087, 39.417581094000099 ], [ -108.07602093, 39.411664402 ], [ -108.080964534, 39.408568472000098 ], [ -108.083797919, 39.400855527 ], [ -108.088409579, 39.388203353 ], [ -108.099233347, 39.381945129 ], [ -108.105243917, 39.378408023000098 ], [ -108.10332338, 39.366759963 ], [ -108.10121316, 39.354752454 ], [ -108.100430719, 39.352002352 ], [ -108.103074421, 39.350003877000098 ], [ -108.1169094, 39.339928124 ], [ -108.129855243, 39.330501994 ], [ -108.141129507, 39.322285186 ], [ -108.14916731, 39.316387930000097 ], [ -108.159018953, 39.3091968250001 ], [ -108.162433242, 39.296023445000102 ], [ -108.16545631, 39.284490117000097 ], [ -108.180927302, 39.263730845000097 ], [ -108.191834056, 39.249162645000098 ], [ -108.198046163, 39.239724288 ], [ -108.202586692, 39.2326446860001 ], [ -108.205289671, 39.228411276 ], [ -108.214548556, 39.22035699 ], [ -108.220879215, 39.214745077 ], [ -108.228288695, 39.203088131000101 ], [ -108.234654919, 39.192926915 ], [ -108.24004902, 39.184500994000103 ], [ -108.252271697, 39.1757340240001 ], [ -108.26384234, 39.167342809 ], [ -108.265561339, 39.154308245 ], [ -108.267387035, 39.139303557 ], [ -108.268347303, 39.132075894 ], [ -108.269912185, 39.119687829 ], [ -108.272769281, 39.097646957 ], [ -108.273895522, 39.089108407 ], [ -108.293563244, 39.0840013440001 ], [ -108.305928183, 39.0808264980001 ], [ -108.312531511, 39.073362745 ], [ -108.323094464, 39.061479853 ], [ -108.324766043, 39.059620380000098 ], [ -108.35577916, 39.059740051 ], [ -108.385357801, 39.059868927 ], [ -108.401563814, 39.0530474 ], [ -108.413478257, 39.048011384000098 ], [ -108.413608664, 39.047422136000101 ], [ -108.414607626, 39.046989006 ] ] ] } },
{ "type": "Feature", "properties": { "objectid": "68500", "id": "200201", "type": "AC; OVERHEAD", "status": "NOT AVAILABLE", "naics_code": "221121", "naics_desc": "ELECTRIC BULK POWER TRANSMISSION AND CONTROL", "source": "Regional Map", "sourcedate": "2014-06-29T20:00:00-06:00", "val_method": "IMAGERY/OTHER", "val_date": "2014-06-29T20:00:00-06:00", "owner": "TRI-STATE G & T ASSN, INC", "voltage": 345.0, "volt_class": "345", "inferred": "N", "sub_1": "CRAIG", "sub_2": "AULT", "shape_lengt": 385195.242999201, "globalid": "c8a09b46-fc00-44ed-bb3b-31038a279e96", "STATEFP": "08", "STATENS": "01779779", "AFFGEOID": "0400000US08", "GEOID": "08", "STUSPS": "CO", "NAME": "Colorado", "LSAD": "00", "ALAND": 268422891711, "AWATER": 1181621593 }, "geometry": { "type": "MultiLineString", "coordinates": [ [ [ -107.591734929, 40.472360787000099 ], [ -107.593400018, 40.472943373000099 ], [ -107.593409525, 40.473905254 ], [ -107.590852091, 40.473926950000099 ], [ -107.590852091, 40.477911737 ], [ -107.590852091, 40.479951047 ], [ -107.587733732, 40.48006675 ], [ -107.580679398, 40.480348777000103 ], [ -107.567702085, 40.480312619000102 ], [ -107.558423068, 40.477673090000103 ], [ -107.554135327, 40.474057129000101 ], [ -107.545911608, 40.467085005000101 ], [ -107.536822735, 40.459511764000098 ], [ -107.525537701, 40.45023754 ], [ -107.515479095, 40.441866490000102 ], [ -107.499934842, 40.428754333 ], [ -107.47152736, 40.430795135 ], [ -107.454528506, 40.435108115 ], [ -107.437501131, 40.437532236 ], [ -107.422356178, 40.442684106000101 ], [ -107.411128188, 40.446431989000097 ], [ -107.391619436, 40.444521897000101 ], [ -107.37324204, 40.442727519000101 ], [ -107.338626364, 40.443762187 ], [ -107.324869461, 40.444167367 ], [ -107.314668247, 40.440911386 ], [ -107.298315882, 40.440795615000098 ], [ -107.283703333, 40.440882444000103 ], [ -107.269908401, 40.440947565 ], [ -107.257710678, 40.441678365 ], [ -107.229331718, 40.450765670000102 ], [ -107.209243027, 40.457189711000098 ], [ -107.195391053, 40.461595033 ], [ -107.194335755, 40.462586009000098 ], [ -107.192234666, 40.463041709 ], [ -107.191160354, 40.461739702 ], [ -107.183342619, 40.4624199 ], [ -107.178426248, 40.4556064430001 ], [ -107.171713509, 40.446428252 ], [ -107.165851682, 40.438071204 ], [ -107.157477643, 40.4264847480001 ], [ -107.151980491, 40.41889644 ], [ -107.135934752, 40.4115026710001 ], [ -107.118133165, 40.403316132 ], [ -107.10935393, 40.399253347000098 ], [ -107.080733625, 40.396537830000099 ], [ -107.065984511, 40.395159457 ], [ -107.027396398, 40.405475994 ], [ -106.993373487, 40.414505523000102 ], [ -106.978583853, 40.418454276 ], [ -106.946438348, 40.4270091120001 ], [ -106.937510541, 40.429363557 ], [ -106.919693242, 40.43410535 ], [ -106.915582025, 40.435253401000097 ], [ -106.887860592, 40.442625050000103 ], [ -106.852581575, 40.451947650000101 ], [ -106.850109882, 40.453437913000101 ], [ -106.844977407, 40.454619822 ], [ -106.842694806, 40.456079194 ], [ -106.831187255, 40.464136001 ], [ -106.822002825, 40.4705478710001 ], [ -106.820918141, 40.472093915000102 ], [ -106.815582231, 40.480053525000102 ], [ -106.807518945, 40.484722183 ], [ -106.802107729, 40.4879513670001 ], [ -106.781928995, 40.500009939 ], [ -106.779984058, 40.501365622 ], [ -106.776945091, 40.503470985 ], [ -106.769908197, 40.5076609750001 ], [ -106.7607913, 40.513072658000098 ], [ -106.752336221, 40.5180937330001 ], [ -106.742834439, 40.522945774 ], [ -106.717191873, 40.524265766 ], [ -106.704075196, 40.526662271000099 ], [ -106.680402295, 40.530862513 ], [ -106.664691665, 40.533608335000103 ], [ -106.651286528, 40.540616898000103 ], [ -106.635956186, 40.548636106000103 ], [ -106.622408442, 40.555588922 ], [ -106.607256359, 40.563398691 ], [ -106.591498193, 40.571586685000099 ], [ -106.57470612, 40.580387435 ], [ -106.558021003, 40.588961411000099 ], [ -106.543498772, 40.596505601 ], [ -106.523533675, 40.610084802000102 ], [ -106.511138677, 40.618456516 ], [ -106.489462286, 40.633140566000101 ], [ -106.468047342, 40.647749253 ], [ -106.446810659, 40.662057256 ], [ -106.427427877, 40.675172483 ], [ -106.410047329, 40.686952911000098 ], [ -106.39291891, 40.698551357 ], [ -106.384348831, 40.704318673 ], [ -106.3652129, 40.731101667000097 ], [ -106.351676872, 40.749905608000098 ], [ -106.337917786, 40.76915768 ], [ -106.328173723, 40.78274193 ], [ -106.309354769, 40.798518575000102 ], [ -106.291557179, 40.813420728 ], [ -106.27518011, 40.827191358 ], [ -106.258450846, 40.841154522000103 ], [ -106.232329714, 40.860397904000102 ], [ -106.213849592, 40.87416641 ], [ -106.210563408, 40.875360765 ], [ -106.19449825, 40.887171103000099 ], [ -106.181405608, 40.896818307 ], [ -106.163657279, 40.909768359 ], [ -106.152148043, 40.918376507000097 ], [ -106.128255154, 40.935964362 ], [ -106.107765406, 40.950995142000103 ], [ -106.087157493, 40.966111727000097 ], [ -106.062508349, 40.984132881 ], [ -106.050361025, 40.9923389040001 ], [ -106.041566067414152, 40.997816160961008 ] ], [ [ -105.372269643608462, 40.998128592048843 ], [ -105.367136279, 40.994577037000099 ], [ -105.364325872, 40.992614223 ], [ -105.343148702, 40.972023167 ], [ -105.340256666, 40.970913761000098 ], [ -105.334962373, 40.965982844 ], [ -105.316432349, 40.95803977 ], [ -105.284538318, 40.944317663 ], [ -105.272013935, 40.937358636000098 ], [ -105.252620965, 40.926636778 ], [ -105.232808183, 40.915728124000097 ], [ -105.220272138, 40.899326508 ], [ -105.210138349, 40.891675142000103 ], [ -105.209100481, 40.888677822 ], [ -105.203048195, 40.883123606 ], [ -105.196331207, 40.875946516000099 ], [ -105.187725066, 40.872313588 ], [ -105.173369837, 40.867534046000102 ], [ -105.114537887, 40.847989006 ], [ -105.100485855, 40.845095568 ], [ -105.061186812, 40.836935039 ], [ -105.058213145, 40.834641087000101 ], [ -105.036931021, 40.814362637 ], [ -105.000599338, 40.779660943000103 ], [ -104.980592526, 40.770039924000102 ], [ -104.948177307, 40.769828748000101 ], [ -104.944813793, 40.7683240960001 ], [ -104.942844481, 40.765591877000098 ], [ -104.943262742, 40.749301827000103 ], [ -104.943280169, 40.737603268 ], [ -104.931394589, 40.720051571 ], [ -104.914245893, 40.694580835000103 ], [ -104.9045039, 40.6802558730001 ], [ -104.887564334, 40.666126120000101 ], [ -104.873221471, 40.6542278410001 ], [ -104.855985638, 40.636270644 ], [ -104.835787122, 40.615305655 ], [ -104.824511506, 40.610529743 ], [ -104.81778092, 40.608751407000099 ], [ -104.815466614, 40.608082122 ], [ -104.814229259, 40.608042430000097 ], [ -104.813195224, 40.607539759000097 ] ] ] } },
{ "type": "Feature", "properties": { "objectid": "68493", "id": "200194", "type": "AC; OVERHEAD", "status": "NOT AVAILABLE", "naics_code": "221121", "naics_desc": "ELECTRIC BULK POWER TRANSMISSION AND CONTROL", "source": "Regional Map", "sourcedate": "2014-06-29T20:00:00-06:00", "val_method": "IMAGERY/OTHER", "val_date": "2014-06-29T20:00:00-06:00", "owner": "TRI-STATE G & T ASSN, INC", "voltage": 345.0, "volt_class": "345", "inferred": "N", "sub_1": "CRAIG", "sub_2": "MEEKER", "shape_lengt": 90793.910392981197, "globalid": "e1adc1b7-9fde-46cf-9c2f-9da3d37f79b4", "STATEFP": "08", "STATENS": "01779779", "AFFGEOID": "0400000US08", "GEOID": "08", "STUSPS": "CO", "NAME": "Colorado", "LSAD": "00", "ALAND": 268422891711, "AWATER": 1181621593 }, "geometry": { "type": "MultiLineString", "coordinates": [ [ [ -107.591734929, 40.472360787000099 ], [ -107.593977553, 40.472885961 ], [ -107.594005433, 40.474218442 ], [ -107.604765127, 40.473831841 ], [ -107.610384564, 40.474306808 ], [ -107.62002618, 40.480911816000102 ], [ -107.637726561, 40.4847058450001 ], [ -107.680881622, 40.484832542 ], [ -107.697856093, 40.465878404000101 ], [ -107.715658234, 40.445880188 ], [ -107.734317084, 40.424936452 ], [ -107.752903333, 40.404118880000098 ], [ -107.755792913, 40.400879029000102 ], [ -107.76115098, 40.394852270000101 ], [ -107.782496124, 40.370817281 ], [ -107.809983443, 40.339878836 ], [ -107.83340502, 40.3135766400001 ], [ -107.827814625, 40.302005300000097 ], [ -107.822224229, 40.2904762800001 ], [ -107.835278165, 40.27020436 ], [ -107.850394011, 40.246767766 ], [ -107.858294152, 40.228574 ], [ -107.867239946, 40.207856407000101 ], [ -107.870320017, 40.200574346000103 ], [ -107.871361806, 40.198706137 ], [ -107.889932822, 40.173809081000101 ], [ -107.909772103, 40.147015945000099 ], [ -107.917676109, 40.136351135 ], [ -107.942860219, 40.115241652000101 ], [ -107.963401575, 40.097954357 ], [ -107.965530447, 40.095338362000099 ], [ -107.966504293, 40.0718418700001 ], [ -107.967387549, 40.047782491000099 ], [ -107.96915406, 40.029697699 ], [ -107.968565223, 40.024807219 ], [ -107.969448478, 40.022032323000097 ], [ -107.973751519, 40.014418122000102 ], [ -107.980772269, 40.011642803 ], [ -107.982106182, 40.009366858000099 ], [ -107.982150209, 40.009067146000099 ], [ -107.98047293, 40.008878481000103 ], [ -107.980316515, 40.008499483 ] ] ] } },
{ "type": "Feature", "properties": { "objectid": "68512", "id": "200213", "type": "AC; OVERHEAD", "status": "NOT AVAILABLE", "naics_code": "221121", "naics_desc": "ELECTRIC BULK POWER TRANSMISSION AND CONTROL", "source": "Regional Map", "sourcedate": "2014-07-08T20:00:00-06:00", "val_method": "IMAGERY/OTHER", "val_date": "2014-07-08T20:00:00-06:00", "owner": "PUBLIC SERVICE CO OF COLORADO", "voltage": 345.0, "volt_class": "345", "inferred": "N", "sub_1": "MISSLE SITE", "sub_2": "PAWNEE", "shape_lengt": 108636.24752594699, "globalid": "47163bb3-6a69-4df2-a1c1-daab0ace520c", "STATEFP": "08", "STATENS": "01779779", "AFFGEOID": "0400000US08", "GEOID": "08", "STUSPS": "CO", "NAME": "Colorado", "LSAD": "00", "ALAND": 268422891711, "AWATER": 1181621593 }, "geometry": { "type": "MultiLineString", "coordinates": [ [ [ -104.020331797, 39.685770963 ], [ -104.022424235, 39.6868404310001 ], [ -104.022388601, 39.6884330560001 ], [ -104.024042587, 39.688437394000097 ], [ -104.023901411, 39.696258928000098 ], [ -104.023681177, 39.705291697000099 ], [ -104.023517414, 39.711834176 ], [ -104.023291532, 39.720447928 ], [ -104.023093887, 39.72936027 ], [ -104.022772007, 39.740360125000102 ], [ -104.022410597, 39.744498187 ], [ -104.021614368, 39.753225079 ], [ -104.021292488, 39.761838001 ], [ -104.020840726, 39.772897775 ], [ -104.0203212, 39.779724606000102 ], [ -104.020054554, 39.791788152 ], [ -104.019643557, 39.806604362 ], [ -104.019310383, 39.819990423 ], [ -104.019152267, 39.831522206 ], [ -104.019186149, 39.832901207000099 ], [ -104.019140972, 39.839115039 ], [ -104.019028033, 39.853418158000103 ], [ -104.019061914, 39.856205596 ], [ -104.007299171, 39.8558284530001 ], [ -103.999754752, 39.855520668 ], [ -103.999873339, 39.864315836000102 ], [ -104.000020162, 39.873148881000098 ], [ -104.00004275, 39.877447969000102 ], [ -104.000110514, 39.884411748 ], [ -104.000144396, 39.893393846 ], [ -104.000127456, 39.897960270000098 ], [ -103.999907222, 39.903869308 ], [ -103.999647459, 39.910869386 ], [ -103.999461107, 39.917708499000099 ], [ -103.999297343, 39.924417009000102 ], [ -103.999116639, 39.93572341 ], [ -103.99902064, 39.940572769 ], [ -103.998783465, 39.952136236000101 ], [ -103.998647936, 39.958984212000097 ], [ -103.998416408, 39.967627612000101 ], [ -103.998218763, 39.974266317000101 ], [ -103.998032411, 39.979039381000099 ], [ -103.997987235, 39.986027445 ], [ -103.998664877, 39.990042555000102 ], [ -104.000144396, 39.998686353 ], [ -104.000624393, 40.001130472000099 ], [ -104.000545335, 40.008021119 ], [ -104.000438042, 40.014638599000101 ], [ -104.0005171, 40.023482530000102 ], [ -104.000460629, 40.029480182 ], [ -103.980679118, 40.029519098 ], [ -103.980746882, 40.0382184280001 ], [ -103.980780764, 40.04853339 ], [ -103.980735587, 40.055890385 ], [ -103.974862687, 40.0589505230001 ], [ -103.96873567, 40.061854933000099 ], [ -103.963032179, 40.064586349000102 ], [ -103.950518382, 40.070610636 ], [ -103.941353268, 40.074136801000101 ], [ -103.920510116, 40.0741756910001 ], [ -103.901745068, 40.074192976000099 ], [ -103.867298244, 40.073968275 ], [ -103.840486192, 40.073799749 ], [ -103.817480231, 40.073778142 ], [ -103.814521193, 40.073419483000102 ], [ -103.80010435, 40.073562083000098 ], [ -103.788087491, 40.073683076000101 ], [ -103.771445722, 40.073773821 ], [ -103.756735235, 40.073821355000099 ], [ -103.74313721, 40.0739121 ], [ -103.735988082, 40.07398556 ], [ -103.736157492, 40.088075463 ], [ -103.72776602, 40.102620303 ], [ -103.720769362, 40.114657295 ], [ -103.713733175, 40.126553986 ], [ -103.707628746, 40.136808083000098 ], [ -103.69992621, 40.15007351 ], [ -103.693889546, 40.160233430000098 ], [ -103.684933372, 40.17567325 ], [ -103.680579519, 40.182865504000098 ], [ -103.680619048, 40.193538147 ], [ -103.680585166, 40.197868847 ], [ -103.68069246, 40.204066786000098 ], [ -103.679736941, 40.216046944 ], [ -103.678494877, 40.216506676 ] ] ] } },
{ "type": "Feature", "properties": { "objectid": "69934", "id": "201693", "type": "AC; OVERHEAD", "status": "NOT AVAILABLE", "naics_code": "221121", "naics_desc": "ELECTRIC BULK POWER TRANSMISSION AND CONTROL", "source": "Regional Map", "sourcedate": "2014-06-23T20:00:00-06:00", "val_method": "IMAGERY/OTHER", "val_date": "2014-06-23T20:00:00-06:00", "owner": "PUBLIC SERVICE CO OF COLORADO", "voltage": 345.0, "volt_class": "345", "inferred": "N", "sub_1": "TAP203975", "sub_2": "RIFLE PSCO", "shape_lengt": 1046.5644835362, "globalid": "7f9975ef-09f6-494b-903c-a6c386829300", "STATEFP": "08", "STATENS": "01779779", "AFFGEOID": "0400000US08", "GEOID": "08", "STUSPS": "CO", "NAME": "Colorado", "LSAD": "00", "ALAND": 268422891711, "AWATER": 1181621593 }, "geometry": { "type": "MultiLineString", "coordinates": [ [ [ -107.678028645, 39.525296613000101 ], [ -107.677863689, 39.5252306450001 ], [ -107.677154216, 39.522631852000103 ], [ -107.676696386, 39.521010607 ], [ -107.67855573, 39.521135484000098 ], [ -107.6796776, 39.521116 ], [ -107.679823145, 39.520640728 ] ] ] } },
{ "type": "Feature", "properties": { "objectid": "68501", "id": "200202", "type": "AC; OVERHEAD", "status": "NOT AVAILABLE", "naics_code": "221121", "naics_desc": "ELECTRIC BULK POWER TRANSMISSION AND CONTROL", "source": "Regional Map", "sourcedate": "2014-06-29T20:00:00-06:00", "val_method": "IMAGERY/OTHER", "val_date": "2014-06-29T20:00:00-06:00", "owner": "TRI-STATE G & T ASSN, INC", "voltage": 345.0, "volt_class": "345", "inferred": "N", "sub_1": "AULT", "sub_2": "LARAMIE RIVER", "shape_lengt": 237707.01010383101, "globalid": "061d82d7-a5a0-4412-a12e-acb027ac97a4", "STATEFP": "08", "STATENS": "01779779", "AFFGEOID": "0400000US08", "GEOID": "08", "STUSPS": "CO", "NAME": "Colorado", "LSAD": "00", "ALAND": 268422891711, "AWATER": 1181621593 }, "geometry": { "type": "MultiLineString", "coordinates": [ [ [ -104.813195224, 40.607539759000097 ], [ -104.813448142, 40.608737570000102 ], [ -104.815446967, 40.608369170000103 ], [ -104.817780853, 40.60925508 ], [ -104.825059806, 40.611316310000099 ], [ -104.835238787, 40.615596448000097 ], [ -104.84984291, 40.630785215000103 ], [ -104.863453397, 40.644901006 ], [ -104.872731174, 40.654578681 ], [ -104.887000234, 40.666454706 ], [ -104.88678071, 40.689814940000097 ], [ -104.886861587, 40.696428973 ], [ -104.88740462, 40.711397915000099 ], [ -104.877895765, 40.711494252000101 ], [ -104.877710903, 40.726494831 ], [ -104.877583809, 40.743785525000099 ], [ -104.877445163, 40.757063476 ], [ -104.875169046, 40.765823547 ], [ -104.876890576, 40.7717737850001 ], [ -104.877271855, 40.784005102 ], [ -104.877422055, 40.790566039 ], [ -104.886734495, 40.797852293000098 ], [ -104.88674297, 40.820012290000101 ], [ -104.886826926, 40.829279856 ], [ -104.887023342, 40.847837335000101 ], [ -104.887173543, 40.851149688000099 ], [ -104.887416174, 40.8693253490001 ], [ -104.88746239, 40.896265082000099 ], [ -104.886561186, 40.898561964000102 ], [ -104.886468755, 40.913790983000098 ], [ -104.886295447, 40.955504362 ], [ -104.886122138, 40.97950445 ], [ -104.897479616, 40.987729298 ], [ -104.911506043, 40.997889013000098 ], [ -104.919397353, 40.997880293 ], [ -104.919512347429603, 40.998067034331854 ] ] ] } },
{ "type": "Feature", "properties": { "objectid": "74391", "id": "206670", "type": "AC; OVERHEAD", "status": "NOT AVAILABLE", "naics_code": "221121", "naics_desc": "ELECTRIC BULK POWER TRANSMISSION AND CONTROL", "source": "IMAGERY", "sourcedate": "2015-12-07T18:00:00-07:00", "val_method": "IMAGERY", "val_date": "2015-12-07T18:00:00-07:00", "owner": "WAPA-- WESTERN AREA POWER ADMINISTRATION", "voltage": 345.0, "volt_class": "345", "inferred": "Y", "sub_1": "NOT AVAILABLE", "sub_2": "COMANCHE", "shape_lengt": 395.16934017170001, "globalid": "acc08f51-035d-43a2-a9ff-b4eec30c8270", "STATEFP": "08", "STATENS": "01779779", "AFFGEOID": "0400000US08", "GEOID": "08", "STUSPS": "CO", "NAME": "Colorado", "LSAD": "00", "ALAND": 268422891711, "AWATER": 1181621593 }, "geometry": { "type": "MultiLineString", "coordinates": [ [ [ -104.575438511, 38.208924634 ], [ -104.575426217, 38.209527966 ], [ -104.575444063, 38.210284635 ], [ -104.575440494, 38.2109163820001 ], [ -104.576305422, 38.211333365 ] ] ] } },
{ "type": "Feature", "properties": { "objectid": "68504", "id": "200205", "type": "AC; OVERHEAD", "status": "NOT AVAILABLE", "naics_code": "221121", "naics_desc": "ELECTRIC BULK POWER TRANSMISSION AND CONTROL", "source": "Regional Map", "sourcedate": "2014-06-29T20:00:00-06:00", "val_method": "IMAGERY/OTHER", "val_date": "2014-06-29T20:00:00-06:00", "owner": "PUBLIC SERVICE CO OF COLORADO", "voltage": 345.0, "volt_class": "345", "inferred": "N", "sub_1": "DANIELS PARK", "sub_2": "COMANCHE", "shape_lengt": 236939.75148318001, "globalid": "412538f0-5031-4131-8e7c-b82b1df9f293", "STATEFP": "08", "STATENS": "01779779", "AFFGEOID": "0400000US08", "GEOID": "08", "STUSPS": "CO", "NAME": "Colorado", "LSAD": "00", "ALAND": 268422891711, "AWATER": 1181621593 }, "geometry": { "type": "MultiLineString", "coordinates": [ [ [ -104.90505142, 39.494246447000101 ], [ -104.903850823, 39.493760058000099 ], [ -104.903628397, 39.49321309 ], [ -104.903490827, 39.492910688000102 ], [ -104.903320053, 39.492333836 ], [ -104.902395977, 39.491278884000103 ], [ -104.900021165, 39.488462233000099 ], [ -104.896277709, 39.48404143 ], [ -104.893069033, 39.4802578440001 ], [ -104.889438475, 39.475974117000099 ], [ -104.881743594, 39.466915046 ], [ -104.875280167, 39.459296115 ], [ -104.868557577, 39.451398581 ], [ -104.861789358, 39.443365077000102 ], [ -104.855332934, 39.435771155000097 ], [ -104.84623006, 39.4250043380001 ], [ -104.839918126, 39.417555289000099 ], [ -104.834754507, 39.411521445000098 ], [ -104.828997719, 39.404670313000103 ], [ -104.824044336, 39.396017828 ], [ -104.817970845, 39.385752761 ], [ -104.811727354, 39.375042883 ], [ -104.80599338, 39.365166237 ], [ -104.799057856, 39.353177169000098 ], [ -104.794624293, 39.345602828 ], [ -104.788753434, 39.335480864 ], [ -104.782319824, 39.3244338390001 ], [ -104.778038355, 39.317009353000103 ], [ -104.773848144, 39.309772367 ], [ -104.766311846, 39.305253285000099 ], [ -104.75932309, 39.301086998000102 ], [ -104.747246763, 39.293824824000097 ], [ -104.733900443, 39.28579083 ], [ -104.720592148, 39.277803006000099 ], [ -104.706789545, 39.269514016000102 ], [ -104.693496459, 39.261530225000101 ], [ -104.678104465, 39.252291209000099 ], [ -104.668476864, 39.24648455 ], [ -104.657906275, 39.22594538 ], [ -104.646225394, 39.203137327 ], [ -104.632072973, 39.1756352620001 ], [ -104.626278161, 39.164173875000102 ], [ -104.626194508, 39.134916469000103 ], [ -104.626156485, 39.110143441 ], [ -104.626103252, 39.077280228000099 ], [ -104.626346604, 39.070732907 ], [ -104.626384627, 39.064515637 ], [ -104.616848283, 39.055605032000102 ], [ -104.617023193, 39.039422531000099 ], [ -104.617046006, 39.030384704 ], [ -104.617046006, 39.020695815000103 ], [ -104.626696421, 39.020619008 ], [ -104.626696421, 39.013121014 ], [ -104.626830284, 38.996725971000103 ], [ -104.626894036, 38.981357427 ], [ -104.626933232, 38.973048894 ], [ -104.627011626, 38.953614499 ], [ -104.62709002, 38.940557038000101 ], [ -104.627049109, 38.938272842000103 ], [ -104.626977919, 38.936136167 ], [ -104.626989137, 38.929565930000102 ], [ -104.626989137, 38.919366356000097 ], [ -104.627017659, 38.911806336 ], [ -104.627074702, 38.89927357 ], [ -104.627099782, 38.88852575 ], [ -104.627180108, 38.870193814000103 ], [ -104.627345835, 38.85772845 ], [ -104.627268496, 38.853968625 ], [ -104.626705025, 38.845149035000098 ], [ -104.626384621, 38.840037474 ], [ -104.627345835, 38.834658752000102 ], [ -104.62737898, 38.819794153 ], [ -104.627467368, 38.803548858000099 ], [ -104.627467368, 38.795704679 ], [ -104.627500513, 38.780030956000097 ], [ -104.627511562, 38.773682979 ], [ -104.61604328, 38.764870672 ], [ -104.608894938, 38.759331196000097 ], [ -104.608950179, 38.748647324 ], [ -104.62128024, 38.736677764 ], [ -104.627721482, 38.730412119 ], [ -104.62766624, 38.71330161 ], [ -104.627644143, 38.697678767000099 ], [ -104.627633095, 38.684915855 ], [ -104.627599949, 38.676127095 ], [ -104.627489465, 38.658744769000101 ], [ -104.627467368, 38.637405756000099 ], [ -104.627412126, 38.615732346000101 ], [ -104.62737898, 38.607375415 ], [ -104.610941178, 38.607377913 ], [ -104.599706422, 38.607377913 ], [ -104.589685915, 38.587559593 ], [ -104.580773559, 38.570132273000098 ], [ -104.573381961, 38.555540208 ], [ -104.570128243, 38.549178874000098 ], [ -104.562512658, 38.513083783000098 ], [ -104.554885284, 38.498018829 ], [ -104.551360424, 38.490628192 ], [ -104.546361959, 38.479656173000102 ], [ -104.541375284, 38.468664024000098 ], [ -104.530423458, 38.457707125000098 ], [ -104.522784075, 38.450126391 ], [ -104.511387332, 38.4387803380001 ], [ -104.501214639, 38.428652084000099 ], [ -104.491327163, 38.418773806 ], [ -104.480346359, 38.40782326 ], [ -104.472811912, 38.400307767000101 ], [ -104.464053414, 38.391543361000103 ], [ -104.453096378, 38.380616637000102 ], [ -104.444314113, 38.371849845 ], [ -104.433535336, 38.361087878 ], [ -104.424693651, 38.352225524000097 ], [ -104.41690964, 38.34464833 ], [ -104.40677803, 38.334447103000102 ], [ -104.403694648, 38.331318747000097 ], [ -104.396742515, 38.324401312000099 ], [ -104.386629242, 38.314368925 ], [ -104.386629242, 38.298935361000098 ], [ -104.386700546, 38.288787519 ], [ -104.386118231, 38.286586146 ], [ -104.385844899, 38.278059856 ], [ -104.385476496, 38.266117637 ], [ -104.385203164, 38.257253003000102 ], [ -104.384894181, 38.250347169000101 ], [ -104.384751573, 38.242768661000099 ], [ -104.385048673, 38.234601281 ], [ -104.385274468, 38.227226515 ], [ -104.385417076, 38.217750245 ], [ -104.385524032, 38.208879711000101 ], [ -104.385583452, 38.201278203000101 ], [ -104.385583452, 38.193405044 ], [ -104.3855478, 38.1829622220001 ], [ -104.405964488, 38.182887491 ], [ -104.431788391, 38.18280342 ], [ -104.45975141, 38.182728689 ], [ -104.484779086, 38.182616593 ], [ -104.505362151, 38.182560545 ], [ -104.534228354, 38.1827753950001 ], [ -104.556498944, 38.182896833 ], [ -104.570914219, 38.182924856 ], [ -104.570866683, 38.188286567 ], [ -104.570699142, 38.198190572 ], [ -104.570688423, 38.207507015 ], [ -104.570686958, 38.210487148 ], [ -104.570902336, 38.212605467000103 ], [ -104.575525206, 38.212680166 ], [ -104.577323161, 38.212548607 ], [ -104.577327222, 38.212114621000097 ], [ -104.576305422, 38.211333365 ] ] ] } },
{ "type": "Feature", "properties": { "objectid": "68514", "id": "200215", "type": "AC; OVERHEAD", "status": "NOT AVAILABLE", "naics_code": "221121", "naics_desc": "ELECTRIC BULK POWER TRANSMISSION AND CONTROL", "source": "IMAGERY", "sourcedate": "2014-07-08T20:00:00-06:00", "val_method": "IMAGERY", "val_date": "2014-07-08T20:00:00-06:00", "owner": "MOUNTAIN VIEW ELEC ASSN, INC", "voltage": 345.0, "volt_class": "345", "inferred": "Y", "sub_1": "LIMON WIND #1", "sub_2": "LIMON WIND #2", "shape_lengt": 9046.2786169521005, "globalid": "87ce9659-8295-401c-8af3-1a5f8e4d3f87", "STATEFP": "08", "STATENS": "01779779", "AFFGEOID": "0400000US08", "GEOID": "08", "STUSPS": "CO", "NAME": "Colorado", "LSAD": "00", "ALAND": 268422891711, "AWATER": 1181621593 }, "geometry": { "type": "MultiLineString", "coordinates": [ [ [ -103.656427164, 39.375196736000099 ], [ -103.655739792, 39.374806574 ], [ -103.63952935, 39.374759204 ], [ -103.639568948, 39.359605702000103 ], [ -103.596292296, 39.359744025 ], [ -103.595013145, 39.3594838590001 ] ] ] } },
{ "type": "Feature", "properties": { "objectid": "68502", "id": "200203", "type": "AC; OVERHEAD", "status": "NOT AVAILABLE", "naics_code": "221121", "naics_desc": "ELECTRIC BULK POWER TRANSMISSION AND CONTROL", "source": "Company Map", "sourcedate": "2014-06-29T20:00:00-06:00", "val_method": "IMAGERY/OTHER", "val_date": "2014-06-29T20:00:00-06:00", "owner": "TRI-STATE G & T ASSN, INC", "voltage": 345.0, "volt_class": "345", "inferred": "N", "sub_1": "LARAMIE RIVER", "sub_2": "STORY 345KV", "shape_lengt": 370980.67067311401, "globalid": "341ec509-0622-4b72-8dca-8d73746032c8", "STATEFP": "08", "STATENS": "01779779", "AFFGEOID": "0400000US08", "GEOID": "08", "STUSPS": "CO", "NAME": "Colorado", "LSAD": "00", "ALAND": 268422891711, "AWATER": 1181621593 }, "geometry": { "type": "MultiLineString", "coordinates": [ [ [ -104.447721677997848, 41.001760644900216 ], [ -104.446690332, 40.993459483 ], [ -104.446053351, 40.987998413000099 ], [ -104.438362035, 40.975632191 ], [ -104.429881622, 40.961928312 ], [ -104.421353674, 40.947970258000097 ], [ -104.416181763, 40.939568155000103 ], [ -104.407663321, 40.925856788 ], [ -104.402149152, 40.914355433 ], [ -104.395180382, 40.8998268140001 ], [ -104.388078512, 40.885309379 ], [ -104.379997401, 40.8685097380001 ], [ -104.371526496, 40.8509723190001 ], [ -104.36403483, 40.835458727 ], [ -104.358957991, 40.820049425 ], [ -104.355145609, 40.80863042 ], [ -104.340181293, 40.8014268740001 ], [ -104.320919728, 40.792207209 ], [ -104.307295926, 40.785678539000102 ], [ -104.289935798, 40.777356612000098 ], [ -104.270427046, 40.76804 ], [ -104.264570618, 40.765152593 ], [ -104.258552567, 40.762250659000102 ], [ -104.249406651, 40.756143941000097 ], [ -104.231628207, 40.744310581 ], [ -104.217129745, 40.736250014000099 ], [ -104.187942673, 40.720226828000101 ], [ -104.155228436, 40.702419564 ], [ -104.131013626, 40.691686784000098 ], [ -104.103708979, 40.679510303 ], [ -104.079665297, 40.668809888000098 ], [ -104.062086505, 40.661007022 ], [ -104.039193193, 40.6508518320001 ], [ -104.034753335, 40.642823233000101 ], [ -104.023772532, 40.623083058000098 ], [ -104.015900579, 40.608938117 ], [ -104.005224006, 40.589808818 ], [ -103.996277742, 40.57967168 ], [ -103.984859607, 40.566723657000097 ], [ -103.976170037, 40.556453003000101 ], [ -103.964200486, 40.541557034 ], [ -103.959637034, 40.527777841000102 ], [ -103.955235206, 40.51520285 ], [ -103.94311354, 40.509362626 ], [ -103.921256512, 40.498851833000103 ], [ -103.902308684, 40.490183167000097 ], [ -103.883056626, 40.481940025 ], [ -103.860058736, 40.472090315000102 ], [ -103.832554438, 40.460322283 ], [ -103.816496795, 40.453493419 ], [ -103.807227286, 40.444182188000099 ], [ -103.795828166, 40.433075032 ], [ -103.792205927, 40.429529038 ], [ -103.776680687, 40.425563093 ], [ -103.761269534, 40.421582439000098 ], [ -103.750260209, 40.420916561000098 ], [ -103.734050452, 40.420786280000101 ], [ -103.714094862, 40.420648761000102 ], [ -103.693787506, 40.42048229 ], [ -103.674354811, 40.420323056 ], [ -103.669544174, 40.420294104 ], [ -103.657365464, 40.420388197000101 ], [ -103.635622424, 40.420605482 ], [ -103.617596893, 40.420750091000102 ], [ -103.614079232, 40.421575202 ], [ -103.599647319, 40.4218212850001 ], [ -103.582914666, 40.422096319 ], [ -103.583057274, 40.401567037000099 ], [ -103.583152346, 40.38927253 ], [ -103.583218897, 40.376910595 ], [ -103.583256925, 40.363923413000101 ], [ -103.569414458, 40.363677118 ], [ -103.569498816, 40.354497507000097 ], [ -103.569024663, 40.3517959220001 ], [ -103.560259035, 40.352143694000098 ], [ -103.553765624, 40.344905317 ], [ -103.546302481, 40.336687841000099 ], [ -103.546967984, 40.323569690000099 ], [ -103.545884165, 40.319104588000101 ], [ -103.545827121, 40.308216041 ], [ -103.545751064, 40.296346830000097 ], [ -103.545608456, 40.289842169 ], [ -103.546616218, 40.284620583 ], [ -103.546606712, 40.275438317000102 ], [ -103.546606712, 40.266066188 ], [ -103.546625725, 40.254095249000102 ], [ -103.570041932, 40.25439999 ], [ -103.584267543, 40.254588736000102 ], [ -103.586336206, 40.254715519000101 ], [ -103.587324221, 40.2545232780001 ] ] ] } },
{ "type": "Feature", "properties": { "objectid": "68489", "id": "200190", "type": "AC; OVERHEAD", "status": "NOT AVAILABLE", "naics_code": "221121", "naics_desc": "ELECTRIC BULK POWER TRANSMISSION AND CONTROL", "source": "Regional Map", "sourcedate": "2014-06-29T20:00:00-06:00", "val_method": "IMAGERY/OTHER", "val_date": "2014-06-29T20:00:00-06:00", "owner": "TRI-STATE G & T ASSN, INC", "voltage": 345.0, "volt_class": "345", "inferred": "N", "sub_1": "BONANZA", "sub_2": "BEARS EARS", "shape_lengt": 213120.82506737299, "globalid": "ebd31b58-51cd-416d-84b7-a1eecced70d2", "STATEFP": "08", "STATENS": "01779779", "AFFGEOID": "0400000US08", "GEOID": "08", "STUSPS": "CO", "NAME": "Colorado", "LSAD": "00", "ALAND": 268422891711, "AWATER": 1181621593 }, "geometry": { "type": "MultiLineString", "coordinates": [ [ [ -109.050967961427602, 40.176543990264726 ], [ -109.048422693, 40.179172567000101 ], [ -109.0381769, 40.184384400000098 ], [ -108.9944824, 40.206819 ], [ -108.984295033, 40.212000707000101 ], [ -108.9523102, 40.2230398 ], [ -108.938040791, 40.227933276 ], [ -108.923999325, 40.228811991 ], [ -108.898732811, 40.2296700200001 ], [ -108.852898323, 40.231199972000098 ], [ -108.827929698, 40.232047633 ], [ -108.780808867, 40.239769130000099 ], [ -108.751561455, 40.236709579 ], [ -108.711278559, 40.230290275000101 ], [ -108.669844725, 40.234890321000101 ], [ -108.629060833, 40.239355685000099 ], [ -108.589224773, 40.243707065000102 ], [ -108.564445715, 40.261089121000097 ], [ -108.54724932, 40.273177454000098 ], [ -108.523892011, 40.289539755000099 ], [ -108.48948568, 40.313642141000102 ], [ -108.458667573, 40.335207206000099 ], [ -108.432751116, 40.353329332 ], [ -108.416353608, 40.3610988880001 ], [ -108.380525527, 40.369610322 ], [ -108.361514709, 40.374035844 ], [ -108.328218696, 40.393374745000102 ], [ -108.321191193, 40.397468723 ], [ -108.308178802, 40.405893079000101 ], [ -108.295369519, 40.414223595000102 ], [ -108.246553321, 40.445799866000101 ], [ -108.206652367, 40.471591584000102 ], [ -108.162193946, 40.478680262000097 ], [ -108.121184928, 40.485207613 ], [ -108.076271192, 40.486010893000099 ], [ -108.043273069, 40.4865773020001 ], [ -108.019496007, 40.490058042000101 ], [ -107.991656802, 40.484713282 ], [ -107.92689274, 40.484775073 ], [ -107.863726453, 40.484857462 ], [ -107.791460971, 40.484847164 ], [ -107.713021053, 40.484790803000102 ], [ -107.709162001, 40.484795671 ], [ -107.706223719, 40.485187015000101 ], [ -107.661987007, 40.485094329 ], [ -107.637614164, 40.485084031 ], [ -107.617086812, 40.480624613 ], [ -107.614148531, 40.479460791000101 ], [ -107.601948879, 40.479949358 ], [ -107.598292642, 40.479975759000098 ], [ -107.594125124, 40.480248943 ], [ -107.593586486, 40.4802842510001 ] ] ] } },
{ "type": "Feature", "properties": { "objectid": "74392", "id": "206671", "type": "AC; OVERHEAD", "status": "NOT AVAILABLE", "naics_code": "221121", "naics_desc": "ELECTRIC BULK POWER TRANSMISSION AND CONTROL", "source": "IMAGERY", "sourcedate": "2015-12-07T18:00:00-07:00", "val_method": "IMAGERY", "val_date": "2015-12-07T18:00:00-07:00", "owner": "WAPA-- WESTERN AREA POWER ADMINISTRATION", "voltage": 345.0, "volt_class": "345", "inferred": "Y", "sub_1": "NOT AVAILABLE", "sub_2": "COMANCHE", "shape_lengt": 382.54523405819998, "globalid": "693fc7d1-805b-4be8-94b3-03dbdb794bc5", "STATEFP": "08", "STATENS": "01779779", "AFFGEOID": "0400000US08", "GEOID": "08", "STUSPS": "CO", "NAME": "Colorado", "LSAD": "00", "ALAND": 268422891711, "AWATER": 1181621593 }, "geometry": { "type": "MultiLineString", "coordinates": [ [ [ -104.575438511, 38.208924634 ], [ -104.575643938, 38.209577935 ], [ -104.575629661, 38.210281066 ], [ -104.575626092, 38.210944935 ], [ -104.576305422, 38.211333365 ] ] ] } },
{ "type": "Feature", "properties": { "objectid": "68497", "id": "200198", "type": "AC; OVERHEAD", "status": "NOT AVAILABLE", "naics_code": "221121", "naics_desc": "ELECTRIC BULK POWER TRANSMISSION AND CONTROL", "source": "Regional Map", "sourcedate": "2014-06-29T20:00:00-06:00", "val_method": "IMAGERY/OTHER", "val_date": "2014-06-29T20:00:00-06:00", "owner": "TRI-STATE G & T ASSN, INC", "voltage": 345.0, "volt_class": "345", "inferred": "N", "sub_1": "GRAND JUNCTION", "sub_2": "MONTROSE", "shape_lengt": 113934.829199181, "globalid": "c266d12b-1565-4a56-b362-4796b5a91297", "STATEFP": "08", "STATENS": "01779779", "AFFGEOID": "0400000US08", "GEOID": "08", "STUSPS": "CO", "NAME": "Colorado", "LSAD": "00", "ALAND": 268422891711, "AWATER": 1181621593 }, "geometry": { "type": "MultiLineString", "coordinates": [ [ [ -108.414607626, 39.046989006 ], [ -108.414072177, 39.046362655 ], [ -108.414321533, 39.045496027000098 ], [ -108.414271663, 39.035139241 ], [ -108.414178154, 39.022921222 ], [ -108.414134517, 39.011030476 ], [ -108.411665895, 39.0088652250001 ], [ -108.402184147, 38.998411022 ], [ -108.390651447, 38.985740860000099 ], [ -108.380010194, 38.973998949000098 ], [ -108.368938802, 38.961910937 ], [ -108.357370941, 38.948897931 ], [ -108.348598226, 38.939249616 ], [ -108.338365369, 38.923033799 ], [ -108.329414588, 38.908754162 ], [ -108.31782843, 38.893935771 ], [ -108.306111692, 38.878901738 ], [ -108.294667987, 38.86416955 ], [ -108.292103837, 38.861895678000103 ], [ -108.274392211, 38.848740920000097 ], [ -108.250519503, 38.831145054 ], [ -108.220200808, 38.81976969 ], [ -108.209338786, 38.795431406 ], [ -108.200874718, 38.776165799000097 ], [ -108.194654281, 38.762097323 ], [ -108.187674095, 38.746526210000098 ], [ -108.179874807, 38.728803226 ], [ -108.173048946, 38.713530525000103 ], [ -108.169511369, 38.701043199 ], [ -108.165914437, 38.688581491 ], [ -108.163112866, 38.6787495720001 ], [ -108.154078987, 38.664615557 ], [ -108.145496208, 38.651238968 ], [ -108.138100537, 38.639686554 ], [ -108.128817365, 38.6252480570001 ], [ -108.118335216, 38.608867924 ], [ -108.110037343, 38.595916995 ], [ -108.097406532, 38.579177521000098 ], [ -108.084348363, 38.562044284000102 ], [ -108.074079894, 38.548537148 ], [ -108.065971958, 38.537850324 ], [ -108.062351283, 38.532956695 ], [ -108.054017797, 38.522063231000097 ], [ -108.048224718, 38.516091092000103 ], [ -108.040021814, 38.507824017000097 ], [ -108.039377136, 38.494743847 ], [ -108.038810965, 38.481455927000098 ], [ -108.037893508, 38.463351419 ], [ -108.037026009, 38.4462285500001 ], [ -108.03619658, 38.429853323 ], [ -108.035516748, 38.416032781000098 ], [ -108.034054157, 38.414970398 ], [ -108.033967571, 38.414907505 ], [ -108.027569068, 38.415986454000098 ], [ -108.019366164, 38.417297914000102 ], [ -108.003779458, 38.419734747000099 ], [ -107.983040711, 38.422999231000098 ], [ -107.954585773, 38.427686437 ], [ -107.95455016, 38.4386871560001 ], [ -107.952793243, 38.438659262 ], [ -107.952096487, 38.438374327000098 ] ] ] } },
{ "type": "Feature", "properties": { "objectid": "68507", "id": "200208", "type": "AC; OVERHEAD", "status": "NOT AVAILABLE", "naics_code": "221121", "naics_desc": "ELECTRIC BULK POWER TRANSMISSION AND CONTROL", "source": "Regional Map", "sourcedate": "2014-06-29T20:00:00-06:00", "val_method": "IMAGERY/OTHER", "val_date": "2014-06-29T20:00:00-06:00", "owner": "PUBLIC SERVICE CO OF COLORADO", "voltage": 345.0, "volt_class": "345", "inferred": "N", "sub_1": "MIDWAY", "sub_2": "WATERTON", "shape_lengt": 169784.71872404299, "globalid": "8774d2d0-5556-4659-95e0-77e2afbde17d", "STATEFP": "08", "STATENS": "01779779", "AFFGEOID": "0400000US08", "GEOID": "08", "STUSPS": "CO", "NAME": "Colorado", "LSAD": "00", "ALAND": 268422891711, "AWATER": 1181621593 }, "geometry": { "type": "MultiLineString", "coordinates": [ [ [ -104.690542407, 38.561174435000098 ], [ -104.690143589, 38.5615141850001 ], [ -104.689547017, 38.562591814 ], [ -104.688696954, 38.563675244000102 ], [ -104.687577437, 38.565289059000101 ], [ -104.681944509, 38.572949366000103 ], [ -104.668680747, 38.578633486000101 ], [ -104.656602416, 38.583827905000099 ], [ -104.639137509, 38.591260169000101 ], [ -104.627356883, 38.596262988 ], [ -104.627334787, 38.6050183770001 ], [ -104.627688337, 38.606986897000098 ], [ -104.627688337, 38.615723713000101 ], [ -104.627754628, 38.637414386 ], [ -104.627754628, 38.658753397000098 ], [ -104.627887208, 38.676109844000102 ], [ -104.627909306, 38.684924480000099 ], [ -104.627909306, 38.697670144 ], [ -104.627975596, 38.713275747000097 ], [ -104.627942451, 38.730515545000102 ], [ -104.62150121, 38.736798417 ], [ -104.609204294, 38.7487248730001 ], [ -104.609182197, 38.759262274 ], [ -104.616275297, 38.764724222 ], [ -104.62780987, 38.773605456 ], [ -104.627754628, 38.7800137300001 ], [ -104.627732531, 38.795687457 ], [ -104.627710433, 38.803540248 ], [ -104.627644143, 38.819802761000098 ], [ -104.627622046, 38.834710389000101 ], [ -104.626649783, 38.840071896 ], [ -104.627003333, 38.845131825000102 ], [ -104.627555755, 38.853942813000103 ], [ -104.627588901, 38.8577112420001 ], [ -104.627467368, 38.870193814000103 ], [ -104.627412126, 38.888505075000097 ], [ -104.627392162, 38.899273577 ], [ -104.627349161, 38.911813731000102 ], [ -104.627325931, 38.919373737 ], [ -104.627274419, 38.929551157 ], [ -104.626999717, 39.013132781 ], [ -104.627014332, 39.020843143 ], [ -104.617333048, 39.020902228000097 ], [ -104.617402096, 39.030378756000097 ], [ -104.617326053, 39.039321474000097 ], [ -104.617143195, 39.05553452 ], [ -104.626649655, 39.064433824 ], [ -104.626690032, 39.070732187 ], [ -104.626459342, 39.0772850110001 ], [ -104.626482158, 39.110143543 ], [ -104.626542995, 39.134910683 ], [ -104.62657343, 39.164172121 ], [ -104.632246568, 39.175312410000103 ], [ -104.64655112, 39.203020925 ], [ -104.658239534, 39.225840660000102 ], [ -104.668706925, 39.2463127830001 ], [ -104.67832739, 39.252074510000099 ], [ -104.693704111, 39.261331182000099 ], [ -104.706997223, 39.269315011000103 ], [ -104.720807499, 39.277615838 ], [ -104.734123512, 39.285585745000098 ], [ -104.74745436, 39.293637610000097 ], [ -104.759545963, 39.300888073000102 ], [ -104.766496741, 39.305072053000103 ], [ -104.774118287, 39.309631411000098 ], [ -104.778373472, 39.316961121000098 ], [ -104.782639723, 39.32432677 ], [ -104.789058122, 39.335391454 ], [ -104.794921379, 39.345513437000101 ], [ -104.799324536, 39.35309957 ], [ -104.806275267, 39.365076891000101 ], [ -104.812009273, 39.374953603000101 ], [ -104.818260293, 39.385680995 ], [ -104.829245079, 39.404586564000098 ], [ -104.835044906, 39.411408838 ], [ -104.840154934, 39.417424645 ], [ -104.846459252, 39.424885446000097 ], [ -104.855600177, 39.435652312 ], [ -104.86204132, 39.443257909000103 ], [ -104.868832366, 39.451297312000101 ], [ -104.874224248, 39.457656664000098 ], [ -104.879491016, 39.463834817000098 ], [ -104.883011845, 39.468013832000103 ], [ -104.885876418, 39.471365166000098 ], [ -104.889678706, 39.4758602960001 ], [ -104.893322006, 39.480152877000101 ], [ -104.896524864, 39.483921121 ], [ -104.900283638, 39.488340081 ], [ -104.903514796, 39.492162923000102 ], [ -104.903946285, 39.492908454 ], [ -104.905370584, 39.492769957 ], [ -104.907321835, 39.492881933 ], [ -104.921152423, 39.492914347000102 ], [ -104.925647977, 39.492903437000102 ], [ -104.934280503, 39.492896099000099 ], [ -104.941467938, 39.492896099000099 ], [ -104.942295064, 39.492910773000098 ], [ -104.946126461, 39.492067044000102 ], [ -104.953646648, 39.4904309140001 ], [ -104.957088251, 39.491135262 ], [ -104.969989506, 39.493717809 ], [ -104.973526181, 39.494414786 ], [ -104.97944916, 39.495617973 ], [ -104.981493205, 39.496006804 ], [ -104.985058401, 39.495977458 ], [ -104.993034932, 39.495984795 ], [ -105.006364011, 39.49593344 ], [ -105.014340544, 39.495918767 ], [ -105.020795924, 39.495918767 ], [ -105.025644591, 39.495926104 ], [ -105.038108516, 39.495926104 ], [ -105.054251723, 39.495977458 ], [ -105.067514252, 39.495962786000099 ], [ -105.069929078, 39.495962786000099 ], [ -105.070727682, 39.496131523 ], [ -105.071568034, 39.497212293000104 ] ] ] } },
{ "type": "Feature", "properties": { "objectid": "68499", "id": "200200", "type": "AC; OVERHEAD", "status": "NOT AVAILABLE", "naics_code": "221121", "naics_desc": "ELECTRIC BULK POWER TRANSMISSION AND CONTROL", "source": "Regional Map", "sourcedate": "2014-06-29T20:00:00-06:00", "val_method": "IMAGERY/OTHER", "val_date": "2014-06-29T20:00:00-06:00", "owner": "TRI-STATE G & T ASSN, INC", "voltage": 345.0, "volt_class": "345", "inferred": "N", "sub_1": "HESPERUS", "sub_2": "WATERFLOW", "shape_lengt": 88741.662414341205, "globalid": "2fb8f237-cc0a-4c54-98b7-518cba71c701", "STATEFP": "08", "STATENS": "01779779", "AFFGEOID": "0400000US08", "GEOID": "08", "STUSPS": "CO", "NAME": "Colorado", "LSAD": "00", "ALAND": 268422891711, "AWATER": 1181621593 }, "geometry": { "type": "MultiLineString", "coordinates": [ [ [ -108.015592303, 37.184408780000098 ], [ -108.015718851, 37.1840394560001 ], [ -108.015893363, 37.183272377 ], [ -108.016741845, 37.182792949 ], [ -108.019672419, 37.178022476 ], [ -108.023818549, 37.1713720750001 ], [ -108.029059883, 37.163081031 ], [ -108.038020097, 37.148904068 ], [ -108.038531593, 37.137636379000099 ], [ -108.039440252, 37.122859683000101 ], [ -108.040084135, 37.110964268 ], [ -108.040818283, 37.099129377000096 ], [ -108.041504291, 37.087278237000099 ], [ -108.041979681, 37.079093197000098 ], [ -108.040986777, 37.060540368 ], [ -108.040060065, 37.042295209 ], [ -108.039909625, 37.039528516000097 ], [ -108.040246611, 37.030622539 ], [ -108.039139372, 37.025751191 ], [ -108.0384573, 37.013052581000103 ], [ -108.038339721, 37.009405376000103 ], [ -108.037954422, 37.002855494000102 ], [ -108.037672616364702, 36.999958311564107 ] ] ] } },
{ "type": "Feature", "properties": { "objectid": "68498", "id": "200199", "type": "AC; OVERHEAD", "status": "NOT AVAILABLE", "naics_code": "221121", "naics_desc": "ELECTRIC BULK POWER TRANSMISSION AND CONTROL", "source": "Regional Map", "sourcedate": "2014-06-29T20:00:00-06:00", "val_method": "IMAGERY/OTHER", "val_date": "2014-06-29T20:00:00-06:00", "owner": "TRI-STATE G & T ASSN, INC", "voltage": 345.0, "volt_class": "345", "inferred": "N", "sub_1": "MONTROSE", "sub_2": "HESPERUS", "shape_lengt": 222522.15644275301, "globalid": "cbc13a60-b61a-435b-b0d9-5482640f923e", "STATEFP": "08", "STATENS": "01779779", "AFFGEOID": "0400000US08", "GEOID": "08", "STUSPS": "CO", "NAME": "Colorado", "LSAD": "00", "ALAND": 268422891711, "AWATER": 1181621593 }, "geometry": { "type": "MultiLineString", "coordinates": [ [ [ -107.952096487, 38.438374327000098 ], [ -107.952781372, 38.438296627000099 ], [ -107.954348351, 38.438287328000101 ], [ -107.954429449, 38.436641084 ], [ -107.954431449, 38.427612039000103 ], [ -107.991493247, 38.421549641000098 ], [ -108.013746519, 38.418070314 ], [ -108.02755363, 38.415888880000097 ], [ -108.03406254, 38.414647066 ], [ -108.039499487, 38.4094008920001 ], [ -108.039665682, 38.392552891 ], [ -108.039956375, 38.375588499000102 ], [ -108.040213121, 38.3580416900001 ], [ -108.040512657, 38.325990175000101 ], [ -108.046802913, 38.317261653000102 ], [ -108.077869075, 38.301211858 ], [ -108.092161221, 38.267992951000103 ], [ -108.102773354, 38.264028507 ], [ -108.106111041, 38.263591734 ], [ -108.109191982, 38.264431681000097 ], [ -108.113000369, 38.2639949100001 ], [ -108.114198513, 38.2622477970001 ], [ -108.114925957, 38.260534242000098 ], [ -108.118135271, 38.253881234000097 ], [ -108.119333415, 38.228540464 ], [ -108.120445978, 38.203089985000098 ], [ -108.120659932, 38.186275013000099 ], [ -108.120574351, 38.172450198 ], [ -108.108935237, 38.137691577 ], [ -108.108250583, 38.1249010820001 ], [ -108.108036629, 38.112512361 ], [ -108.10807942, 38.107462008 ], [ -108.109662682, 38.090355552000098 ], [ -108.132769744, 38.072537682000103 ], [ -108.149586551, 38.0720997600001 ], [ -108.166965384, 38.062013186000101 ], [ -108.172336999, 38.059117127 ], [ -108.176652695, 38.051043414 ], [ -108.180187124, 38.044432015 ], [ -108.186346318, 38.032991241 ], [ -108.190496667, 38.025154064 ], [ -108.200247143, 38.018555258 ], [ -108.207581321, 38.013620694000103 ], [ -108.215076585, 38.001301498 ], [ -108.216943295, 37.998165372000102 ], [ -108.218696296, 37.994909632 ], [ -108.220345065, 37.992475201 ], [ -108.233326748, 37.982520074 ], [ -108.249378554, 37.9702255340001 ], [ -108.265686203, 37.957674912000101 ], [ -108.279549126, 37.947057503000103 ], [ -108.298045657, 37.932806394000103 ], [ -108.309454377, 37.924009234 ], [ -108.323393105, 37.913297251000103 ], [ -108.332774031, 37.892556574 ], [ -108.334214334, 37.8892587610001 ], [ -108.337701385, 37.885452259 ], [ -108.338971127, 37.8788483700001 ], [ -108.343453124, 37.868952646 ], [ -108.347309727, 37.8602077 ], [ -108.348399431, 37.85823265 ], [ -108.350019772, 37.85419261 ], [ -108.357050728, 37.838733671000099 ], [ -108.359410173, 37.833450252 ], [ -108.359703919, 37.830553938 ], [ -108.363134115, 37.809602803000097 ], [ -108.364176441, 37.803066987000101 ], [ -108.367995141, 37.793565441000098 ], [ -108.36630847, 37.789589254000099 ], [ -108.36729394, 37.774109290000098 ], [ -108.366280043, 37.753396869 ], [ -108.366962291, 37.750901997 ], [ -108.373036204, 37.745132754 ], [ -108.384918708, 37.732641176000101 ], [ -108.398857436, 37.707734161000097 ], [ -108.396706457, 37.686965669000102 ], [ -108.395739937, 37.677179219 ], [ -108.395569375, 37.673939282 ], [ -108.396649603, 37.645163639 ], [ -108.395683083, 37.6438131 ], [ -108.396355857, 37.625083098000097 ], [ -108.396839117, 37.612203483 ], [ -108.377963558, 37.59682158 ], [ -108.373434182, 37.584064725000097 ], [ -108.371235824, 37.577854447 ], [ -108.357012825, 37.573100643 ], [ -108.354122742, 37.572251986 ], [ -108.350844156, 37.571080372 ], [ -108.331542192, 37.5600242410001 ], [ -108.319394368, 37.553135861 ], [ -108.299249069, 37.529746680000102 ], [ -108.284533334, 37.509792833000098 ], [ -108.277218108, 37.499652281000103 ], [ -108.271286331, 37.493367303000099 ], [ -108.26439751, 37.486209604000102 ], [ -108.257129662, 37.47852484 ], [ -108.25120736, 37.461137212 ], [ -108.248042483, 37.451689643000101 ], [ -108.237117022, 37.434498927 ], [ -108.230256628, 37.423723564 ], [ -108.218279366, 37.410033907000098 ], [ -108.209969193, 37.400700326000099 ], [ -108.203705767, 37.382360971 ], [ -108.198958451, 37.368505611 ], [ -108.194931285, 37.3568169260001 ], [ -108.191340002, 37.34905861 ], [ -108.17297613, 37.343250647 ], [ -108.165225023, 37.339649636 ], [ -108.147211752, 37.334345739000099 ], [ -108.124413261, 37.335845032000101 ], [ -108.113506751, 37.333441629000099 ], [ -108.112350717, 37.3304655210001 ], [ -108.112379144, 37.324377318000103 ], [ -108.112587609, 37.306509211 ], [ -108.104921783, 37.302084861 ], [ -108.099387985, 37.296620015 ], [ -108.090139719, 37.292541851000102 ], [ -108.078020322, 37.291132157 ], [ -108.063304587, 37.285108620000102 ], [ -108.062262262, 37.27119007 ], [ -108.056899026, 37.253799577000102 ], [ -108.041671606, 37.245427179 ], [ -108.030168128, 37.239022799 ], [ -108.015945129, 37.233462842 ], [ -108.013130852, 37.219889394000099 ], [ -108.016039886, 37.212433899000096 ], [ -108.015787584, 37.196637456000097 ], [ -108.015367112, 37.186756608 ], [ -108.015281832, 37.185095812 ], [ -108.015592303, 37.184408780000098 ] ] ] } },
{ "type": "Feature", "properties": { "objectid": "74390", "id": "206669", "type": "AC; OVERHEAD", "status": "NOT AVAILABLE", "naics_code": "221121", "naics_desc": "ELECTRIC BULK POWER TRANSMISSION AND CONTROL", "source": "IMAGERY", "sourcedate": "2015-12-07T18:00:00-07:00", "val_method": "IMAGERY", "val_date": "2015-12-07T18:00:00-07:00", "owner": "WAPA-- WESTERN AREA POWER ADMINISTRATION", "voltage": 345.0, "volt_class": "345", "inferred": "Y", "sub_1": "NOT AVAILABLE", "sub_2": "COMANCHE", "shape_lengt": 409.71391409040001, "globalid": "acaf0e38-2b99-46ea-a5bc-63d818df935c", "STATEFP": "08", "STATENS": "01779779", "AFFGEOID": "0400000US08", "GEOID": "08", "STUSPS": "CO", "NAME": "Colorado", "LSAD": "00", "ALAND": 268422891711, "AWATER": 1181621593 }, "geometry": { "type": "MultiLineString", "coordinates": [ [ [ -104.575438511, 38.208924634 ], [ -104.575319538, 38.209553109000097 ], [ -104.57530427, 38.210325443 ], [ -104.575299511, 38.210915549 ], [ -104.576305422, 38.211333365 ] ] ] } },
{ "type": "Feature", "properties": { "objectid": "68494", "id": "200195", "type": "AC; OVERHEAD", "status": "NOT AVAILABLE", "naics_code": "221121", "naics_desc": "ELECTRIC BULK POWER TRANSMISSION AND CONTROL", "source": "Regional Map", "sourcedate": "2014-06-29T20:00:00-06:00", "val_method": "IMAGERY/OTHER", "val_date": "2014-06-29T20:00:00-06:00", "owner": "TRI-STATE G & T ASSN, INC", "voltage": 345.0, "volt_class": "345", "inferred": "N", "sub_1": "MEEKER", "sub_2": "MCBRYDE", "shape_lengt": 56433.455399189799, "globalid": "3d9d2ea7-6b18-4eb8-9988-252937185247", "STATEFP": "08", "STATENS": "01779779", "AFFGEOID": "0400000US08", "GEOID": "08", "STUSPS": "CO", "NAME": "Colorado", "LSAD": "00", "ALAND": 268422891711, "AWATER": 1181621593 }, "geometry": { "type": "MultiLineString", "coordinates": [ [ [ -107.980316515, 40.008499483 ], [ -107.980581156, 40.008388837 ], [ -107.982632804, 40.008486647 ], [ -107.983654372, 40.005591451 ], [ -107.995206596, 40.005532763000097 ], [ -108.009397869, 40.00528497 ], [ -108.018711158, 40.005076302000099 ], [ -108.024099925, 40.0049524040001 ], [ -108.026543174, 40.000283273 ], [ -108.028586309, 39.996370347 ], [ -108.03240016, 39.988922126 ], [ -108.036835465, 39.980305438000102 ], [ -108.038589155, 39.976998063 ], [ -108.042505164, 39.971413651 ], [ -108.04447168, 39.966924914000103 ], [ -108.047204374, 39.962651206 ], [ -108.051563061, 39.955832295 ], [ -108.05720722, 39.947048274 ], [ -108.059854783, 39.943151879 ], [ -108.064136852, 39.936304914000097 ], [ -108.068282713, 39.929862005000103 ], [ -108.074761152, 39.923966898000103 ], [ -108.081937663, 39.917359597 ], [ -108.085317349, 39.9142777120001 ], [ -108.09285992, 39.907297254000099 ], [ -108.100598293, 39.900146280000101 ], [ -108.109571059, 39.8919690930001 ], [ -108.118782192, 39.883483904 ], [ -108.134080163, 39.879204985000101 ], [ -108.148952481, 39.875043397000098 ], [ -108.154690284, 39.87342312 ], [ -108.156163043, 39.87232549 ], [ -108.161679507, 39.868366038 ], [ -108.173078496, 39.8682810970001 ], [ -108.179088717, 39.866627988000097 ], [ -108.185694853, 39.864746141000097 ], [ -108.18974707, 39.868124282 ], [ -108.189321417, 39.871463055 ], [ -108.188427546, 39.878584356 ], [ -108.206007017, 39.878512493000102 ], [ -108.215388461, 39.8784741650001 ], [ -108.221835158, 39.882322512 ], [ -108.230505657, 39.8874333380001 ], [ -108.239148363, 39.892543880000098 ], [ -108.247581877, 39.8977653070001 ], [ -108.256914982, 39.903725255 ], [ -108.265532651, 39.909242404000103 ], [ -108.272021267, 39.913367767000103 ], [ -108.279860596, 39.918402998 ], [ -108.289094036, 39.924275511000097 ], [ -108.290307913, 39.928229142000099 ], [ -108.291763518, 39.933051863000102 ], [ -108.302365516, 39.934129568000102 ], [ -108.304016482, 39.934289897 ], [ -108.307122762, 39.937605185000102 ], [ -108.313986684, 39.945031575 ], [ -108.327154787, 39.94841595 ], [ -108.329838004, 39.949071440000097 ], [ -108.330321565, 39.949270891 ], [ -108.330964041, 39.949971372 ] ] ] } },
{ "type": "Feature", "properties": { "objectid": "68513", "id": "200214", "type": "AC; OVERHEAD", "status": "NOT AVAILABLE", "naics_code": "221121", "naics_desc": "ELECTRIC BULK POWER TRANSMISSION AND CONTROL", "source": "IMAGERY", "sourcedate": "2014-07-08T20:00:00-06:00", "val_method": "IMAGERY", "val_date": "2014-07-08T20:00:00-06:00", "owner": "PUBLIC SERVICE CO OF COLORADO", "voltage": 345.0, "volt_class": "345", "inferred": "Y", "sub_1": "MISSLE SITE", "sub_2": "LIMON WIND #1", "shape_lengt": 82893.7842205864, "globalid": "8f9f8969-1571-438f-bbd6-dab5b6a04db7", "STATEFP": "08", "STATENS": "01779779", "AFFGEOID": "0400000US08", "GEOID": "08", "STUSPS": "CO", "NAME": "Colorado", "LSAD": "00", "ALAND": 268422891711, "AWATER": 1181621593 }, "geometry": { "type": "MultiLineString", "coordinates": [ [ [ -104.020331797, 39.685770963 ], [ -104.021229544, 39.684981988000096 ], [ -104.021262972, 39.68017121 ], [ -104.022700381, 39.680164778 ], [ -104.023051377, 39.653101122000102 ], [ -103.967401887, 39.653384229 ], [ -103.967993586, 39.610112755 ], [ -103.924177504, 39.6100654460001 ], [ -103.924560847, 39.549855401000102 ], [ -103.912008842, 39.549961044 ], [ -103.897008751, 39.546294455000101 ], [ -103.897644735, 39.418426391 ], [ -103.878568489, 39.403786634 ], [ -103.867896016, 39.399465713 ], [ -103.84143851, 39.388896848000101 ], [ -103.787309263, 39.3886745880001 ], [ -103.714710888, 39.389119107 ], [ -103.714870656, 39.374720203 ], [ -103.656982735, 39.374828380000103 ], [ -103.656427164, 39.375196736000099 ] ] ] } }
]
}
